_id,Name,Phone,AddressLine1,AddressLine2
3165423401,CHENEY ANIMAL CLINIC,3165423401,1961 S 391ST ST W,"CHENEY, KS 67025"
3164442377,HEARTLAND VETERINARY SERVICES,3164442377,2800 N 247TH ST W,"ANDALE, KS 67001"
3164442504,ANDALE ANIMAL CLINIC,3164442504,PO BOX 186,"ANDALE, KS 67001"
6204597371,NINNESCAH VETERINARY SVC,6204597371,13408 S MOHAWK RD,"HUTCHINSON, KS 67501"
3167948022,GODDARD VETERINARY CLINIC,3167948022,PO BOX 735,"GODDARD, KS 67052"
6205323541,ANIMAL CLINIC,6205323541,538 E D AVE,"KINGMAN, KS 67068"
6205325544,SWANEY VETRINARY CLINIC,6205325544,1015 E US HWY 54,"KINGMAN, KS 67068"
3167224828,OAKCREST PET HOSPITAL,3167224828,11832 W CENTRAL AVE # 110,"WICHITA, KS 67212"
3162016292,PRAIRIE RIDGE ANIMAL HOSPITAL,3162016292,12506 W KELLOGG,"WICHITA, KS 67235"
3167226478,COMPANION ANIMAL HOSPITAL,3167226478,4590 N MAIZE RD STE 10,"MAIZE, KS 67101"
3167226444,INDIAN HILLS ANIMAL CLINIC,3167226444,1448 N MAIZE RD # 200,"WICHITA, KS 67212"
3167221085,BOGUE ANIMAL HOSPITAL WEST,3167221085,429 N MAIZE RD,"WICHITA, KS 67212"
3167221921,COMPANION ANIMAL HOSPITAL,3167221921,10555 MAPLE ST,"WICHITA, KS 67209"
6206638387,CENTRAL KANSAS VETERINARY CENTER,6206638387,515 W BLANCHARD AVE,"S HUTCHINSON, KS 67505"
3167294226,BEST FRIENDS PET CLINIC,3167294226,9424 W CENTRAL AVE,"WICHITA, KS 67212"
3167220100,WEST WICHITA PET CLINIC,3167220100,8615 W 21ST ST N,"WICHITA, KS 67205"
3167213993,ALL CREATURES VETERINARY HOSP,3167213993,8414 W 13TH ST N # 170,"WICHITA, KS 67212"
3167226240,HERNDON VETERINARY CLINIC,3167226240,8820 W MAPLE ST,"WICHITA, KS 67209"
3167083925,DAVID NOLAN VET SERVICES,3167083925,11150 W 109TH ST N,"SEDGWICK, KS"
6206636150,COUNTRY JUNCTION,6206636150,2021 E 4TH AVE,"HUTCHINSON, KS 67501"
3162602229,NORTHRIDGE VETERINARY CLINIC & REHABILITATION,3162602229,3233 N RIDGE RD,"WICHITA, KS 67205"
6206635770,PURPLE WILDCAT ANIMAL CLINIC,6206635770,317 W 2ND AVE,"HUTCHINSON, KS 67501"
3169421002,HELTEN VETERINARY CLINIC,3169421002,6630 W CENTRAL AVE,"WICHITA, KS 67212"
6206691253,PRAIRIE VISTA VETERINARY SUPL,6206691253,801 N MAIN ST,"HUTCHINSON, KS 67505"
3162668246,SEDGWICK COUNTY ZOO,3162668246,5555 ZOO BLVD,"WICHITA, KS 67212"
6206624453,ARK VETERINARY CLINIC,6206624453,1717 N PLUM ST,"HUTCHINSON, KS 67502"
6206635860,WESTSIDE VETERINARY CLINIC,6206635860,1730 NICKERSON BLVD,"HUTCHINSON, KS 67501"
3169429502,WICHITA DOG & CAT HOSPITAL,3169429502,5214 W CENTRAL AVE,"WICHITA, KS 67212"
6206620515,APPLE LANE ANIMAL HOSPITAL,6206620515,2909 APPLE LN,"HUTCHINSON, KS 67502"
6206658743,HUTCHINSON SMALL ANIMAL HOSP,6206658743,1201 E 30TH AVE,"HUTCHINSON, KS 67502"
3169460920,BANFIELD - WICHITA W,3169460920,533 S TRACY ST STE B,"WICHITA, KS 67209"
3169423900,INDIAN HILLS ANIMAL CLINICS,3169423900,3223 W 13TH ST N,"WICHITA, KS 67203"
3169424275,CARING HEARTS VETERINARY CLINIC,3169424275,3701 W MAPLE ST,"WICHITA, KS 67213"
3167725194,SEDGWICK VETERINARY CLINIC,3167725194,PO BOX 65,"SEDGWICK, KS 67135"
3169422531,PET HAVEN VETERINARY CLINIC,3169422531,2518 W 13TH ST N,"WICHITA, KS 67203"
3168380861,SWEETBRIAR VETERINARY CLINIC,3168380861,2070 W 21ST ST N,"WICHITA, KS 67203"
3167550189,VALLEY CENTER VETERINARY CLNC,3167550189,122 W MAIN ST,"VALLEY CENTER, KS 67147"
5308857432,LIC # 4629,5308857432,937 N LITCHFIELD AVE,"WICHITA, KS 67203"
3162621239,SENECA VETERINARY CLINIC,3162621239,435 N SENECA ST,"WICHITA, KS 67203"
3162626491,ARAPAHOE VETERINARY CLINIC,3162626491,2776 S SENECA ST,"WICHITA, KS 67217"
6204562088,CONWAY SPRINGS VETERINARY SVC,6204562088,PO BOX 145,"CONWAY SPRINGS, KS 67031"
3163478696,ADKINS MOBILE VET SERVICE,3163478696,"WICHITA, KS 67202",3163478696
3166500604,FOUR PAWS SPAY AND NEUTER,3166500604,PO BOX 8225,"WICHITA, KS 67208"
3162099251,CLAYBORN VET SERVICES,3162099251,PO BOX 325,"WICHITA, KS 67208"
3057310945,EMERGENCY HOSPITAL,3057310945,300 SOUTH GALE,"WICHITA, KS 67218"
3165243257,WINGERT ANIMAL HOSPITAL,3165243257,4419 S SENECA ST,"WICHITA, KS 67217"
3165226222,BROADWAY ANIMAL CLINIC,3165226222,3036 S BROADWAY ST,"WICHITA, KS 67216"
3167440501,CHISHOLM TRAIL ANIMAL HOSP,3167440501,1726 E 61ST ST N,"PARK CITY, KS 67219"
3162671094,AIR CAPITAL VETERINARY CLINIC,3162671094,419 S HYDRAULIC ST # 1,"WICHITA, KS 67211"
3042429420,WHEELING VETERINARY ASSOCIATES,3042429420,2167 NATIONAL RD,"WHEELING, WV 26003"
7037290700,ASHBURN VILLAGE ANIMAL HOSPITAL,7037290700,44110 ASHBURN SHOPPING PLZ UNIT 172,"ASHBURN, VA 20147"
5406686232,DUNTHORPE FARM VETERINARY SERVICES,5406686232,35709 SUFFOLK LANE,"HILLSBORO, VA 20132"
7038326902,EZVET URGENT CARE,7038326902,20020 ASHBROOK COMMONS PLAZA,"ASHBURN, VA 20147"
8003193880,EZVET URGENT CARE,8003193880,20020 ASHBROOK COMMONS PLAZA,"ASHBURN, VA 20147"
5712094179,GILLIAN BRADEN DVM,5712094179,19700 HELIX DR,"ASHBURN, VA 20147"
5406875249,MIDDLEBURG EQUINE CLINIC,5406875249,35389 MILLVILLE RD,"MIDDLEBURG, VA 20117"
5714428767,LOUDOUN VALLEY ANIMAL HOSPITAL,5714428767,22556 AMENDOLA TERR STE 120,"ASHBURN, VA 20148"
7035173999,MOBILE VETERINARIAN,7035173999,23158 MINERVA DR,"ASHBURN, VA 20148"
5405542004,BROAD,5405542004,33715 SNICKERSVILLE TPKE,"BLUEMONT, VA 20135"
3016821236,MOBILE VET,3016821236,42942 CULPS HILL LN,"LEESBURG, VA 20176"
5712008500,HARMONY HILL ANIMAL HOSPITAL,5712008500,23520 OVERLAND DR SUITE 110,"STERLING, VA 20166"
7033278425,FAMILY VETERINARY HOSPITAL OF STONE RIDGE,7033278425,24650 SOUTHPOINT DR STE 140,"CHANTILLY, VA 20152"
5408225927,WAGNER VETERINARIAN,5408225927,40110 QUAILRUN COURT,"LOVETTSVILLE, VA 20180"
7039944012,COUNTRYSIDE ANIMAL CLINIC STERLING,7039944012,113 EDDS LANE,"STERLING, VA 20165"
5713131388,CHURCH ROAD ANIMAL HOSPITAL,5713131388,45441 RURITAN CIR,"STERLING, VA 20164"
2406761990,JAVIER DONATELLI,2406761990,PO BOX 365,"POOLSVILLE, MD 20837"
3013494790,MY FAMILY VETERINARY HOSPITAL,3013494790,17710 ELDGIN RD,"POOLESWILLE, MD 20837"
5408823459,SPURLOCK EQUINE ASSOC,5408823459,RR 2,"LOVETTSVILLE, VA 20180"
5408224738,HOUSE PAWS ANIMAL HOSPITAL LOVETTSVILLE,5408224738,2 E PENNSYLVANIA AVE,"LOVETTSVILLE, VA 20180"
2174931983,DANIEL KING DVM,2174931983,"LOVETTSVILLE, VA 20180",2174931983
7032544475,BLUE RIDGE VETERINARY ASSOCIATES,7032544475,"LOVETTSVILLE, VA 20180",7032544475
7036439818,LIFECARE PET HOSPITAL,7036439818,25150 LOUDON COUNTY PKWY STE 100,"CHANTILLY, VA 20152"
3019727705,POOLESVILLE VETERINARY CLINIC,3019727705,19621 FISHER AVE,"POOLESVILLE, MD 20837"
3013495710,HOUSECALL VET,3013495710,"POOLESVILLE, MD 20837",3013495710
7033270909,ALDIE VETERINARY HOSPITAL,7033270909,25067 ELK LICK ROAD,"SOUTH RIDING, VA 20152"
7033270871,DELA SOUTH VET CENTER,7033270871,25067 ELKLICK RD,"SOUTH RIDING, VA 20152"
7034303000,STERLING PARK ANIMAL HOSPITAL,7034303000,800 W CHURCH RD,"STERLING, VA 20164"
3015120113,MOBILE VET,3015120113,17600 SOPER ST,"POOLESVILLE, MD 20837"
7034069591,BANFIELD - STERLING,7034069591,46220 POTOMAC RUN PLZ STE 150,"STERLING, VA 20164"
7039573297,PETS + VETS ANIMAL HOSPITAL,7039573297,43114 PEACOCK MARKET PLAZA,"SOUTH RIDING, VA 20152"
5406686505,GOOSE CREEK VETERINARY MOBILE CLINIC,5406686505,36691 SAWMILL LN,"PURCELLVILLE, VA 20132"
3016074025,MONOCACY EQUINE VETERINARY,3016074025,PO BOX 155,"BEALLSVILLE, MD 20839"
7038440660,CASCADES PET HOSPITAL,7038440660,21435 EPICERIE PLAZA STE 170,"STERLING, VA 20164"
3017752028,HOUSECALL VET,3017752028,18101 CATTAIL RD,"POOLESVILLE, MD 20837"
7035426170,BANFIELD - SOUTH RIDING,7035426170,25401 EASTERN MARKETPLACE PLAZA,"CHANTILLY, VA 20152"
3019727010,VCA PEACHTREE ANIMAL HOSPITAL,3019727010,18620 DARNESTOWN RD,"BEALLSVILLE, MD 20839"
9054521818,CAMPBELL VETERINARY HOSPITAL,9054521818,158 KENNEDY RD S #3,"BRAMPTON, ON L6W 3G7"
7034351324,ANIMAL HOME CARE,7034351324,100 S LINCOLN AVE,"STERLING, VA 20164"
7038359917,HERITAGE ANIMAL HOSPITAL,7038359917,46950 COMMUNITY PLAZA # 102,"STERLING, VA 20164"
7034444804,HERITAGE ANIMAL HOSPITAL,7034444804,46950 COMMUNITY PLZ # 102,"STERLING, VA 20164"
7036899580,BANFIELD - HERNDON,7036899580,1060 ELDEN ST,"HERNDON, VA 20170"
7033789791,NOVA PETS HEALTH CENTER,7033789791,3935 AVION PARK CT STE A102,"CHANTILLY, VA 20151"
5714340250,ANIMAL MEDICAL CENTER OF CASCADES,5714340250,20789 GREAT FALLS PLZ STE 180,"STERLING, VA 20165"
7037131200,CLOCKTOWER ANIMAL HOSPITAL,7037131200,2451 CENTREVILLE RD STE I12,"HERNDON, VA 20171"
7035423618,CLOCKTOWER ANIMAL HOSPITAL,7035423618,2451 CENTREVILLE RD,"HERNDON, VA 20171"
3018348000,BRUNSWICK VETERINARY OFFICE,3018348000,19 E POTOMAC ST,"BRUNSWICK, MD 21716"
5712614116,COMPANION PAWS MOBILE VET SERVICE,5712614116,4090 WATERFOWL LN,"AMISSVILLE, VA 20106"
7034376900,DOMINION ANIMAL HOSPITAL,7034376900,795 STATION ST,"HERNDON, VA 20170"
7039990750,MOBILE VET,7039990750,11924 HOLLY SPRING DR,"GREAT FALLS, VA 22066"
7034358777,HERNDON ANIMAL MEDICAL CENTER,7034358777,720 JACKSON ST,"HERNDON, VA 20170"
7034599724,HERNDON ANIMAL MEDICAL CENTER,7034599724,720 JACKSON ST,"HERNDON, VA 20170"
5403032336,MOBILE VET,5403032336,"RECTORTOWN, VA 20140",5403032336
7034375655,VCA HERNDON-RESTON ANIMAL HOSPITAL,7034375655,500 ELDEN ST,"HERNDON, VA 20170"
5403649111,EMAIL ONLY NO VERBALS 11/20/20,5403649111,20 A JOHN MARASHALL ST,"WARRENTON, VA 20186"
7032777272,PENDER VETERINARY CENTER-CHANTILLY CAMPUS,7032777272,4508 UPPER CUB RUN DR,"CHANTILLY, VA 20151"
7037534444,DOMINION VALLEY ANIMAL HOSPITAL,7037534444,5371 MERCHANTS VIEW SQUARE,"HAYMARKET, VA 20169"
3018744600,HORIZON EQUINE VETERINARY SERVICES,3018744600,4911 BALD HILL RD,"ADAMSTOWN, MD 21710"
5404491537,DAVIS EQUINE,5404491537,"THE PLAINS, VA 20198",5404491537
5409980627,DAVIS EQUINE,5409980627,"THE PLAINS, VA 20198",5409980627
7039459227,ELIZABETH HINES,7039459227,360 HERNDON PKWY,"HERNDON, VA 20170"
5402535619,AGAPE VET CLINIC,5402535619,PO BOX 106,"THE PLAINS, VA 20198"
3047257663,COUNTRYSIDE VETERINARY CLINIC,3047257663,1382 S GEORGE ST,"CHARLES TOWN, WV 25414"
3018103456,BRUNSWICK CROSSING ANIMAL HOSPITAL,3018103456,"1201 DUTCHMAN'S CREEK STE K-M","BRUNSWICK, MD 21716"
7034506760,SENECA HILL ANIMAL HOSPITAL RESORT & SPA,7034506760,11415 GEORGETOWN PIKE,"GREAT FALLS, VA 22066"
5403644950,THE PIEDMONT EQUINE PRACTICE,5403644950,4122 ZULLA RD,"THE PLAINS, VA 20198"
5403644954,THE SMALL ANIMAL CLINIC,5403644954,4122 ZULLA RD,"PLAINS, VA 20198"
7037543309,HAYMARKET VETERINARY SVC,7037543309,5513 CATHARPIN RD,"GAINESVILLE, VA 20155"
7037960033,BANFIELD - RESTON,7037960033,11860 SPECTRUM CTR,"RESTON, VA 20190"
7034353335,FRANKLIN FARM VETERINARY CLNC,7034353335,13320 FRANKLIN FARM RD # J,"HERNDON, VA 20171"
7038808613,LAZAR VETERINARY SURGERY,7038808613,PO BOX 8970,"RESTON, VA 20195"
7033780039,BANFIELD - CHANTILLY,7033780039,13866 METROTECH DR,"CHANTILLY, VA 20151"
3047282203,HILLSIDE VETERINARY HOSPITAL,3047282203,191 AUGUSTINE AVE STE 100,"CHARLES TOWN, WV 25414"
7038028387,CHANTILLY ANIMAL HOSPITAL,7038028387,13705 LEE JACKSON MEMORIAL HWY STE A,"CHANTILLY, VA 20151"
2409946783,MOBILE VET,2409946783,340 ELMINGTON LN,"BERRYVILLE, VA 22611"
3047288330,SPAY TODAY,3047288330,RR 2 BOX 134G,"CHARLES TOWN, WV 25414"
2407229805,MOBILE VET,2407229805,5900 UNION RIDGE RD,"ADAMSTOWN, MD 21710"
7033909150,BANFIELD - HERNDON FOX MILL,7033909150,2553 JOHN MILTON DR,"HERNDON, VA 20171"
7035202702,JUST CATS CLINIC,7035202702,1601 WASHINGTON PLAZA N,"RESTON, VA 20190"
5403644281,MAURICE F CASEY DVM,5403644281,8625 WOODWARD RD,"MARSHALL, VA 20115"
7038606100,RESTON ANIMAL HOSPITAL,7038606100,2403 RESTON PKWY,"RESTON, VA 20191"
3047250428,JEFFERSON ANIMAL HOSPITAL,3047250428,231 N SAMUEL ST,"CHARLES TOWN, WV 25414"
3014617827,KAMELA EVANS DAVIS DVM,3014617827,"BOYDS, MD 20841",3014617827
2059146935,JENNIFER JORDAN DVM,2059146935,"BERRYVILLE, VA 22611",2059146935
5409553001,HARRISON EQUINE,5409553001,1028 SUMMIT PT RD,"BERRYVILLE, RD 22611"
3047251471,VALLEY EQUINE ASSOCIATES,3047251471,515 E 5TH AVE,"RANSON, WV 25438"
5715334873,CHERISH COMPANION MOBILE VET SERVICES,5715334873,12013 INSHA COURT,"RESTON, VA 20191"
7039566290,SULLY ANIMAL HOSPITAL,7039566290,5095 WESTFIELDS BLVD,"CENTREVILLE, VA 20120"
7033783028,WESTFIELDS ANIMAL HOSPITAL,7033783028,5095 WESTFIELDS BLVD,"CENTREVILLE, VA 20120"
5405541021,HOUSE PAWD ANIMAL HOSPITAL BERRYVILLE,5405541021,37 E MAIN STREET,"BERRYVILLE, VA 22611"
3048865708,MOBILE VET,3048865708,PO BOX 99,"RANSON, WV 25438"
7036203919,VETERINARY HOUSE CALL SVC,7036203919,2026 GOLF COURSE DR,"RESTON, VA 20191"
3045797558,DANIEL MEAGHER DVM,3045797558,16 CROW ST,"BERRYVILLE, CA 22611"
5409559115,EQUINE MEDICAL SVC,5409559115,PO BOX 392,"BERRYVILLE, VA 22611"
5409552171,BATTLETOWN ANIMAL CLINIC,5409552171,PO BOX 604,"BERRYVILLE, VA 22611"
3042793972,MOBILE VET,3042793972,208 E 7TH AVE,"RANSON, WV 25438"
5409058868,FAUQUIER LARGE ANIMAL VETERINARY,5409058868,"FAUQUIER COUNTY, VA 20116",5409058868
7038770701,TANGO ANIMAL HOSPITAL,7038770701,11213 LEE HWY,"FAIRFAX, VA 22030"
3047251752,CARROLL EQUINE CLINIC,3047251752,204 N FORREST ST,"RANSON, WV 25438"
5403647855,BEST FRIENDS ANIMAL CLINIC,5403647855,4197 WINCHESTER RD # A3,"MARSHALL, VA 20115"
5088266592,MOBILE VET,5088266592,1875 ENGLE SWITCH RD,"HARPERS FERRY, WV 25425"
3019261400,SENECA VALLEY VETERINARY CLNC,3019261400,14139 DARNESTOWN RD,"GERMANTOWN, MD 20874"
7034375600,ANIMAL CLINIC OF TALL OAK,7034375600,12028 NORTH SHORE DR,"RESTON, VA 20190"
7035016428,GENTLE VET HOUSECALLS,7035016428,"RESTON, VA 20191",7035016428
7033901119,VETERINARY CLINIC,7033901119,"RESTON, VA 20191",7033901119
3047245055,RANSON ANIMAL HOSPITAL,3047245055,407 N MILDRED ST,"RANSON, WV 25438"
7037544146,VCA HEALTHY PAWS MEDICAL CENTER,7037544146,14840 WASHINGTON ST,"HAYMARKET, VA 20169"
3049953161,MOBILE,3049953161,411 BRANNON LANE,"CHARLES TOWN, WV 25414"
3042837421,WHITEHALL EQUINE VETERIANRY SERVICE,3042837421,512 LOCUST KNOLL DR,"CHARLES TOWN, WV 25414"
7038305700,CARING HANDS ANIMAL HOSPITAL-CENTREVILLE,7038305700,5659 STONE RD,"CENTREVILLE, VA 20120"
3047258840,APPLE-TREE ANIMAL CLINIC,3047258840,900 N MILDRED ST,"RANSON, WV 25438"
7032637190,BANFIELD - CHANTILLY GREENBRIAR,7032637190,13063 LEE JACKSON MEMORIAL HWY STE H,"FAIRFAX, VA 22030"
9196240655,MCGINN VET CLINIC,9196240655,1331 LEES LANE,"KNOXVILLE, MD 21758"
7037594500,COLVIN RUN VETERINARY CLINIC,7037594500,1203 DOWNEY DR,"VIENNA, VA 22182"
3015261610,MOBILE VET,3015261610,17601 CHARITY LN,"GERMANTOWN, MD 20874"
2403725083,DEBORAH E WEISS DVM,2403725083,17601 CHARITY LN,"GERMANTOWN, MD 20874"
7039517180,VET IN A BOX,7039517180,11160 SOUTH LAKES DR,"RESTON, VA 20191"
3014376925,INNOVATIVE VET HEALTH,3014376925,13701 CHARITY CT,"GERMANTOWN, MD 20874"
7037549888,STONEWALL VETERINARY CLINIC,7037549888,7408 GALLERHER RD,"GAINESVILLE, VA 20155"
3019218382,TURKEY FOOT VETERINARY CLINIC,3019218382,14426 TURKEY FOOT RD,"GAITHERSBURG, MD 20878"
3014734111,JEFFERSON VETERINARY HOSPITAL,3014734111,PO BOX 386,"JEFFERSON, MD 21755"
7037595582,EQUINE FOOD ANIMAL PRACTICE,7037595582,PO BOX 554,"GREAT FALLS, VA 22066"
7037577570,ADAMS~MILL VETERINARY HOSPITAL,7037577570,10205 COLVIN RUN RD # 10,"GREAT FALLS, VA 22066"
5712614080,BANFIELD - GAINESVILLE,5712614080,13241 GATEWAY CENTER DR BLDG P,"GAINESVILLE, VA 20155"
7035947363,GREAT FALLS ANIMAL HOSPITAL,7035947363,10125 COLVIN RUN RD,"GREAT FALLS, VA 22066"
7037592330,GREAT FALLS ANIMAL HOSPITAL,7037592330,10125 COLVIN RUN RD,"GREAT FALLS, VA 22066"
7037548387,COMPANION ANIMAL CLINIC OF GAINESVILLE,7037548387,14760 LEE HWY,"GAINESVILLE, VA 20155"
7032229682,CENTREVILLE SQUARE ANIMAL HOSP,7032229682,14215L CENTREVILLE SQ,"CENTREVILLE, VA 20121"
3019634664,GLENVILAH VETERINARY CLINIC,3019634664,12948 TRAVILAH RD # E,"POTOMAC, MD 20854"
3016989930,BUCKEYSTOWN VETERINARY HOSPITAL,3016989930,PO BOX 5,"BUCKEYSTOWN, MD 21717"
3345590189,MOBILE VET,3345590189,19941 BROWNSVILLE RD,"KNXOVILLE, MD 21758"
7037721263,FAIRFAX MOBILE VETERINARY CARE,7037721263,"FAIRFAX, VA 20121",7037721263
7038308844,CLIFTON-CENTREVILLE ANIMAL CLINIC,7038308844,13822 BRADDOCK RD STE A,"CENTREVILLE, VA 20121"
7032220087,BANFIELD - FAIR LAKES CENTER,7032220087,12971 FAIR LAKES SHOPPING CTR,"FAIRFAX, VA 22033"
3015407770,A CAT CLINIC,3015407770,PO BOX 330,"GERMANTOWN, MD 20875"
7038301182,CENTREVILLE ANIMAL HOSPITAL,7038301182,13663 LEE HWY,"CENTREVILLE, VA 20121"
3019729730,GERMANTOWN VETERINARY CLINIC,3019729730,19911 FATHER HURLEY BLVD,"GERMANTOWN, MD 20874"
2402527467,GERMANTOWN VETERINARY CLINIC,2402527467,19911 FATHER HURLEY BLVD,"GERMANTOWN, MD 20874"
3018311110,BUCKEYSTOWN VETERINARY HOSPITAL,3018311110,3820 BUCKEYSTOWN PIKE,"BUCKEYSTOWN, MD 21717"
7164912925,HOUSE CALL VETERINARIAN,7164912925,"GERMANTOWN, MD 20874",7164912925
3015408670,LITTLE SENECA ANIMAL HOSPITAL,3015408670,20630 SENECA MEADOWS PKWY UNIT E2,"GERMANTOWN, MD 20876"
7032220777,ANIMAL HEALTH CARE CTR,7032220777,NEW BRADDOCK RD & ROUTE 28,"CENTREVILLE, VA 20121"
7037229159,ARTEMIS VETERINARY EMERGENGY SPECIALTY SERVICES,7037229159,7951 GAINSFORD CT #115,"BRISTOW, VA 20136"
3016197732,MOBILE VET,3016197732,12006 CITRUS GROVE RD,"N. POTOMAC, MD 20878"
7038302839,BANFIELD - CLIFTON,7038302839,5734 UNION MILL RD,"CLIFTON, VA 20124"
7036524911,EMERGENCY VETERINARY CLINIC OF FAIR OAKS,7036524911,4001 LEGATO RD STE 200,"FAIRFAX, VA 22033"
7035913304,PENDER VETERINARY CENTRE-FAIRFAX CAMPUS,7035913304,4001 LEGATO RD STE 200,"FAIRFAX, VA 22033"
2405350609,NATIONAL INSTITUTE OF HEALTH,2405350609,9000 ROCKVILLE PIKE,"BETHESDA, MD 20875"
3012081111,QUINCE ORCHARD VETERINARY HOSPITAL,3012081111,11910 DARNESTOWN RD,"GAITHERSBURG, MD 20878"
7038301100,FAIRFAX COUNTY ANIMAL SHELTER,7038301100,4500 WEST OX RD,"FAIRFAX, VA 22030"
3018693990,DIAMOND VETERINARY HOSPITAL,3018693990,17000 LONGDRAFT RD,"GAITHERSBURG, MD 20878"
7033351755,BANFIELD THE PET HOSPITAL,7033351755,10834 SUDLEY MANOR DR,"MANASSAAS, VA 30136"
2403444100,MONICA BROWN REID,2403444100,4801 TEEN BARNES RD,"FREDERICK, MD 21703"
2406871414,MARYLAND AVIAN AND EXOTICS VET,2406871414,"GAITHERSBURG, MD 20878",2406871414
3015197944,KENTLANDS VETERINARY HOSPITAL,3015197944,117 BOOTH ST,"GAITHERSBURG, MD 20878"
3013556990,WAGNER EQUINE VETERINARY SERVICES,3013556990,205 FIREHOUSE LN,"GAITHERSBURG, MD 20878"
3014675736,EMILY ROGELL-GREENE,3014675736,"POTOMAC, MD 20854",3014675736
3017887384,RELIEF VET,3017887384,8508 GUERTIN CT,"FREDERICK, MA 21704"
5712482470,GLENKIRK ANIMAL HOSPITAL,5712482470,13950 ESTATE MANOR DR,"GAINESVILLE, VA 20155"
3019772177,BANFIELD PETSMART,3019772177,218 KENTLANDS BLVD,"GAITHERSBURG, MD 20878"
3019778499,BANFIELD - GAITHERSBURG,3019778499,218 KENTLANDS BLVD,"GAITHERSBURG, MD 20878"
7036319133,DEEPWOOD VETERINARY CLINIC,7036319133,7300 ORDWAY RD,"CENTREVILLE, VA 20121"
7033613279,BANFIELD - MANASSAS BULL RUN,7033613279,8079 SUDLEY RD,"MANASSAS, VA 20109"
5408371334,ROSEVILLE VETERINARY CLINIC,5408371334,PO BOX 176,"BOYCE, VA 22620"
3013177160,"MARK J. RICIGLIANO, DVM",3013177160,20271 GOLDENRODE LANE,"GERMANTOWN, MD 20876"
3014822535,CLARKSBURG ANIMAL HOSPITAL,3014822535,PO BOX 908,"CLARKSBURG, MD 20871"
3018748880,GREENBRIAR VETERINARY HOSPITAL,3018748880,3051 THURSTON RD,"FREDERICK, MD 21704"
7033610271,BATTLEFIELD ANIMAL CLINIC INC,7033610271,8138 SUDLEY RD,"MANASSAS, VA 20109"
3018311088,EMERGENCY ANIMAL CTR,3018311088,1896 URBANA PIKE # 23,"CLARKSBURG, MD 20871"
3018318054,SUGARLOAF SURGICAL REFERRAL,3018318054,1896 URBANA PIKE # 23,"CLARKSBURG, MD 20871"
5403470964,NEW BALTIMORE ANIMAL HOSPITAL,5403470964,5296 LEE HWY,"WARRENTON, VA 20187"
7037537988,AROUND TOWN MOBILE VETERINARY CLINIC,7037537988,9030 SAITSBURY CT,"BRISTON, VA 20136"
3014240373,MAPLE SPRINGS VETERINARY HOSP,3014240373,14925 DUFIEF MILL RD,"NORTH POTOMAC, MD 20878"
5102278111,KENVET INC,5102278111,300 OLD OAK LANE #4,"OAKLAND, CA 94541"
3015158800,BENNETT CREEK ANIMAL HOSPITAL,3015158800,22416 FREDERICK RD,"CLARKSBURG, MD 20871"
3013403224,VCA VETERINARY REFERRAL ASSOC,3013403224,15021 DUFIEF MILL RD,"NORTH POTOMAC, MD 20878"
3015406251,BANFIELD - GERMANTOWN,3015406251,20924 FREDERICK RD,"GERMANTOWN, MD 20876"
7032727810,ALPHA ANIMAL HOSPITAL,7032727810,11725 LEE HWY STE A15C,"FAIRFAX, VA 22030"
3015152935,FOX CHAPEL VETERINARY HOSPITAL,3015152935,19711 FREDERICK RD,"GERMANTOWN, MD 20876"
3015193456,GAITHERSBURG VETERINARARY CLINIC,3015193456,17 FIRSTFIELD RD # 100,"GAITHERSBURG, MD 20878"
7033689241,PETCENTRE ANIMAL HOSPITAL,7033689241,8307 YORKSHIRE LN,"MANASSAS, VA 20111"
3018318646,URBANA VETERINARY HOSPITAL,3018318646,3569 URBANA PIKE,"FREDERICK, MD 21704"
8884380788,ANIMAL BEHAVIOR WELLNESS CENTER,8884380788,11230 WAPLES MILLS ROAD,"FAIRFAX, VA 22030"
2403414964,COMPASSION VET CENTER,2403414964,3540 WORTHINGTON BLVD,"FREDERICK, MD 21704"
7032735055,JERMANTOWN ANIMAL HOSPITAL,7032735055,4035 JERMANTOWN RD,"FAIRFAX, VA 22030"
3017401083,LAKE FOREST ANIMAL HOSPITAL,3017401083,18645 N FREDERICK AVE,"GAITHERSBURG, MD 20879"
3018743050,VILLAGE VET OF URBANA,3018743050,3315 WORTHINGTON BLVD,"IJAMSVILLE, MD 21754"
5713326778,LITTLE FOX EQUINE,5713326778,2729 WILLOW DRIVE,"VIENNA, VA 22181"
4153282383,CONSULTANT VETERINARY RADIOLOGIST,4153282383,PO BOX 3344,"OAKTON, VA 22124"
7032811644,HUNTER MILL ANIMAL HOSPITAL,7032811644,2935 CHAIN BRIDGE RD,"OAKTON, VA 22124"
5403640105,VET,5403640105,10040 ADA RD PO BOX 509,"MARSHALL, VA 20115"
7032460009,VETERINARY VISION OF OF VIRGINIA,7032460009,4103 RUST RD,"FAIRFAX, VA 22030"
7032813750,STAHL VETERINARY SERVICE,7032813750,4105 RUST RD,"FAIRFAX, VA 22030"
7033687300,CARING HANDS ANIMAL HOSPITAL-BRISTOW,7033687300,12733 BRAEMAR VILLAGE PLZ,"BRISTOW, VA 20136"
3019263300,VETERINARY REFERRAL ASSOCITES,3019263300,500 PERRY PKWY,"GAITHERSBURG, MD 20877"
2403613820,CHESAPEAK VET CARDIOLOGY ASSOC,2403613820,500 PERRY PKWY,"GAITHERSBURG, MD 20877"
2409126144,NEIGHBORHOOD VET ASSOC.,2409126144,22750 NEW CUT RD STE D-3,"CLARKSBURG, MD 20871"
3019630275,MUDDY BRANCH VETEINARY CENTER,3019630275,333 MUDDY BRANCH RD,"GAITHERSBURG, MD 20878"
3014444701,BANFIELD PET HOSPITAL-TRAVILAH SQUARE,3014444701,10066 DARNESTOWN RD,"ROCKVILLE, MD 20850"
3016316900,KINGSBROOK-ANIMAL HOSPITAL,3016316900,5322 NEW DESIGN RD,"FREDERICK, MD 21703"
7039381771,NOVA HOME VETERINARY SVC,7039381771,337 LEWIS ST NW,"VIENNA, VA 22180"
7036912873,PET LOVERS ANIMAL HOSPITAL,7036912873,10696 FAIRFAX BLVD,"FAIRFAX, VA 22030"
3345597425,MILITARY MOBILE VET,3345597425,5713 MILL RUN PL,"FREDERICK, MD"
7032738183,COMMONWEALTH ANIMAL HOSPITAL,7032738183,10860 MAIN ST,"FAIRFAX, VA 22030"
7035524004,VIENNA ANIMAL HOSPITAL,7035524004,531 MAPLE AVE W,"VIENNA, VA 22180"
7039382121,VIENNA ANIMAL HOSPITAL,7039382121,531 MAPLE AVE WEST,"VIENNA, VA 22180"
7032425760,DULLES CARE GROUP,7032425760,416 MAPLE AVE W,"VIENNA, VA 22180"
3019838400,FALLS ROAD VETERINARY HOSPITAL,3019838400,10229 FALLS RD,"POTOMAC, MD 20854"
7032815900,ANIMAL DENTAL CLINIC,7032815900,410 MAPLE AVE W # 1,"VIENNA, VA 22180"
7039382563,VETERINARY HOLISTIC AND REHABILITATION CENTER,7039382563,360 MAPLE AVE W,"VIENNA, VA 22180"
7179910029,KATIE FITZGERALD DVM LLC,7179910029,"MARSHALL, VA 20115",7179910029
5407291525,MOBILE VETERINARIAN,5407291525,"MARSHALL, VA 20115",5407291525
3012994142,POTOMAC ANIMAL HOSPITAL,3012994142,10020 RIVER RD,"POTOMAC, MD 20854"
3219605955,CHRISTINE SHIBLY,3219605955,"FAIRFAX, VA 22030",3219605955
3019482828,GAITHERSBURG ANIMAL HOSPITAL,3019482828,280 N FREDERICK AVE,"GAITHERSBURG, MD 20877"
7038705489,LAP OF LOVE,7038705489,3136 SINGLETON CIR,"FAIRFAX, VA 22030"
3014023188,MOBILE VET,3014023188,10266 WILD APPLE CIR,"MONTGOMERY VILLAGE, MD 20886"
7039382800,OAKTON VIENNA VETERINARY HOSPITAL,7039382800,320 MAPLE AVE E,"VIENNA, VA 22180"
5715362739,BANFIELD HOSPITAL-VIENNA,5715362739,414 MAPLE AVE EAST,"VIENNA, VA 22180"
7033610710,MEDVET NORTHERN VIRGINIA,7033610710,8614 CENTERVILLE RD,"MANASSAS, VA 20111"
7033618287,MEDVET NORTHERN VIRGINIA,7033618287,8614 CENTREVILLE RD,"MANASSAS, VA 20110"
7033308809,VETERINARY INTERNAL MEDICINE PRACTICE,7033308809,8614 CENTREVILLE RD STE B,"MANASSAS, VA 20110"
7032426000,VETERINARY SURGICAL CENTER,7032426000,140 PARK ST SE,"VIENNA, VA 22180"
7032814540,HOPE ADVANCED VETERINARY CENTER,7032814540,140 PARK ST SE STE 100,"VIENNA, VA 22180"
7032817717,CVCA CARDIAC CARE FOR PETS - VIENNA,7032817717,140 PARK ST SE,"VIENNA, VA 22180"
7032812277,THE HOPE CENTER,7032812277,140 PARK ST SE,"VIENNA, VA 22180"
7032815121,HOPE ADVANCED VETERINARY CENTER,7032815121,140 PARK ST,"VIENNA, VA 22180"
7038937030,"TYSON'S CORNER-ANIMAL HOSPITAL",7038937030,8496 TYCO RD # E,"VIENNA, VA 22182"
3018316930,GREEN VALLEY ANIMAL HOSPITAL,3018316930,2910 PRICES DISTILLERY RD,"IJAMSVILLE, MD 21754"
3016315222,BANFIELD - FREDERICK,3016315222,5401 URBANA PIKE,"FREDERICK, MD 21704"
3013302200,MONTGOMERYVILLAGE ANIMAL HOSP,3013302200,19222 MONTGOMERY VILLAGE AVE,"GAITHERSBURG, MD 20886"
3012160066,"NEGOLA'S ARK",3012160066,9401 FIELDS RD,"GAITHERSBURG, MD 20878"
8054414737,MCKILLOP POULTRY MEDICINE LLC,8054414737,5778 INDIAN CEDAR CT,"FREDERICK, MD 21703"
2703001431,MOBILE VET,2703001431,18802 NATHANS PL,"MONTGOMERY, MD 20886"
7035910222,FAIRFAX VETERIANRY HOSPITAL,7035910222,10396 WILLARD WAY,"FAIRFAX, VA 22030"
7034755330,HOMEWARD BOUND MOBILE VETERINARY SERVICES,7034755330,PO BOX 855,"FAIRFAX, VA 22038"
7033615223,PRINCE WILLIAM ANIMAL HOSPITAL,7033615223,10227 NOKESVILLE RD,"MANASSAS, VA 20110"
3016948015,FREDERICK VETERINARY CENTER,3016948015,7421 GROVE RD,"FREDERICK, MD 21704"
7036747886,MOBILE VET,7036747886,"VIENNA, VA 22180",7036747886
7032732110,TOWN & COUNTRY ANIMAL HOSPITAL,7032732110,9836 FAIRFAX BLVD,"FAIRFAX, VA 22030"
7036382567,WOLF TRAP ANIMAL RESCUE,7036382567,1802 FAWNCREST CT,"VIENNA, VA 22182"
9187527873,WOLFTRAP ANIMAL RESCUE,9187527873,1802 FAWNCREST CT,"VIENNA, VA 22182"
7033614196,MORGANNA ANIMAL CLINIC,7033614196,9050 LIBERIA AVE,"MANASSAS, VA 20110"
7033615050,MORGANNA ANIMAL CLINIC,7033615050,9050 LIBERIA AVE,"MANASSAS, VA 20110"
7032735454,CAT HOSPITAL OF FAIRFAX INC,7032735454,3915 OLD LEE HWY # 21B,"FAIRFAX, VA 22030"
3017622070,LIBERTY FALLS VETERINARY CLINIC,3017622070,8924 LIBERTY LN,"POTOMAC, MD 20854"
3019473333,VERINARY BEHAVIOR CLINIC,3019473333,9039 GAITHER RD,"GAITHERSBURG, MD 20877"
3019630400,GROVE CENTER VETERINARY HOSP,3019630400,9033 GAITHER RD,"GAITHERSBURG, MD 20877"
3019779169,ANIMAL ALLERGY & DERMATOLOGY,3019779169,9039 GAITHER RD,"GAITHERSBURG, MD 20877"
3019906373,ANIMAL EYE CARE CLINIC,3019906373,9043 GAITHER RD,"GAITHERSBURG, MD 20877"
5717196635,OLD TOWNE VET CLINIC,5717196635,921 CENTER ST,"MANASSAS, VA 20110"
7033239020,PARKWAY VETERINARY CLINIC,7033239020,5743 BURKE CENTRE PKWY,"BURKE, VA 22015"
5403476611,VILLAGE VETERINARY CLINIC,5403476611,278A BROADVIEW AVE,"WARRENTON, VA 20186"
7035601881,MERRIFIELD ANIMAL HOSPITAL,7035601881,8429 LEE HWY,"FAIRFAX, VA 22031"
7036353996,MERRIFIELD ANIMAL HOSPITAL,7036353996,8429 LEE HWY,"FAIRFAX, VA 22031"
7032504100,COMPANION ANIMAL CLINIC,7032504100,10998 CLARA BARTON DR,"FAIRFAX STATION, VA 22039"
3016622380,ANIMAL CLINIC,3016622380,6006 LINGANORE ROAD,"FREDERICK, MD 21701"
7034255029,MOBILE VET,7034255029,"FAIRFAX, VA 22032",7034255029
6145066332,DR.JULIE BRENT DVM,6145066332,255 NORTH WASHINGTON ST,"ROCKVILLE, MD 20850"
3016001546,FREDERICK COUNTY ANIMAL CLINIC,3016001546,1832 ROSEMONT AVE,"FREDERICK, MD 21702"
3012996900,SEVEN LOCKS ANIMAL HOSPITAL,3012996900,7817 TUCKERMAN LN,"POTOMAC, MD 20854"
5403499663,SINGING STONES WELLNESS CENTRE,5403499663,147 ALEXANDRIA PIKE SUITE 203,"WARRENTON, VA 20186"
7032060197,SINGING STONES ANIMAL WELLNESS CTR,7032060197,147 ALEXANDRIA PIKE STE 203,"WARRENTON, VA 20186"
7037529115,VCA SOUTHPAWS VETERINARY SPECIALISTS & EMERG CENTER,7037529115,8500 ARLINGTON BLVD,"FAIRFAX, VA 22031"
7037529100,VCA SOUTHPAWS VETERINARY SPECIALISTS,7037529100,8500 ARLINGTON BLVD,"FAIRFAX, VA 22031"
9082168260,VCA SOUTHPAWS ANIMAL HOSPITAL,9082168260,8500 ARLINGTON BLVD,"FAIRFAX, VA 22031"
5713483888,CVCA - FAIRFAX,5713483888,8500 ARLINGTON BLVD,"FAIRFAX, VA 22031"
3018026857,SEAN ALTEKRUSE DVM,3018026857,7918 QUARRY RIDGE WAY RD,"BETHESDA, MD 20817"
3012536808,WOODFIELD VETERINARY CLINIC,3012536808,25017 WOODFIELD RD,"DAMASCUS, MD 20872"
3016194714,FORT DETRICK,3016194714,810 SCHREIDER ST #1,"FREDERICK, MD 21702"
7278326906,EZ VET VETERINARY CLINIC,7278326906,7502 LEESBURG PIKE,"FALLS CHURCH, VA 22043"
3014687028,ANIMAL SKIN DISEASE CLINIC,3014687028,7410 LINDBERGH DR,"GAITHERSBURG, MD 20879"
5713383510,MOBILE VET,5713383510,1104 WIMBLEDON DR,"MCLEAN, VA 22101"
5403470807,OLD WATERLOO EQUINE CLINIC,5403470807,PO BOX 1107,"WARRENTON, VA 20188"
5403474779,HOUSECALL,5403474779,47V GARRETT ST STE 301,"WARRENTON, VA 20186"
2407735900,MONTGOMERY COUNTY ANIMAL SERVICES AND ADOPTION CENTER - MCASAC,2407735900,7315 MUNCASTER MILL RD,"DERWOOD, MD 20855"
5406653030,KINGDOM-ANIMAL HOSPITAL,5406653030,PO BOX 147 (125 HOPEWILL LANE),"CLEAR BROOK, VA 22624"
5404280025,ANIMAL MEDICAL CENTER OF WARRENTON,5404280025,79 GARRETT STREET,"WARRENTON, VA 20186"
5403470300,FOXCHASE VETERINARY CLINIC,5403470300,79 GARRETT ST,"WARRENTON, VA 20186"
7035943216,NOKESVILLE VETERINARY CLINIC,7035943216,12831 FITZWATER DR,"NOKESVILLE, VA 20181"
2404638675,CHARISSE CLEARE DVM,2404638675,114 W 14TH ST,"FREDERICK, MD 21701"
7034257387,POTOMAC VALLEY VETERINARY HOSPITAL,7034257387,9553 BRADDOCK RD,"FAIRFAX, VA 22032"
7033565000,MCLEAN ANIMAL HOSPITAL INC,7033565000,1330 OLD CHAIN BRIDGE RD,"MC LEAN, VA 22101"
7039428800,CARING HANDS ANIMAL HOSPITAL-MERRIFIELD,7039428800,8100B ARLINGTON BLVD,"FALLS CHURCH, VA 22042"
7039827400,VALUE VET,7039827400,1364 CHAIN BRIDGE RD,"MCLEAN, VA 22101"
3012292400,ALPINE VETERINARY CLINIC,3012292400,7732 MACARTHUR BLVD,"CABIN JOHN, MD 20818"
2402058300,CARING HANDS ANIMAL HOSPITAL,2402058300,825 ROCKVILLE PIKE STE H,"ROCKVILLE, MD 20852"
5403497200,PIEDMONT-PET VETERINARY CARE,5403497200,122 W SHIRLEY AVE,"WARRENTON, VA 20186"
3013655448,BRADLEY HILLS ANIMAL HOSPITAL,3013655448,7210 BRADLEY BLVD,"BETHESDA, MD 20817"
7033565582,OLD-DOMINION ANIMAL HOSPITAL,7033565582,6719 LOWELL AVE,"MC LEAN, VA 22101"
4104650639,HOWARD COUNTY ANIMAL HOSPITAL,4104650639,8459 BALTIMORE NATL PIKE # 10,"ELLICOTT CITY, MD 21043"
3016622322,OPOSSUM PIKE VETERINARY CLINIC,3016622322,1550 OPOSSUMTOWN PIKE,"FREDERICK, MD 21702"
3013409292,VCA NORTH ROCKVILLE ANIMAL HOSPITAL,3013409292,1390 E GUDE DR,"ROCKVILLE, MD 20850"
3018389506,PETVACX ANIMAL HOSPITAL AND MOBILE VET SERVICES,3018389506,14636 ROTHGEB DR,"ROCKVILLE, MD 20850"
2402712002,THE PET NEWS,2402712002,"BETHESDA, MD 20817",2402712002
3016544604,PRIVATE VETERINARIAN,3016544604,"BETHESDA, MD 20817",3016544604
5406609200,OLIVER MOBILE VETERINARY CLINC,5406609200,125 RED BARN LANE,"LINDEN, VA"
3012536144,FOUR COUNTY ANIMAL HOSPITAL,3012536144,26528 RIDGE RD # A,"DAMASCUS, MD 20872"
3016397324,SUGARLOAF SURGICAL REFERRAL,3016397324,5439 MUSSETTER RD,"FREDERICK, MD 21754"
3016373228,HOPE ADVANCED VETERINARY CENTER ROCKVILLE,3016373228,1 TAFT CT,"ROCKVILLE, MD 20850"
3019845791,CVCA,3019845791,1 TAFT CT,"ROCKVILLE, MD 20850"
3013238537,BANFIELD PET HOSPITAL-ROCKVILLE,3013238537,5154 NICHOLSON LN,"KENSINGTON, MD 20895"
3019846034,BANFIELD - ROCKVILLE,3019846034,5154 NICHOLSON LN,"KENSINGTON, MD 20895"
3018650022,LINGANORE VETERINARY CLINIC,3018650022,11717 OLD NATIONAL PIKE STE 12,"NEW MARKET, MD 21774"
7035324043,SUBURBAN ANIMAL HOSPITAL,7035324043,6879 LEE HWY,"ARLINGTON, VA 22213"
3016395563,PENMAR EQUINE VETERINARY PRACTICE,3016395563,PO BOX 48,"MYERSVILLE, MD 21773"
5407886052,COMMUNITY CRITTER CARE,5407886052,3409 CATLETT RD STE 6,"CATLETT, VA 20119"
7034556222,BURKE VETERINARY CLINIC,7034556222,6401 SHIPLETT BLVD,"BURKE, VA 22015"
9794925585,NATIONAL INSTITUTES OF HEALTH,9794925585,37 CONVENT DR,"BETHESDA, MD 20892"
3014024500,MOBILE VET,3014024500,11000 ASCOTT VIEW LANE,"SILVER SPRING, MD 20901"
2404774708,LAYTONSVILLE VETERINARY PRACTICE,2404774708,5910 SUNDOWN RD,"LAYTONSVILLE, MD 20882"
3019480158,LAYTONSVILLE VETERINARY PRACTICE,3019480158,5910 SUNDOWN RD,"LAYTONSVILLE, MD 20882"
5407889000,FAUQUIER CNTY SPCA,5407889000,"CASANOVA, VA 20139",5407889000
7039413100,VCA ANNANDALE ANIMAL HOSPITAL,7039413100,7405 LITTLE RIVER TPKE,"ANNANDALE, VA 22003"
5406622340,PROFESSIONAL VETERINARY SVC,5406622340,227 SUNNYSIDE PLAZA CIR,"WINCHESTER, VA 22603"
3014934808,WI ANIMAL CLINIC,3014934808,9500 WISCONSIN AVE,"BETHESDA, MD 20814"
2188410100,SARA HEGGE DVM,2188410100,11611 ASHLEY DR,"ROCKVILLE, MD 20852"
5407886094,CATLETT ANIMAL HOSPITAL,5407886094,3226 OLD CATLETT RD,"CATLETT, VA 20119"
7039415300,SUNSHINE ANIMAL HOSPITAL,7039415300,7323 LITTLE RIVER TPKE,"ANNANDALE, VA 22003"
7037912094,FAIRHILL VETERINARY SVC,7037912094,12021 FAIR HILL LN,"MANASSAS, VA 20112"
5402729467,FIRESTAR VETERINARY SERVICE,5402729467,PO BOX 305,"CATLETT, VA 20119"
5409055280,MOBILE VET,5409055280,PO BOX 250,"CATLETT, VA 20119"
5407884044,WARRENTON HORSE WORKS,5407884044,PO BOX 250,"CATLETT, VA 20119"
3042672909,BIG SPRING ANIMAL HOSPITAL,3042672909,2279 WINCHESTER AVE,"MARTINSBURG, WV 25405"
7036624494,VETERINARY HOLISTIC CENTER,7036624494,7950 WOODRUFF CT #1,"SPRINGFIELD, VA 22151"
5406353299,WARREN COUNTY VETERINARY CLINIC - NORTH,5406353299,8506 WINCHESTER RD,"FRONT ROYAL, VA 22630"
5408681001,ANIMAL MEDICAL CTR-FREDERICK,5408681001,681 AYLOR RD,"STEPHENS CITY, VA 22655"
7039634524,GEORGE SIEMERING DVM,7039634524,6654 VAN WINKLE DR,"FALLS CHURCH, VA 22044"
5406780202,APPLE VALLEY ANIMAL HOSPITAL,5406780202,1207 CEDAR CREEK GRADE,"WINCHESTER, VA 22602"
3016528818,BENSON ANIMAL HOSPITAL,3016528818,4981 CORDELL AVE,"BETHESDA, MD 20814"
5406674290,LINDEN HEIGHTS ANIMAL HOSPITAL,5406674290,274 LINDEN DR,"WINCHESTER, VA 22601"
3012932704,BORING VETERINARY CLINIC,3012932704,3609 BITTLE RD,"MYERSVILLE, MD 21773"
7034403637,JUST CATS NATURALLY,7034403637,9917 S PARK CIR,"FAIRFAX STATION, VA 22039"
7034519504,HOME VETERINARY CARE,7034519504,5905 KINGSFORD RD # E,"SPRINGFIELD, VA 22152"
7035341156,SEVEN CORNERS ANIMAL HOSPITAL,7035341156,6300 ARLINGTON BLVD,"FALLS CHURCH, VA 22044"
7032568414,COLUMBIA PIKE ANIMAL HOSPITAL,7032568414,4205 EVERGREEN LN,"ANNANDALE, VA 22003"
3016562882,BALANCE VETERINARY CENTER,3016562882,4 WEST MIDDLE LN,"ROCKVILLE, MD 20850"
3019291600,FLOWER VALLEY VETERINARY CLINIC,3019291600,4201 NORBECK RD,"ROCKVILLE, MD 20853"
3019510300,HAMPDEN LANE VETERINARY OFFICE,3019510300,4921 HAMPDEN LN,"BETHESDA, MD 20814"
5408692100,STEPHENS CITY ANIMAL-HOSPITAL,5408692100,101 HIGHLANDER RD,"STEPHENS CITY, VA 22655"
2406048067,CAROLE FOSTER DVM,2406048067,11217 DEWEY COURT,"KENSINGTON, MD 20895"
9162036446,VET,9162036446,PO BOX 341904,"BETHESDA, MD 20827"
3018288846,ROCK CREEK HOME VETERINARY CARE,3018288846,PO BOX 31136,"BETHESDA, MD 20824"
3016543000,KENWOOD ANIMAL HOSPITAL,3016543000,5439 BUTLER RD,"BETHESDA, MD 20816"
7035698181,BURKEFOREST VETERINARY CLINIC,7035698181,6214 ROLLING RD,"SPRINGFIELD, VA 22152"
5635087036,ELLEN HART DVM,5635087036,"ARLINGTON, VA 22207",5635087036
2405939016,AT HOME VETERINARY CARE /HOUSE CALLS,2405939016,4910 DORSET AVE,"CHEVYCHASE, MD 20815"
5403471006,FALLING MOON EQUINE SVC,5403471006,9113 LEES RIDGE RD,"WARRENTON, VA 20186"
3018984009,FREDERICK CAT VET,3018984009,9539 LIBERTY ROAD,"FREDERICK, MD 21701"
3016031223,ANIMAL PLACE VETERINARY HOSP,3016031223,13818 GEORGIA AVE,"ASPEN HILL, MD 20906"
3015731687,PROMISE ANIMAL LEAGUE,3015731687,7728 OLD NATIONAL PIKE,"BOONSBORO, MD 21713"
3014659473,PROMISE ANIMAL LEAGUE,3014659473,7728 OLD NATINAL PIKE,"BOONSBORO, MD 21713"
2025603464,MOBILE VET,2025603464,"SPRINGFIELD, VA 22152",2025603464
2404970027,BANFIELD - BETHESDA,2404970027,6800 WISCONSIN AVE,"BETHESDA, MD 20815"
5408691616,NEWTOWN VETERINARY CLINIC,5408691616,PO BOX 366,"STEPHENS CITY, VA 22655"
4046657430,DR.ROBYN ENGEL DVM,4046657430,"KENSINGTON, MD 20895",4046657430
3015026916,DEMASCUS EQUINE ASSOCIATES,3015026916,1941 LONG CORNER RD,"MOUNT AIRY, MD 21771"
3018294977,DAMASCUS EQUINE ASSOCIATES,3018294977,1941 LONG CORNER RD,"MOUNT AIRY, MD 21771"
3018292170,RDUEE PETER F DVM,3018292170,1941 LONG CORNER RD,"MT AIRY, MD 21771"
8083394411,WILLIAM S. FLOURNOY DVM,8083394411,"MANASSAS, VA 20112",8083394411
3013193311,WALTER REED RESEARCH,3013193311,"MANASSAS, VA 20112",3013193311
5056106586,MARSOC MPC VET,5056106586,11112 WOODSON AVE,"KENSINGTON, MD 20895"
3042632112,SHENANDOAH VETERINARY HOSPITAL,3042632112,PO BOX 466,"MARTINSBURG, WV 25402"
7032375610,BANFIELD - FALLS CHURCH,7032375610,6100 ARLINGTON BLVD,"FALLS CHURCH, VA 22044"
7035893525,MOBILE SERVICE,7035893525,6100 ARLINGTON BLVD,"FALLSCHURCH, VA 22044"
3019335010,KENSINGTON VETERINARY HOSPITAL,3019335010,3511 UNIVERSITY BLVD W,"KENSINGTON, MD 20895"
2023915224,SUZAN MURRAY,2023915224,4305 BRADLEY LANE,"CHEVY CHASE, MD 20815"
5406350053,SMITHSONIAN CONSERVATION BIOLOGY,5406350053,1500 REMOUNT RD,"FRONT ROYAL, VA 22630"
3016078000,WILLIAM ENGEL DVM,3016078000,18380 NEW CUT RD,"MT AIRY, MD 21771"
3016566655,CHEVY CHASE VETERINARY CLINIC,3016566655,8815 CONNECTICUT AVE,"CHEVY CHASE, MD 20815"
7032563172,BANFIELD - ANNANDALE,7032563172,6960 T BRADDOCK RD,"ANNANDALE, VA 22003"
5855193860,BURDICK EQUINE VETERINARY SERV,5855193860,13296 CRESTHILL RD,"FLINT HILL, VA 22627"
5406751506,EQUINE VETERINARIAN REFLIE SERVICE,5406751506,13296 CREST HILL ROAD,"FLINT HILL, VA 22627"
3019336033,FOX HALL VETERINARY CLINIC,3019336033,13200 GEORGIA AVE,"SILVER SPRING, MD 20906"
2023631316,PALISADES VETERINARY CLINIC,2023631316,5138 MACARTHUR BLVD NW,"WASHINGTON, DC 20016"
2404610488,HOME CARE FOR ANIMALS,2404610488,2 WISCONSIN CIRCLE STE 700,"CHEVY CHASE, MD 20815"
7037854313,MOBILE VET,7037854313,7424 HIGHLAND AVE,"SPRINGFIELD, VA 22150"
5405327623,GREENSPRING AT HOME PET VET,5405327623,461 GREEN SPRING RD.,"WINCHESTER, VA 22603"
2166781991,MOBILE VET,2166781991,1417 N BUCHANAN ST,"ARLINGTON, VA 22205"
3042794751,CLEVELAND CLINIC MOBILE VETERINARY SERVICES,3042794751,"MARTINSBURG, WV 25405",3042794751
7037912083,INDEPENDENT HILL VETERINARY,7037912083,13444 DUMFRIES RD,"MANASSAS, VA 20112"
7039412852,VCA BARCROFT CAT HOSPITAL,7039412852,6357 COLUMBIA PIKE,"FALLS CHURCH, VA 22041"
7035282776,BALLSTON ANIMAL HOSPITAL,7035282776,5232 WILSON BLVD,"ARLINGTON, VA 22205"
7035283613,BALLSTON ANIMAL HOSPITAL,7035283613,5232 WILSON BLVD,"ARLINGTON, VA 22205"
7035952366,BALLSTON ANIMAL HOSPITAL,7035952366,5232 WILSON BLVD,"ARLINGTON, VA 22205"
3019491520,WHEATON ANIMAL HOSPITAL,3019491520,2929 UNIVERSITY BLVD W,"KENSINGTON, MD 20895"
3013834033,ERICA ELLIS,3013834033,"SILVER SPRING, MD 20906",3013834033
3015704160,BANFIELD - OLNEY,3015704160,18163 VILLAGE CENTER DR,"OLNEY, MD 20832"
7035289001,CHERRYDALE VETERINARY CLINIC,7035289001,4038 LEE HWY,"ARLINGTON, VA 22207"
7035257115,NORTHSIDE VETERINARY CLINIC,7035257115,4003 LEE HWY,"ARLINGTON, VA 22207"
3018985040,HERITAGE ANIMAL HOSPITAL,3018985040,10 W CRUM RD,"WALKERSVILLE, MD 21793"
2023370120,VCA MACARTHUR ANIMAL HOSPITAL,2023370120,4832 MACARTHUR BLVD NW,"WASHINGTON, DC 20007"
2023637300,FRIENDSHIP HOSPITAL FOR ANIMALS,2023637300,4105 BRANDYWINE ST NW,"WASHINGTON, DC 20016"
5406367387,ROYAL OAK-ANIMAL CLINIC,5406367387,25 W JACKSON ST,"FRONT ROYAL, VA 22630"
4064331413,HIGH PLAINES VETERINARY CLINIC,4064331413,1050 10TH AVE SE,"SIDNEY, MT 59270"
3019242416,NORBECK ANIMAL CLINIC,3019242416,2645 NORBECK RD,"SILVER SPRING, MD 20906"
3019243616,NORBECK ANIMAL CLINIC INC,3019243616,2645 NORBECK RD,"SILVER SPRINGS, MD 20906"
5404281000,CLEVENGERS CORNER V/C,5404281000,18157 LEE HWY,"AMISSVILLE, VA 20106"
3017747111,TOWN & COUNTRY ANIMAL CLINIC,3017747111,2715 OLNEY SANDY SPRING RD,"OLNEY, MD 20832"
3015870052,A CAT PRACTICE,3015870052,2816 LINDEN LN,"SILVER SPRING, MD 20910"
3018987276,ANIMAL CARE CLINIC,3018987276,148 WALKERS VILLAGE WAY,"WALKERSVILLE, MD 21793"
3016744123,SOLACE VETERINARY SERVICES,3016744123,11006 VEIRS MILL RD # 257,"SILVER SPRING, MD 20902"
8582316052,MOBILE VET,8582316052,4201 WILSON BLVD,DC 22230
3015987300,LAYHILL ANIMAL HOSPITAL,3015987300,14332 LAYHILL RD,"SILVER SPRING, MD 20906"
3018294099,MT AIRY VETERINARY ASSOC,3018294099,6 E RIDGEVILLE BLVD # C,"MT AIRY, MD 21771"
3016374248,BUSH VETERINARY NEUROLOGY SERVICE,3016374248,1 TAFT COURT,"ROCKVILLE, MD 20850"
7038202557,FAIRFAX ANIMAL HOSPITAL,7038202557,5818 SEMINARY RD STE D,"FALLS CHURCH, VA 22041"
3019492511,KINDNESS ANIMAL HOSPITAL,3019492511,2130 UNIVERSITY BLVD W,"WHEATON, MD 20902"
2022770303,DONDI DAHLGAARD,2022770303,2151 DUNMOORE LN NW,"WASHINGTON, DC 20007"
5152010166,MOBILE VET,5152010166,606 STEPHEN SITTER RD,"SILVER SPRING, MD 20910"
3018294800,MT AIRY ANIMAL HOSPITAL,3018294800,1308 S MAIN STREET,"MT AIRY, MD 21771"
2405754161,VET TREK LLC,2405754161,10809 LIBERTY RD,"FREDRICK, MD 21701"
7038664100,COMPANION ANIMAL HOSPITAL,7038664100,7297 COMMERCE ST,"SPRINGFIELD, VA 22150"
3042677468,MARTINSBURG ANIMAL HOSPITAL,3042677468,519 WARM SPRINGS AVE,"MARTINSBURG, WV 25404"
8052767200,FORT BELVOIR VETERINARY CENTER,8052767200,12 PARKVISTA COURT,"SILVER SPRINGS, MD 20906"
7036906600,CROSSPOINTE ANIMAL HOSPITAL,7036906600,8975 VILLAGE SHOPS DR,"FAIRFAX STA, VA 22039"
7034513635,SOUTHPAWS,7034513635,6136 BRANDON AVE,"SPRINGFIELD, VA 22150"
7035690300,SOUTH PAWS VETERINARY CTR,7035690300,6136 BRANDON AVE,"SPRINGFIELD, VA 22150"
7035251955,NOVA CAT CLINIC,7035251955,923 N KENMORE ST,"ARLINGTON, VA 22201"
2022083894,PERS R FAMILY ANIMAL HOSPITAL,2022083894,4565 DAISY REID AVE #104,"WOODBRIDGE, VA 22192"
5712851855,PETS R FAMILY ANIMAL HOSPITAL,5712851855,4565 DAISY REID AVE SUITE 104,"WOODBRIDGE, VA 22192"
3018454124,DR. DAN RAGLAND,3018454124,9910 GREENBRIER LANE,"WALKERSVILLE, MD 21793"
4107071243,HOME VETERINARY SERVICE,4107071243,3120 MANOR LN,"ELLICOTT CITY, MD 21042"
7034516199,VETERINARY VISION,7034516199,6733 COMMERCE ST,"SPRINGFIELD, VA 22150"
3014481382,FAMILY PET VETERINARIAN PRACTICE,3014481382,8313 GRUBB RD,"SILVER SPRNG, MD 20910"
7034511995,SPRINGFIELD ANIMAL HOSPITAL,7034511995,6580 BACKLICK RD,"SPRINGFIELD, VA 22150"
7039979776,CLARENDON ANIMAL CARE,7039979776,3000 10TH ST N,"ARLINGTON, VA 22201"
3017749698,BROOKEVILLE ANIMAL HOSPITAL,3017749698,22201 GEORGIA AVE,"BROOKEVILLE, MD 20833"
5717770100,CARING HANDS ANIMAL HOSPITAL-CLARENDON,5717770100,2601A WILSON BLVD,"ARLINGTON, VA 22201"
7034515400,COLONIAL ANIMAL HOSPITAL,7034515400,6320 SPRINGFIELD PLZ,"SPRINGFIELD, VA 22150"
3042637581,ALL CREATURES VETERINARY,3042637581,2070 NOLLVILLE RD,"MARTINSBURG, WV 25401"
7034514868,CVCA SPRINGFIELD,7034514868,6651 F DACKLICK RD,"SPRINGFIELD, VA 22150"
7034516150,SPRINGFIELD INTERNAL MEDICINE,7034516150,6651 BACKLICK RD # F,"SPRINGFIELD, VA 22150"
7034513709,BUSH VETERINARY NEUROLOGY SERVICE,7034513709,6651 BACKLICK RD,"SPRINGFIELD, VA 22150"
7034409206,DERMATOLOGY & ALLERGY SVC,7034409206,6651 BACKLICK RD # F,"SPRINGFIELD, VA 22150"
7034518900,THE ONCOLOGY SERVICE-SPRINGFIELD,7034518900,6651 BACKLICK RD,"SPRINGFIELD, VA 22150"
3015876099,SILVER SPRING ANIMAL HOSPITAL,3015876099,10501 METROPOLITAN AVE,"KENSINGTON, MD 20895"
7034940094,OLD BRIDGE VETERINARY HOSPITAL,7034940094,3604 OLD BRIDGE RD,"WOODBRIDGE, VA 22192"
7036707668,MAPLE SHADE ANIMAL HOSPITAL,7036707668,5597 MAPLEDALE PLZ,"WOODBRIDGE, VA 22193"
7034911603,BANFIELD HOSPITAL - WOODBRIDGE,7034911603,12449 HEDGES RUN DR,"WOODBRIDGE, VA 22192"
4107959225,ANIMAL HEALTH CENTER,4107959225,806 PARK AVE,"MOUNT AIRY, MD 21771"
5408691238,CANDACE LUNDIN DVM,5408691238,159 LARRICK LN,"MIDDLETOWN, VA 22645"
3018317639,ANIMAL HEALTH CENTER,3018317639,806 PARK AVE,"MT AIRY, MD 21771"
5406354176,WARREN COUNTY VETERINARY CLINIC,5406354176,4310 RIVERMONT DR,"FRONT ROYAL, VA 22630"
3093332774,ANDREW HENNENFENT DVM,3093332774,1320 N VEITCH ST UNIT 1837,"ARLINGTON, VA 22201"
3018253137,FOUR PAWS MOBILE VET,3018253137,PO BOX 130,"MOUNT AIRY, MD 21771"
3018450719,MARK BUTT DVM,3018450719,8747 CHESTNUT GROVE RD,"FREDERICK, MD 21701"
7039926369,CLARENDON ANIMAL CARE SOUTH,7039926369,948 S GEORGE MASON #101,"ARLINGTON, VA 22204"
7035836561,ANIMAL CARE CENTER,7035836561,12950 TROUPE ST.,"WOODBRIDGE, VA 22192"
7034977387,CROSSROADS ANIMAL CARE CENTER,7034977387,12950 TROUPE ST,"WOODBRIDGE, VA 22192"
2028107297,CITYPAWS ANIMAL HOSPITAL,2028107297,3513 CONNECTICUT AVE NW,"WASHINGTON DC, 20008"
3042666783,DR.KIANA ADKISSON-SELBY DVM,3042666783,"GERRARDSTOWN, WV 25420",3042666783
5716397920,DENA LAWRENCE DVM,5716397920,280 YOAKUM PKWY APT 1203,"ALEXANDRIA, VA 22304"
2026598830,COLLINS ANIMAL HOSPITAL,2026598830,1808 WISCONSIN AVE NW,"WASHINGTON, DC 20007"
3017740700,OLNEY SANDY SPRING VET HOSPITAL,3017740700,1300 OLNEY SANDY SPRING RD,"SANDY SPRING, MD 20860"
3017749500,OLNEY SANDY SPRING VETERINARY HOSPITAL,3017749500,1300 OLNEY SANDY SPRING RD,"SANDY SPRING, MD 20860"
7036963604,FORT MYER VETERINARY CLINIC,7036963604,101 JACKSON AVE BLDG 239,"FORT MYER, VA 22211"
2022977184,PATRICIA FOLEY DVM,2022977184,1530 KEY BLVD,"ARLINGTON, VA 22209"
7034551188,PET MEDICAL CLINIC OF SPRINGFIELD,7034551188,8054 ROLLING RD,"SPRINGFIELD, VA 22153"
4104894014,COUNTRY VETERINARY HOSPITAL,4104894014,17591 FREDERICK RD,"MOUNT AIRY, MD 21771"
3018290414,COUNTRY VETERINARY HOSPITAL,3018290414,17591 FREDERICK RD,"MOUNT AIRY, MD 21771"
7033138429,BANFIELD - SPRINGFIELD,7033138429,6535 FRONTIER DR,"SPRINGFIELD, VA 22150"
7036804646,HILLENDALE ANIMAL HOSPITAL,7036804646,13183 CENTERPOINTE WAY,"WOODBRIDGE, VA 22193"
5035591022,MOBILE VET,5035591022,2414 CALUMENT ST APT C,"HOUSTON, TX 77004"
7037782500,CARING HANDS ANIMAL HOSPITAL-ALEXANDRIA,7037782500,295 S VAN DORN ST,"ALEXANDRIA, VA 22304"
5409379832,EQUINE REPRODUCTION CONCEPTS,5409379832,111 HACKLEYS MILL ROAD,"AMISSVILLE, VA 20106"
5629648852,AMANDA GRAY DVM,5629648852,111A HACKLEYS MILL RD,"AMISSVILLE, VA 20106"
5712416753,NIH,5712416753,804 LANAKR WAY,"SILVER SPRING, MD 20901"
2026332857,NATIONAL ZOO,2026332857,3001 CONNECTICUT AVE NW,"WASHINGTON, DC 20008"
7039205300,ARLINGTON ANIMAL HOSPITAL,7039205300,2624 COLUMBIA PIKE,"ARLINGTON, VA 22204"
3012360044,BONIFANT VETERINARY CLINIC,3012360044,433 BONIFANTVRD,"COLESVILLE, MD 20905"
3013844101,BONIFANT ANIMAL CLINIC,3013844101,433 BONIFANT RD,"SILVER SPRING, MD 20905"
3015092295,RIDGEVIEW VERTERIARN PATRICE,3015092295,18380 NEW CUTT RD,MD 21771
7036859202,VET WERX ANIMAL CLINIC,7036859202,2301 COLUMBIA PIKE,"ARLINGTON, VA 22204"
3015891344,AMBASSADOR-ANIMAL HOSPITAL-INC,3015891344,811 SUGO AVE,"SILVER SPRING, MD 20910"
2023332140,GEORGETOWN VETERINARY HOSPITAL,2023332140,2916 M ST NW,"WASHINGTON, DC 20007"
7037513707,ELPAW-VETERINARY CLINIC,7037513707,33 S PICKETT ST,"ALEXANDRIA, VA 22304"
3013796702,MOBILE VET,3013796702,1319 UDNERWOOD ST NW,"WASHINGTON, DC 20012"
7039229861,HOMETOWN VETERINARY CLINIC,7039229861,6137 FRANCONIA RD,"ALEXANDRIA, VA 22310"
5405880257,VALLEY LIVESTOCK VETERINARY SOLUTIONS,5405880257,240 WEST OAKS LN,"WINCHESTER, VA 22602"
2408320893,JULIE GARNIER,2408320893,6627 13TH ST NW,"WASHINGTON, DC 20012"
2028825837,SPAY-NEUTER CLINIC,2028825837,7315 GEORGIA AVE NW,"WASHINGTON, DC 20012"
3018983004,FREDERICK MOBILE VET,3018983004,9532 LINKS RD,"WALKERSVILLE, MD 21793"
2028828972,ANIMAL CLINIC,2028828972,1500 ALLISON STREET NW,"WASHINGTON, DC 20011"
2024948631,MOBILE VET,2024948631,1500 ALLSION ST NW,"WASHINGTON, DC 20011"
7033137973,BANFIELD - ALEXANDRIA HILLTOP,7033137973,6469 OLD BEULAH ST,"ALEXANDRIA, VA 22315"
3017882599,DR MCADAMS,3017882599,11649 BAUGHER RD S,"THURMONT, MD 21788"
5403032217,MOBILE VET,5403032217,"MIDDLETOWN, VA 22645",5403032217
3042701063,SPRINGS MILLS VET HOSPITAL,3042701063,5078 WILLIAMSPORT PIKE SUITE N,"MARTINSBURG, WV 25404"
5406751138,WHITE OAK VETERINARY SVC,5406751138,PO BOX 76,"AMISSVILLE, VA 20106"
3018987676,WALKERSVILLE VETERINARY CLINIC,3018987676,10559 GLADE RD,"WALKERSVILLE, MD 21793"
7035706600,SHIRLINGTON ANIMAL HOSPITAL,7035706600,2770 ARLINGTON MILL DR,"ARLINGTON, VA 22206"
2022999164,BANFIELD - DC ADAMS MORGAN,2022999164,1700 COLUMBIA RD NW,"WASHINGTON, DC 20009"
5712812765,NOVA MOBILE VET,5712812765,8390 TERMINAL RD STE E,"LORTON, VA 22079"
8669467387,NOVA MOBILE VET,8669467387,8352 TERMINAL ROAD STE H,"LORTON, VA 22079"
2026387470,ADAMS MORGAN ANIMAL CLINIC,2026387470,2112 18TH ST NW STE 1,"WASHINGTON, DC 20009"
3013841223,MARYMONT ANIMAL HOSPITAL INC,3013841223,24 RANDOLPH RD,"SILVER SPRING, MD 20904"
2024662211,DUPONT VETERINARY CLINIC,2024662211,2022 P ST NW,"WASHINGTON, DC 20036"
2403812269,MOBILE VET,2403812269,14816 FALLING WATERS RD,"WILLIAMSPORT, MD 21795"
7039719292,KINGSVIEW ANIMAL HOSPITAL,7039719292,7025 MANCHESTER BLVD,"FRANCONIA, VA 22310"
7038970100,STAPLES MILL ANIMAL HOSPITAL,7038970100,5548 STAPLES MILL PLZ,"WOODBRIDGE, VA 22193"
5408695709,GRACEMERE VETERINARY SVC,5408695709,8021 MAIN ST,"MIDDLETOWN, VA 22645"
7034948293,"TACKETT'S MILL VETERINARY HOSPITAL",7034948293,12793 HARBOR DR,"WOODBRIDGE, VA 22192"
7038326919,EZ VET STATION FRANCONIA,7038326919,7007 MANCHESTER BLVD,"FRANCONIA, VA 22310"
7036804000,MINNIEVILLE ANIMAL HOSPITAL,7036804000,14005 MINNIEVILLE RD,"WOODBRIDGE, VA 22193"
2022515258,HOME CARE FOR ANIMALS,2022515258,1250 CONNECTICUT AVE NW SUITE 200,"WASHINGTON, DC 20036"
3015893522,ANIMAL EYE CLINIC,3015893522,8023 PINEY BRANCH RD,"SILVER SPRING, MD 20910"
3016800800,CAT MEDICAL CTR,3016800800,12601 NEW HAMPSHIRE AVE,"SILVER SPRING, MD 20904"
2027237142,PETWORTH ANIMAL HOSPITAL,2027237142,4012 GEORGIA AVE NW,"WASHINGTON, DC 20011"
7034915134,DAVIS FORD ANIMAL CLINIC,7034915134,13478 MINNIEVILLE RD STE 103,"WOODBRIDGE, VA 22192"
7039228228,KINGSTOWNE CAT CLINIC,7039228228,5830 KINGSTOWNE CTR # 120,"ALEXANDRIA, VA 22315"
3018987272,WOODSBORO VETERINARY CLINIC,3018987272,9327 GRAVEL HILL RD # A,"WOODSBORO, MD 21798"
2405951503,KRISTY JACOBUS DVM,2405951503,"DC, 20010",2405951503
7039712128,HAYFIELD ANIMAL HOSPITAL,7039712128,7724 TELEGRAPH RD,"ALEXANDRIA, VA 22315"
5408773345,VET TREK HOUSE CALL PRACTICE,5408773345,241 OAK DRIVE,"WINCHESTERE, VA 22603"
2022449490,HOME CARE FOR ANIMALS,2022449490,1250 CONNECTICUT AVE STE 700,"WASHINGTON DC, 20036"
2025003580,MOBILE VET,2025003580,214 RITTENHOUSE ST NW,"WASHINGTON, DC 20011"
2027380686,MOBILE VET,2027380686,6255 TALIAFERRO WAY,"ALEXANDRIA, VA 22315"
3013844162,CLOVERLY-ANIMAL CLINIC,3013844162,15549 NEW HAMPSHIRE AVE,"SILVER SPRING, MD 20905"
2406505427,CLOVERLY ANIMAL CLINIC,2406505427,15549 NEW HAMPSHIRE AVE,"SILVER SPRING, MD 20905"
3015933022,LIC #BV009114-L,3015933022,10617 MEADOWHILL ROAD,"SILVER SPRINGS, MD 20901"
2022327297,CITYPAWS ANIMAL HOSPITAL,2022327297,1823 14TH ST NW,"WASHINGTON, DC 20009"
3012700809,TACOMA PARK ANIMAL CLINIC,3012700809,MD 20912,3012700809
7038975665,VCA WOODBRIDGE ANIMAL HOSPITAL,7038975665,2703 CATON HILL RD STE 103,"WOODBRIDGE, VA 22192"
2028213893,MERIDIAN VET SERVICES,2028213893,4306 ARKANSAS AVE NW #102,"WASHHINGTON DC, 20011"
6199807861,MOBILE VET,6199807861,25 GALLATIN ST NW #1,"DC, 20011"
3012704700,TAKOMA PARK ANIMAL CLINIC,3012704700,7330 CARROLL AVE,"TAKOMA PARK, MD 20912"
7035353100,CARING HANDS ANIMAL HOSPITAL-ARLINGTON,7035353100,2955 S GLEBE RD STE C,"ARLINGTON, VA 22206"
7034904528,WOODBRIDGE CAT CLINIC,7034904528,1455 OLD BRIDGE RD # 106,"WOODBRIDGE, VA 22192"
2026820009,VETERINARY MEDICAL COLLEGE,2026820009,1101 VERMONT AVE NW,"WASHINGTON, DC 20005"
7034911111,RIDGE LAKE ANIMAL HOSPITAL,7034911111,1400 OLD BRIDGE RD,"WOODBRIDGE, VA 22192"
2027235730,HUMANE RESCUE ALLIANCE MEDICAL CEMTER,2027235730,71 OGLETHORPE ST NW,"WASHINGTON, DC 20011"
2027262273,HUMANE RESCUE ALLIANCE,2027262273,71 OGLETHORPE ST NW,"WASHINGTON, DC 20011"
2024837221,MOBILE VET,2024837221,1206 P STREET NW,"DC, 20005"
7033397725,GUNSTON ANIMAL HOSPITAL,7033397725,7685 ARMISTEAD RD,"LORTON, VA 22079"
3014450170,VETERINARY HEALTH CARE CTR,3014450170,814 PATTON DR,"SILVER SPRING, MD 20901"
7034906451,BANFIELD THE PET HOSPITAL,7034906451,13337 WORTH AVE,"WOODBRIDGE, VA 22192"
7039712127,HAYFIELD ANIMAL HOSPITAL,7039712127,7724 TELEGRAPH RD STE 1,"ALEXANDRIA, VA 22315"
5404399016,COMPASSION ANIMAL HOSPITAL,5404399016,11088 MARSH RD,"BEALETON, VA 22712"
3012702050,NEW HAMPSHIRE AVENUE ANIMAL,3012702050,6701 NEW HAMPSHIRE AVE,"TAKOMA PARK, MD 20912"
2023381388,NORTHWEST VETERINARY CENTER,2023381388,1101 PENNSYLVANIA AVE N.W,"WASHINGTON, DC 20004"
5409371754,FULL CIRCLE EQUINE SERVICE,5409371754,40 JHUDGE ROTHROCH LN,"AMISSVILLE, VA 20106"
4107956926,WOODBINE ANIMAL HOSPITAL,4107956926,710 LISBON CENTER DR # H,"WOODBINE, MD 21797"
3019281857,MOBILE VET,3019281857,13639 CEDAR CREEK,"SILVER SPRINGS, MD 20904"
7037512022,VCA ALEXANDRIA ANIMAL HOSPITAL,7037512022,2660 DUKE ST,"ALEXANDRIA, VA 22314"
4104892390,GLENELG ANIMAL HOSPITAL,4104892390,14251 TRIADELPHIA RD,"GLENELG, MD 21737"
3017337579,ANIMAL HEALTH CLINIC,3017337579,PO BOX 669,"FUNKSTOWN, MD 21734"
2028273790,P STREET PET PRACTICE,2028273790,34 P ST NE,"WASHINGTON, DC 20002"
3014399444,HILLANDALE ANIMAL HOSPITAL,3014399444,1900 POWDER MILL RD,"SILVER SPRING, MD 20903"
7035188492,BANFIELD - ALEXANDRIA,7035188492,3351 JEFFERSON DAVIS HWY UNIT 10,"ALEXANDRIA, VA 22305"
8605944503,FOX MEMORIAL CLINIC,8605944503,701 RUSSELL RD #B,"NEWINGTON, CT 06111"
2028271230,DISTRICT VETERINARY HOSPITAL,2028271230,3748 10TH ST NE,"WASHINGTON, DC 20017"
3018291229,P.A.W. VETERINARY CLINIC,3018291229,13653 UNIONVILLE RD,"MT AIRY, MD 21771"
3018988398,HOUSECALL VET,3018988398,10023 GREEN VALLEY RD,"UNION BRIDGE, MD 21791"
3013199107,"WALTER REED, FOREST GLEN, DIV. OF VET MEDICINE",3013199107,NATIONAL CAPITAL DIST.VET. COMMAND,"FT. BELVOIR, VA 22912"
3014341500,LANGLEY ANIMAL HOSPITAL,3014341500,6522 SLIGO PKWY,"HYATTSVILLE, MD 20782"
7037390000,DEL RAY ANIMAL HOSPITAL,7037390000,524 E MOUNT IDA AVE,"ALEXANDRIA, VA 22301"
7036706181,DALE CITY ANIMAL HOSPITAL,7036706181,2980 DALE BLVD,"WOODBRIDGE, VA 22193"
2026353622,BROOKLAND ANIMAL CARE CNTR,2026353622,3622 12TH ST NE,"WASHINGTON, DC 20017"
4434722484,MOBILE VET,4434722484,1841 GUM RD,"WOODBINE, MD 21797"
3012234000,CANAL TOWN VETERINARY CLINIC,3012234000,15 N ARTISAN ST,"WILLIAMSPORT, MD 21795"
7038727701,PPEAH,7038727701,5838-A NORTH KINGS HWY,"ALEXANDRIA, VA 22303"
4104899677,ANIMAL MEDICAL HOSPITAL AT GLENWOOD,4104899677,2892 MCKENDREE RD,"GLENWOOD, MD 21738"
2023605625,FT. BELVOIR VET CLINIC,2023605625,"FORT BELVOIR, VA 22060",2023605625
7034911400,OCCOQUAN ANIMAL HOSPITAL,7034911400,14234 JEFFERSON DAVIS HWY,"WOODBRIDGE, VA 22191"
2025442500,UNION VETERINARY-CLINIC,2025442500,609 2ND ST NE,"WASHINGTON, DC 20002"
5409376683,ANIMAL FIRST VETERINARY SERVICE,5409376683,14041 HIGHLAND HUNTER TRAIL,"RIXEYVILLE, VA 22737"
7037806600,FORT B ELVOIR POST EXCHANGE,7037806600,6050 GORGAS RD,"FT BELVOIR, VA 22060"
3016222115,FAIRLAND ANIMAL HOSPITAL,3016222115,13425 OLD COLUMBIA PIKE,"SILVER SPRING, MD 20904"
3015726057,BANFIELD - CALVERTON,3015726057,12020 CHERRY HILL RD,"SILVER SPRING, MD 20904"
3015726073,BANFIELD,3015726073,12020 CHERRY HILL RD,"SILVER SPRING, MD 20904"
7035497297,PAWS PURRS AND EXOTICS ANIMAL HOSPITAL,7035497297,5838-A NORTH KINGS HWY,"ALEXANDRIA, VA 22303"
5712354890,SACRAMENTO VETERINARY HOSPITAL,5712354890,133 S PEYTON ST,"ALEXANDRIA, VA 22314"
9705152507,75TH RANGER REGIMENT VETERINARY SERVICE,9705152507,203 MILLER LOOP,"COLUMBIA, GA 31905"
7037652287,VCA BEACON HILL CAT HOSPITAL,7037652287,6610 RICHMOND HWY,"ALEXANDRIA, VA 22306"
7032151106,MONTCLAIR ANIMAL HOSPITAL,7032151106,4385 KEVIN WALKER DR,"MONTCLAIR, VA 22025"
7038783442,MONTCLAIR-ANIMAL HOSPITAL,7038783442,4385 KEVIN WALKER DR,"DUMFRIES, VA 22026"
3617747643,KATHERINE GENNA REULAND,3617747643,315 N PAYNE ST UNIT B,"ALEXANDRIA, VA 22314"
6073424667,MOBILE VET,6073424667,1735 D ST NE,"WASHINGTON, 20002"
3018023914,MOBILE VET,3018023914,1425 A STREET NE,DC 20002
3019892226,BRIGGS CHANEY ANIMAL HOSPITAL,3019892226,13850 OLD COLUMBIA PIKE,"SILVER SPRING, MD 20904"
7035493647,VCA OLD TOWN ANIMAL HOSPITAL,7035493647,425 N HENRY ST,"ALEXANDRIA, VA 22314"
2404224129,"MY PET'S VET",2404224129,14443 UNIONVILLE RD,"MOUNT AIRY, MD 21771"
3016398766,SEIBEL MOBILE VET SERVICES,3016398766,PO BOX 10,"WOODBINE, MD 21797"
3046716849,EQUINE VET CARE,3046716849,PO BOX 295,"HEDGESVILLE, WV 25427"
4435359257,TRIADELPHIA VETERINARY CLINIC,4435359257,3900 10 OAKS RD STE 3,"GLENELG, MD 21737"
3018543372,HIGHLAND VETERINARY HOSPITAL,3018543372,PO BOX 68,"HIGHLAND, MD 20777"
2028882090,DISTRICT VETERINARY HOSPITAL-EASTERN MARKET,2028882090,240 7TH ST SE,"WASHINGTON, DC 20003"
4012864896,MOBILE VET,4012864896,"ALEXANDRIA, VA 22314",4012864896
5714517827,CRITTER FIXERS MOBILE VETERINARY CARE,5714517827,PO BOX 15631,"ALEXANDRIA, VA 23315"
3017393121,CUMBERLAND VALLEY VETERINARY CLINIC,3017393121,17747 VIRGINIA AVE,"HAGERSTOWN, MD 21740"
2025540925,BANFIELD - THE YARDS,2025540925,1212 4TH ST SE STE 190,"WASHINGTON, DC 20003"
2025528600,ATLASVET-ATLAS DISTRIC VETERINARY HOSPITAL,2025528600,1326 H ST NE,"WASHINGTON, DC 20002"
7035800707,RIVER OAKS VETERINARY CLINIC,7035800707,15508 NEABSCO MILLS RD,"WOODBRIDGE, VA 22191"
4439759093,MOBILE VETERINARIAN,4439759093,"COLLEGE PARK, MD 20742",4439759093
5409879300,ROSE HILL SMALL ANIMAL VET PRACTICE,5409879300,21 CHRISTMAAS TREE LN,"WASHINGTON, VA 22747"
3047549935,ALL CREATURES VETERINARY,3047549935,5747 HEDGESVILLE RD,"HEDGESVILLE, WV 25427"
7033606600,MOUNT VERNON ANIMAL HOSPITAL,7033606600,8623 RICHMOND HWY,"ALEXANDRIA, VA 22309"
3057946951,MOLLY DOMINGUEZ DVM,3057946951,1588 EGLIN RD,"WASHINGTON, DC 20032"
5404652200,ANIMAL CLINIC OF STRASBURG,5404652200,113-2 FOUNDERS WAY,"STRASBURG, VA 22657"
7036606643,BANFIELD - ALEXANDRIA S,7036606643,7690C RICHMOND HWY,"ALEXANDRIA, VA 22306"
4433701780,MOBILE VET,4433701780,1204 S WASHINGTON ST,"ALEXANDRIA, VA 22314"
7033733774,EMMAVET,7033733774,1628A BELLE VIEW BLVD,"ALEXANDRIA, VA 22307"
2025461972,CAPITOL HILL ANIMAL CLINIC,2025461972,1240 PENNSYLVANIA AVE SE,"WASHINGTON, DC 20003"
2407500983,MONTGOMERY MOBILE VET,2407500983,8716 TYREL CT,"BURTONVILLE, MD 20866"
7037210088,BELLE HAVEN ANIMAL MEDICAL CENTRE,7037210088,1221 BELLE HAVEN RD,"ALEXANDRIA, VA 22307"
7037659292,HYBLA VALLEY VETERINARY HOSP,7037659292,7627 RICHMOND HWY,"ALEXANDRIA, VA 22306"
2405813958,NC LIC# 2477 EXP 12/31/11,2405813958,3901 MADISON STREET,"HYATTSVILLE, MD 20781"
3014219200,BURTONSVILLE ANIMAL HOSPITAL,3014219200,15543 OLD COLUMBIA PIKE,"BURTONSVILLE, MD 20866"
3017971800,MID-ATLANTIC VETERINARY HOSP,3017971800,1125 PROFESSIONAL CT,"HAGERSTOWN, MD 21740"
4105319213,PURE HOLISTIC VET,4105319213,"CLARKSVILLE, MD 21029",4105319213
2025436699,JANES VETERINARY CLINIC INC,2025436699,1503 G ST SE,"WASHINGTON, DC 20003"
4105316330,TWIN OAK ANIMAL HOSPITAL,4105316330,13151 TRIADELPHIA RD,"ELLICOTT CITY, MD 21042"
3017912180,PARK CIRCLE ANIMAL HOSPITAL,3017912180,362 VIRGINIA AVE,"HAGERSTOWN, MD 21740"
2028898900,ANIMAL CLINIC OF ANACOSTIA,2028898900,2210 MARTIN L KING JR AVE SE,"WASHINGTON, DC 20020"
3018643164,BRENTWOOD ANIMAL HOSPITAL,3018643164,3900 RHODE ISLAND AVE,"BRENTWOOD, MD 20722"
3017745656,MY VET CALLS,3017745656,3901 HARRISON RD,"BELTSVILLE, MD 20705"
7038054336,FORT BELVOIR VETERINARY CENTER,7038054336,10015 THOETE RD BLDG 610,"FORT BELVOIR, VA 22060"
3018642325,HYATTSVILLE ANIMAL HOSPITAL,3018642325,4567 RHODE ISLAND AVE,"N BRENTWOOD, MD 20722"
4439564277,MOBILE VET,4439564277,12701 FOLLY QUARTER RD,"ELLICOTT, MD 31042"
3014412547,COLLEGE PARK ANIMAL HOSPITAL,3014412547,9717 BALTIMORE AVE,"COLLEGE PARK, MD 20740"
3017791184,LYNN ANIMAL HOSPITAL,3017791184,6215 BALTIMORE AVE,"RIVERDALE, MD 20737"
2025842125,SOUTHEAST ANIMAL HOSPITAL,2025842125,2309 PENNSYLVANIA AVE SE,"WASHINGTON, DC 20020"
3019373020,BELTSVILLE VETERINARY HOSPITAL,3019373020,4246 POWDER MILL RD,"BELTSVILLE, MD 20705"
3014907667,FULTON ANIMAL HOSPITAL,3014907667,PO BOX 448,"FULTON, MD 20759"
4105316500,PETVET OF CLARKSVILLE,4105316500,12186 CLARKSVILLE PIKE STE D,"CLARKSVILLE, MD 21029"
3017919525,MID-MARYLAND DAIRY VET,3017919525,112 WESTERN MARYLAND PKWY,"HAGERSTOWN, MD 21740"
3014160888,SMITHSBURG-VETERINARY CLINIC,3014160888,22949 JEFFERSON BLVD,"SMITHSBURG, MD 21783"
5134892380,BLUE ASH-MONTGOMERY PET HOSP,5134892380,10770 MONTGOMERY RD # B,"CINCINNATI, OH 45242"
5404393416,MOBILE VET,5404393416,5429 SAVANNAH BRANCH RD,"BEALETON, VA 22712"
5404394316,HOME VETERINARIAN,5404394316,5429 SAVANNAH BRANCH RD,"BEALETON, VA 22712"
3012714743,MOBILE VET,3012714743,13025 LEGORE BRIDGE RD,"ROCKY RIDGE, MD 21778"
7033608264,HOME VETERINARY SERVICES,7033608264,8310 CENTERBROOK PL,"ALEXANDRIA, VA 22308"
3012713212,THURMONT VETERINARY CLINIC,3012713212,29 N CARROLL ST,"THURMONT, MD 21788"
7036606668,HOLLIN HALL ANIMAL HOSPITAL,7036606668,7930 FORT HUNT RD,"ALEXANDRIA, VA 22308"
7034510909,HOLLIN HALL ANIMAL HOSPITAL,7034510909,7930FORT HUNT RD,"ALEXANDRIA, VA 22308"
7036600044,HOLLIN HALL ANIMAL HOSPITAL,7036600044,7930 FORT HUNT RD,"ALEXANDRIA, VA 22308"
7036600045,HOLLIN HALL ANMIMAL HOSPITAL,7036600045,7930 FORT HUNT RD,"ALEXANDRIA, VA 22308"
7032211880,DUMFRIES ANIMAL HOSPITAL,7032211880,PO BOX 610,"DUMFRIES, VA 22026"
3016653778,BANFIELD - HAGERSTOWN,3016653778,17740 GARLAND GROH BLVD,"HAGERSTOWN, MD 21740"
3016064403,CHRISTOPHER MELLUSO DVM,3016064403,"UNION BRIDGE, MD 21791",3016064403
3343430408,VETERINARY EXPRESS OF SOUTH ALABAMA,3343430408,1800 SEATER RD,"ANDALUSIA, AL 36421"
3345822255,VETERINARY EXPRESS OF SOUTH ALABAMA,3345822255,1800 SEATER RD,"ANDALUSIA, AL 36421"
3019533386,HENDERSON VET CLINIC,3019533386,16200 BURTON LN,"LAUREL, MD 20707"
3012775408,RIVERDALE PARK ANIMAL HOSPITAL,3012775408,5702 RIVERDALE RD,"RIVERDALE, MD 20737"
3015400590,MIDDLEBROOK VETERINARY CLINIC,3015400590,4912 55 PLACE,"HYATTSVILLE, MD 20781"
3014917387,STONE MARSH MOBILE VET,3014917387,19 LOOSE LN,"HAGERSTOWN, MD 21742"
4434723787,STEPHANIE MEDCROFT DVM,4434723787,"SYKESVILLE, MD 21784",4434723787
3014901030,PATUXENT VALLEY ANIMAL HOSP,3014901030,11200 SCAGGSVILLE RD # 132,"LAUREL, MD 20723"
7033606100,FORT-HUNT ANIMAL HOSPITAL,7033606100,1900 ELKIN ST # 4,"ALEXANDRIA, VA 22308"
3012710156,CATOCTIN VETERINARY CLINIC,3012710156,4 PAWS PL,"THURMONT, MD 21788"
3017587879,ZANADU VETERINARY SERVICES,3017587879,15801 JOYCE LANE,"LAUREL, MD 20707"
3018988884,SARAH A LINK DVM,3018988884,1 LINDA CT,"THURMONT, MD 21788"
3016330986,RENEE LEUHMAN DVM,3016330986,6604 MCCAHILL TERRACE,"LAUREL, MD 20707"
5407521745,HOME VETERINARY CARE-STAFFORD,5407521745,1136 LAKEVIEW DR,"STAFFORD, VA 22556"
4104899410,WEST FRIENDSHIP ANIMAL CLINIC,4104899410,12800 FREDRICK RD,"WEST FRIENDSHIP, MD 21794"
3047545300,ARK ANIMAL CLINIC,3047545300,201 SCHOOLHOUSE DR,"HEDGESVILLE, WV 25427"
7036876201,PEARL VETERINARY HOSPITAL,7036876201,4074 SQUIRE LANE,"TRIANGLE, VA 22172"
3015823833,ANTIETAM VALLEY ANIMAL HOSP,3015823833,15610 NATIONAL PIKE,"HAGERSTOWN, MD 21740"
6154192255,KRISTEN ALLFISHER DVM,6154192255,5416 67TH AVE,"RIVERDALE, MD 20737"
3018942522,OXON HILL VETERINARY CLINIC,3018942522,5108 WHEELER RD,"OXON HILL, MD 20745"
5408251777,ELKWOOD ANIMAL HOSPITAL,5408251777,22080 JAMES MADISON HWY,"ELKWOOD CULPEPER, VA 22718"
3017737370,JO-RETT ANIMAL CLINIC-KENNELS,3017737370,5371 SHERIFF RD,"FAIRMONT HEIGHTS, MD 20743"
3017338400,LONG MEADOW ANIMAL HOSPITAL,3017338400,19764 LONGMEADOW RD,"HAGERSTOWN, MD 21742"
3014230550,SILVER HILL ANIMAL HOSPITAL,3014230550,3806 OLD SILVER HILL RD,"SUITLAND, MD 20746"
3014837080,SPAY NOW - LAUREL CLINIC,3014837080,7401 VAN DUSEN RD,"LAUREL, MD 20707"
3017767744,ROCKY GORGE ANIMAL HOSPITAL,3017767744,7515 BROOKLYN BRIDGE RD,"LAUREL, MD 20707"
7037842770,QUANTICO VETRINARY TREATMENT,7037842770,3310 PURVIS ROAD,"QUANTICO, VA 22134"
5407524888,DEEP RUN FARM,5407524888,3727 BLACKWELLS MILL RD,"GOLDVEIN, VA 22720"
3018942576,"CAMERON'S TEMPLE HILLS ANIMAL",3018942576,4900 SAINT BARNABAS RD,"TEMPLE HILLS, MD 20748"
4432554489,METRO FERALS,4432554489,PO BOX 1385,"SYKESVILLE, MD 21784"
4105318070,FREETOWN ANIMAL HOSPITAL,4105318070,6470 FREETOWN RD STE 240,"COLUMBIA, MD 21044"
5409878852,MOBILE VET,5409878852,"WOODVILLE, VA 22749",5409878852
3014411139,BANFIELD - GREENBELT,3014411139,7475 GREENBELT RD,"GREENBELT, MD 20770"
4107302122,VCA COLUMBIA-ANIMAL HOSPITAL,4107302122,10788 HICKORY RIDGE RD,"COLUMBIA, MD 21044"
3016041414,BANFIELD - LAUREL,3016041414,13600 BALTIMORE AVE STE 160,"LAUREL, MD 20707"
3015146214,MARY ADELSBERG,3015146214,10053 EBBY RD,"ROCKY RIDGE, MD 21778"
3015779400,PRINCE GEORGES ANIMAL HOSPITAL,3015779400,7440 ANNAPOLIS RD,"HYATTSVILLE, MD 20784"
2405136030,NORTH PAWS VETERINARY HOSPITAL,2405136030,21257 LEITERSBURG PIKE,"HAGERSTOWN, MD 21742"
3017337339,MOUNTAINVIEW EMERGENCY CLC,3017337339,18501 MAUGANS AVE,"HAGERSTOWN, MD 21742"
4109706029,SYKESVILLE VETERINARY CLINIC,4109706029,20 LIBERTY RD STE C,"SYKESVILLE, MD 21784"
3015523800,A.P.A.W. VETERINARY HOSPITAL,3015523800,7601 GOOD LUCK RD,"LANHAM, MD 20706"
3019677222,SUITLAND ANIMAL CLINIC,3019677222,4828 SILVER HILL RD,"SUITLAND, MD 20746"
4435833131,CVCA COLUMBIA,4435833131,"10,000 OLD COLUMBIA RD","COLUMBIA, MD 21046"
4107306660,VCA LEWIS ANIMAL HOSPITAL,4107306660,10665 STATE ROUTE 108,"COLUMBIA, MD 21044"
3014205240,OAKCREST VETERINARY CLINIC,3014205240,5452 MARLBORO PIKE,"DISTRICT HEIGHTS, MD 20747"
4107307434,HICKORY RIDGE ANIMAL HOSPITAL,4107307434,10328 OWEN BROWN RD,"COLUMBIA, MD 21044"
3014988387,LAKESIDE VETERINARY CENTER,3014988387,8693 CHERRY LN,"LAUREL, MD 20707"
2402244806,MOBILVE VET,2402244806,1224 OVERLEIGH WAY,"NEW WINDSOR, MD 21176"
3016042670,VETCO LUV MY PET,3016042670,14719 BALTIMORE AVE STE C,"LAUREL, MD 20707"
3012487272,OXON HILL FORT WASHINGTON,3012487272,8004 BOCK RD,"FORT WASHINGTON, MD 20744"
3012921150,INDIAN HEAD ANIMAL HOSPITAL,3012921150,10909 INDIAN HEAD HWY,"FORT WASHINGTON, MD 20744"
4104413304,ATLANTIC VETERINARY INTERNAL MEDICINE,4104413304,10000 OLD COLUMBIA RD,"COLUMBIA, MD 21046"
5407525835,CONCORD FARM VETERINARY,5407525835,2971 MOUNTAIN VIEW RD,"STAFFORD, VA 22556"
5407524710,DEEP RUN FARM CANINE HEALTH CARE,5407524710,13727 BLACKWELLS MILL RD,"GOLDVEIN, VA 22720"
3017259555,MARYLAND VETERINARY GROUP,3017259555,3351 CORRIDOR MARKETPLACE PMB 400-64,"LAUREL, MD 20724"
8776698706,DC METRO VET,8776698706,P O BOX 1101,"LAUREL, MD 20725"
3018937816,GLYMONT VETERINARY CLINIC,3018937816,4618 INDIAN HEAD HWY,"INDIAN HEAD, MD 20640"
3017435411,PAWS - POTOMAC ANIMAL WELLNESS SERVICES,3017435411,4618 INDIAN HEAD HWY,"INDIAN HEAD, MD 20640"
4106274046,FAMILY AND FRIENDS ONLY,4106274046,10537 CATTERSKILL CT,"COLUMBIA, MD 21044"
3019537387,NORTH LAUREL ANIMAL HOSPITAL,3019537387,9105 ALL SAINTS RD STE P,"LAUREL, MD 20723"
4104802222,MARRIOTTSVILLE ANIMAL HOSPITAL,4104802222,2020 MARRIOTTSVILLE RD STE A,"MARRIOTTSVILLE, MD 21104"
4107950700,SUMMIT ANIMAL HOSPITAL,4107950700,1207 LIBERTY RD,"ELDERSBURG, MD 21784"
4108481682,WINDSOR VETERINARY SVC,4108481682,1935 BOWERSOX RD,"NEW WINDSOR, MD 21776"
3014905800,METRO MOBILE VETERINARY,3014905800,9752 EARLY SPRING WAY,"COLUMBIA, MD 21046"
3017255400,BRENNER ANIMAL HOSPITAL,3017255400,10100 WASHINGTON BLVD N,"LAUREL, MD 20723"
5406593811,STAFFORD ANIMAL HOSPITAL,5406593811,3454 JEFFERSON DAVIS HWY,"STAFFORD, VA 22554"
4102031500,PETS FIRST VETERINARY CLINIC,4102031500,10829 BIRMINGHAM WAY,"WOODSTOCK, MD 21163"
4105492345,SOUTH CARROLL VETERINARY HOSP,4105492345,6220 GEORGETOWN BLVD # L,"SYKESVILLE, MD 21784"
4104656676,ELLICOTT CITY VETERINARY CLNC,4104656676,10443 FREDERICK RD,"ELLICOTT CITY, MD 21042"
5134894644,VETERINARY DERMATOLOGY SVCS,5134894644,4725 CORNELL RD # 2,"BLUE ASH, OH 45241"
4109956880,CAT & DOG HOSPITAL OF COLUMBIA,4109956880,7276 CRADLEROCK WAY,"COLUMBIA, MD 21045"
4433405080,MOBILE VET,4433405080,7107 KEYSVILLE RD,"KEYMAR, MD 21757"
4107953088,ELDERSBURG VETERINARY HOSPITAL,4107953088,1527 LIBERTY RD,"SYKESVILLE, MD 21784"
4107853088,ELDERSBURG VETERENARY HOSPITAL,4107853088,1527 LIBERTY RD,"ELDERSBURG, MD 31784"
4105491400,ELDERSBURG VETERENARY HOSPITAL,4105491400,1527 LIBERTY RD,"ELDERSBURG, MD 31784"
5404676589,MOBILE VET,5404676589,9840 FARM POND RD,"LAUREL, MD 20708"
5406597387,ANIMAL HOUSE VETERINARY CLINIC,5406597387,394 GARRISONVILLE RD,"STAFFORD, VA 22554"
5406598140,AQUIA-GARRISONVILLE ANIMAL HOSPITAL,5406598140,878 GARRISONVILLE RD,"STAFFORD, VA 22554"
4104619969,HOME VETERINARY SERVICE,4104619969,"ELLICOTT CITY, MD 21042",4104619969
2404605986,GARY EGRIE,2404605986,3553 CONCHITA DR,"ELLICOTT CITY, MO 21042"
5406027794,610 ANIMAL HOSPITAL,5406027794,395 GARRISONVILLE RD STE. 107,"STAFFORD, VA 22554"
4104652428,SKYLOS SPORTS MEDICINE,4104652428,10270 BALTINORE NATIONAL PIKE,"ELLICOTT CITY, MD 21042"
4102743530,SMALL MIRACLES CAT & DOG RESCUE,4102743530,10236 BALTIMORE NATIONAL PIKE,"ELLICOTT CITY, MD 21042"
4105491500,CARROLLTOWN VETERINARY HOSP,4105491500,1818 LIBERTY RD,"ELDERSBURG, MD 21784"
4107502322,BETHANY CENTENNIAL ANIMAL HOSPITAL,4107502322,10176 BALTIMORE NATIONAL PIKE STE 111,"ELLICOTT CITY, MD 21042"
3019095950,AL-LYNN ANIMAL HOSPITAL,3019095950,6904 ALENNTOWN RD,"TEMPLE HILLS, MD 20748"
3014498822,AL-LYNN ANIMAL HOSPITAL,3014498822,6904 ALLENTOWN RD,"TEMPLE HILLS, MD 20748"
4107922026,STEWART YERGEY & ASSOCIATE,4107922026,3664 WHISKEY BOTTOM RD # A,"LAUREL, MD 20724"
3013433870,YERGEY STEWART VALLANCE AND ASSOCIATES,3013433870,3664 A WHISKEY BOTTOM RD,"LAUREL, MD 20724"
3017365288,FORESTVILLE ANIMAL HOSPITAL,3017365288,7307 MARLBORO PIKE,"FORESTVILLE, MD 20747"
4107928877,MARYLAND VETERINARY GROUP,4107928877,3351 CORRIDOR MARKETPLACE STE 400 # 64,"LAUREL, MD 20724"
5402888143,BANFIELD - STAFFORD,5402888143,1160 STAFFORD MARKET PL,"STAFFORD, VA 22556"
4107303095,BANFIELD PET HOSPITAL-ELLICOTT CITY,4107303095,4735 DORSEY HALL DR,"ELLICOTT, MD 21042"
4433269999,"""MOBILE VET""",4433269999,5430 MARSH HAWK WAY,"COLOMBIA, MD 21045"
3014838493,BANFIELD - MARYLAND CITY PLAZA,3014838493,3483 LAUREL FT MEADE RD,"LAUREL, MD 20724"
4104290139,AUCLAIR VETERINARY SERVICES,4104290139,10025 EMILY FOX CT,"ELLICOTT, MD 20142"
3012924000,ACCOKEEK ANIMAL HOSPITAL,3012924000,14803 INDIAN HEAD HWY,"ACCOKEEK, MD 20607"
2404020617,MOBILE VET,2404020617,390 BLUE RIVER CT,"ELLICOTT CITY, MD 21042"
9796611743,MOBILE VET,9796611743,"STAFFORD, VA 22554",9796611743
3012924284,VETERINARY SERVICES,3012924284,13105 FALLAHAN RD,"CLINTON, MD 20735"
3014491610,COOLRIDGE ANIMAL HOSPITAL,3014491610,6801 OLD BRANCH AVE,"TEMPLE HILLS, MD 20748"
3015806690,HOLISTIC VETERINARY CARE,3015806690,263 YANCEY RD,"WOODVILLE, VA 22749"
3013906770,GLENN-DALE VETERINARY CLINIC,3013906770,10843 LANHAM SEVERN RD,"GLENN DALE, MD 20769"
4107300000,"NEGOLA'S ANIMAL CARE",4107300000,6420 DOBBIN RD,"COLUMBIA, MD 21045"
3015964466,EAST COLUMBIA ANIMAL HOSPITAL,3015964466,6490 DOBBIN RD,"COLUMBIA, MD 21045"
3048561700,CACAPON VETERINARY MEDICAL CTR,3048561700,HC 71 BOX 75KK,"CAPON BRIDGE, WV 26711"
3048563010,MOUNTIAN ST EQUINE AND LARGE ANIMAL,3048563010,220 IRONHORSE LANE,"CAPON BRIDGE, WV 26711"
4103120677,BANFIELD - COLUMBIA,4103120677,9041 SNOWDEN SQUARE DR,"COLUMBIA, MD 21046"
4107751744,LINK VETERINARY ASSOCIATES,4107751744,980 TREVANION ROAD,"UNION BRIDGE, MD 21791"
3017855167,JAMES CASEY,3017855167,8301 FROSTWOOD DR,"LAUREL, MD 20724"
3017254371,EQUINE VERINARY SERVICES,3017254371,8301 FROSTWOOD DR,"LAUREL, MD 20724"
4104656218,DUNLOGGIN VETERINARY HOSPITAL,4104656218,9105 FREDERICK RD,"ELLICOTT CITY, MD 21042"
3013625252,EYE CARE FOR ANIMALS,3013625252,8890 CENTRE PARK DRIVE STE 100,"COLUMBIA, MD 21045"
7177659636,WAYNE HEIGHTS ANIMAL HOSPITAL,7177659636,2085 E MAIN ST,"WAYNESBORO, PA 17268"
5408255303,AMBERWOOD VETERINARY HOSPITAL,5408255303,121 SYCAMORE ST,"CULPEPER, VA 22701"
4104654350,ANIMAL WELFARE SOCIETY,4104654350,8556 DAVIS RD,"COLUMBIA, MD 21045"
3018850263,PAW PRINTS ANIMAL HOSPITAL,3018850263,8500 BENSVILLE RD,"WALDORF, MD 20603"
2292168529,WELL PET CLINIC,2292168529,8500 BENSVILLE ROAD,"WALDORF, MA 20603"
3034439003,NORTH BOULDER COMPANION ANIMAL,3034439003,2750 GLENWOOD CT # 9,"BOULDER, CO 80304"
3012627577,BELTWAY SURGICAL REFERRAL,3012627577,11660 ANNAPOLIS RD,"GLENN DALE, MD 20769"
2402954400,VETERINARY ORTHOPEDIC SPORTS MEDICINE GROUP,2402954400,10975 GUILFORD RD,"ANNAPOLIS JUNCTION, MD 20701"
3013504777,LARGO VETERINARY HOSPITAL,3013504777,10658 CAMPUS WAY S,"UPPER MARLBORO, MD 20774"
3013509790,BANFIELD - LARGO,3013509790,10464 CAMPUS WAY S # 8,"LARGO, MD 20774"
5408299085,CULPEPER ANIMAL HOSPITAL,5408299085,441 ASPEN ST,"CULPEPER, VA 22701"
3018681180,CLINTON VETERINARY HOSPITAL,3018681180,9414 BRANDYWINE RD,"CLINTON, MD 20735"
3014476237,EMMITSBURG VETERINARY HOSPITAL,3014476237,9436B WAYNESBORO PIKE,"EMMITSBURG, MD 21727"
3866684453,AA ANIMAL CLINIC,3866684453,2899 ENTERPRISE RD # 1,"DEBARY, FL 32713"
4104612400,COUNTRYSIDE VETERINARY CLINIC,4104612400,4866 MONTGOMERY RD,"ELLICOTT CITY, MD 21043"
4104612235,PATAPSCO VALLEY VET HOSPITAL,4104612235,8525 BALTIMORE NATL PIKE # 5,"ELLICOTT CITY, MD 21043"
4107995959,MEADOWRIDGE ANIMAL HOSPITAL,4107995959,6010 MEADOWRIDGE CENTER DR,"ELKRIDGE, MD 21075"
3042585819,ANIMALIA VETERINARY CARE,3042585819,4684 VALLEY RD,"BERKELEY SPGS, WV 25411"
7177620221,WAYNESBORO VETERINARY CLINIC,7177620221,11420 ANTHONY HWY,"WAYNESBORO, PA 17268"
3017824444,BRANDYWINE ANIMAL HOSPITAL,3017824444,12100 BRANDYWINE RD,"CLINTON, MD 20735"
3012493030,ANIMAL-MEDICAL CTR OF WATKINS PK,3012493030,60 WATKINS PARK DRIVE,"UPPER MARLBORO, MD 20772"
3042584123,BERKELEY SPRINGS ANIMAL CLINIC,3042584123,1692 MARTINSBURG RD,"BERKELEY SPRINGS, WV 25411"
3014640402,BOWIE TOWNE VETERINARY HOSP,3014640402,13801 ANNAPOLIS RD # A,"BOWIE, MD 20720"
3014643611,ANIMAL CLINIC OF NORTH BOWIE,3014643611,6796 LAUREL BOWIE RD,"BOWIE, MD 20715"
3018098800,DOGS AND CATS VETERINARY REFFERRAL OF BOWIE,3018098800,6700 LAURELL-BOWIE RD(RT.197),"BOWIE, MD 20715"
4103790831,JOSE R LOZADA,4103790831,6976 ELM AVENUE,"ELKRIDGE, MD 21075"
5404810639,HOME VET,5404810639,VIRGINIA,"WOODSTOCK, VA 22664"
5404592930,SHENANDOAH ANIMAL HOSPITAL,5404592930,PO BOX 503,"WOODSTOCK, VA 22664"
4109226043,RANDALLSTOWN ANIMAL HOSPITAL,4109226043,10022 LIBERTY RD,"RANDALLSTOWN, MD 21133"
5408258353,BLUE RIDGE ANIMAL HOSPITAL,5408258353,11298 JAMES MONROE HWY,"CULPEPER, VA 22701"
4439968035,KRISTINA MAYO,4439968035,13575 WOODMORE RD,"BOWIE, MD 20721"
7175973441,GREENCASTLE VETERINARY HOSP,7175973441,862 BUCHANAN TRL E,"GREENCASTLE, PA 17225"
4108483363,WESTMINSTER VETERINARY HOSPITAL,4108483363,269 W MAIN ST,"WESTMINSTER, MD 21157"
4105979237,MARYLAND MOBILE VETERINARY CLINIC,4105979237,PO BOX 429,"WESTMINSTER, MD 21158"
4108488344,MOBILE VET,4108488344,1030 BLOOM RD,"WESTMINSTER, MD 21158"
4108760244,WRONG #,4108760244,330 140 VILLAGE RD,"WESTMINSTER, MD 21157"
4108338848,HUMANE SOCIETY OF BALTIMORE,4108338848,1601 NICODEMUS RD,"REISTERSTOWN, MD 21136"
4108483100,CARROLL-COUNTY VETERINARY CLNC,4108483100,334 GORSUCH RD,"WESTMINSTER, MD 21157"
3018056700,CHESAPEAKE EQUINE VETERINARY PRACTICE LLC,3018056700,8300 RACE TRACK RD,"BOWIE, MD 20715"
4105513702,SEVERN SQUARE VETERINARY HOSP,4105513702,2620 ANNAPOLIS RD # G,"SEVERN, MD 21144"
4108487186,BANFIELD - WESTMINSTER,4108487186,405 N CENTER ST STE 24,"WESTMINSTER, MD 21157"
4102591244,EQUINE SERVICES INC.,4102591244,3042 MAYBERRY RD,"WEST MINISTER, MD 21158"
3013433874,ANIMAL MEDICAL,3013433874,3042 MAYBERRY RD,"WESTMINSTER, MD 21158"
4108575757,ROLLING HILLS ANIMAL HOSPITAL,4108575757,2027 SUFFOLK RD,"FINKSBURG, MD 21048"
4108712000,CANTRAL CARROLL ANIMAL EMERGENCY,4108712000,1030 BALTIMORE BLVD SUITE 180,"WESTMINSTER, MD 21157"
7175977711,FRANKLIN VETERINARY ASSOC,7175977711,2380 BUCHANAN TRL W,"GREENCASTLE, PA 17225"
3016771300,FORT MEADE VETERINARY SERVICES,3016771300,2018 ANNAPOLIS RD,"FORT MEADE, MD 20755"
4108333300,HOUSE CALL VET PRACTICE,4108333300,2025 SUFFOLK RD,"FINKSBURG, MD 21048"
4108618775,ROUTE 140 VETERINARY HOSPITAL,4108618775,2866 BALTIMORE BLVD,"FINKSBURG, MD 21048"
3016604448,LIFE COMPANIONS VETERINARY HOSPITAL,3016604448,15500 ANNAPOLIS RD STE 100,"BOWIE, MD 20715"
4107993732,BANFIELD - ARUNDEL MILLS,4107993732,7663 ARUNDEL MILLS BLVD,"HANOVER, MD 21076"
4109224800,COMMUNITY ANIMAL HOSPITAL,4109224800,9035 LIBERTY RD,"RANDALLSTOWN, MD 21133"
4105792918,"CLAWS 'N' PAWS ANIMAL HOSPITAL",4105792918,6500 WASHINGTON BLVD STE 101,"ELKRIDGE, MD 21075"
4107192445,CATONSVILLE ANIMAL HOSPITAL,4107192445,1707 FREDERICK RD,"CATONSVILLE, MD 21228"
4108489188,AIRPARK ANIMAL HOSPITAL,4108489188,1000 LITTLESTOWN PIKE,"WESTMINSTER, MD 21157"
4108690800,CATONSVILLE CAT CLINIC,4108690800,1114 N ROLLING RD,"CATONSVILLE, MD 21228"
4103796789,ELKRIDGE ANIMAL HOSPITAL,4103796789,6270 WASHINGTON BLVD,"ELKRIDGE, MD 21075"
3017807200,"PRINCE GEORGE'S COUNTY ANIMAL MANAGEMENT DIVISION",3017807200,3750 BROWN STATION RD,"UPPER MARLBORO, MD 20772"
3017807203,LOW COST SPAY AND NEUTER CLINIC,3017807203,3750 BROWN STATION,"UPPER MARLBORO, MD 20772"
5404598387,SEVEN BENDS VETERINARY HOSP,5404598387,1121 HISEY AVE,"WOODSTOCK, VA 22664"
4435277141,STANCLIFF LUBOW,4435277141,140 EASTRIDGE CIR,"ODENTON, MD 21113"
4106541400,NEW TOWN VETERINARY COMPLEX,4106541400,9706 GROFFS MILL DR # B,"OWINGS MILLS, MD 21117"
5408122120,PARADOCS ANIMAL HOSPITAL,5408122120,35070 GERMANNA HEIGHT DR STE C,"LOCUST GROVE, VA 22508"
2062001779,"DAWN HUNTER, DVM",2062001779,7109 SYBARS,"UPPER MARLBORO, MD 20772"
3015997000,ALL PAWS VETERINARY CENTER,3015997000,9556 CRAIN HWY,"UPPR MARLBORO, MD 20772"
3018058955,BANFIELD - BOWIE,3018058955,4500 MITCHELLVILLE RD,"BOWIE, MD 20716"
3012495200,BELAIR-VETERINARY HOSPITAL,3012495200,15511 HALL RD,"BOWIE, MD 20721"
4107473577,MID-ATLANTIC VETERINARY NRLGY,4107473577,32 MELLOR AVE # D,"CATONSVILLE, MD 21228"
4107887040,EMERGENCY VETERINARY CLINIC,4107887040,32 MELLOR AVE,"CATONSVILLE, MD 21228"
4107448671,VETERINARY MEDICAL SVC OF BALTIMORE,4107448671,32 MELLOR AVE STE D,"CATONSVILLE, MD 21228"
4107884088,MARYLAND VETERINARY SURGICAL,4107884088,32 MELLOR AVE,"CATONSVILLE, MD 21228"
4107888130,VETERINARY DERMATOLOGY CNTR BALTIMORE,4107888130,32 MELLOR AVE STE B,"CATONSVILLE, MD 21228"
4107448938,VETERINARY OPHTHALMOLOGY CLINIC,4107448938,32 MELLOR AVE STE C,"CATONSVILLE, MD 21228"
4107883784,FREDERICK ROAD VETERINARY HOSPITAL,4107883784,816 FREDERICK RD,"CATONSVILLE, MD 21228"
6104208744,WOLF CREEK EQUINE,6104208744,4331 LORD FAIRFAX CT,"UPPER MARLBORO, MD 20772"
4109995250,ABOVE AND BEYOND MOBILE VET CLINIC,4109995250,8415 JACOB RD,"SEVERN, MD 21144"
3017056845,BANFIELD - WALDORF,3017056845,3041 FESTIVAL WAY,"WALDORF, MD 20601"
3016452977,WALDORF ANIMAL CLINIC,3016452977,PO BOX 291,"WALDORF, MD 20604"
3016451120,CHARLES COUNTY VETERINARY HOSPITAL,3016451120,PO BOX 978,"WALDORF, MD 20604"
3017513053,IN HOME VET CARE,3017513053,PO BOX 1562,"WOLDORF, MD"
4106743266,ODENTON-VETERINARY HOSPITAL,4106743266,8393 PINEY ORCHARD PKWY,"ODENTON, MD 21113"
3017059700,WALDORF EMERGENCY ANIMAL CARE,3017059700,2215 CRAIN HIGHWAY,"WALDORF, MD 20601"
4108330500,ADVANCED VETERINARY COMPLEX,4108330500,501 MAIN ST,"REISTERSTOWN, MD 21136"
5402862855,HARTWOOD ANIMAL HOSPITAL,5402862855,15 JEWETT LN,"FREDERICKSBRG, VA 22406"
4106556500,LIBERTY-ANIMAL CLINIC,4106556500,8130 LIBERTY RD,"BALTIMORE, MD 21244"
5406233029,REID MOBILE VETERINARY SERVICES,5406233029,"301, 6402 FALKIRK CT","FREDERICKSBURG, VA 22406"
3018432666,WALDORF ANIMAL CLINIC,3018432666,2242 OL WASHINGTON RD,"WALDORF, MD 20601"
5403710940,TLC HOME VETERINARY SVC,5403710940,188 CRANES CORNER RD,"FREDERICKSBURG, VA 22405"
3017058955,WHITE PLAINS ANIMAL HOSPITAL,3017058955,10525 MIDDLEPORT LN,"WHITE PLAINS, MD 20695"
4108409559,RONALD O SCHUELER DVM,4108409559,3132 HALTER RD,"WESTMINSTER, MD 21158"
3013328563,AT HOME ANIMAL CARE,3013328563,PO BOX 96,"WHITE PLAINS, MD 20695"
4109230785,VETERINARY HOUSECALL SERVICE,4109230785,2100 CONCORD BLVD SUITE A,"CROFTON, MD 21114"
3012492005,HIGHWAY-VETERINARY-HOSPITAL,3012492005,2604 CRAIN HWY,"BOWIE, MD 20716"
4108338085,MOUNTAINSIDE VETERINARY HOSPITAL,4108338085,42 WESTMINSTER PIKE,"REISTERSTOWN, MD 21136"
4107444800,WESTVIEW ANIMAL HOSPITAL,4107444800,5800 JOHNNYCAKE RD,"BALTIMORE, MD 21207"
4108331717,TLC FOR PETS,4108331717,11809 REISTERSTOWN RD,"REISTERSTOWN, MD 21136"
4104997592,HEALING WHEELS FAMILY VET PRACTICE-MOBILE,4104997592,550 HIDDEN STREAM COURT,"WESTMINSTER, MD 21158"
5403700237,ENGLAND-RUN VETERINARY CLINIC,5403700237,756 WARRENTON RD,"FREDERICKSBURG, VA 22406"
3016458181,HUMANE SOCIETY CHARLES CITY,3016458181,71 INDUSTRIAL PARK DR,"WALDORF, MD 20602"
5409722203,LAKEWOOD ANIMAL HOSPITAL,5409722203,36097 GOODWIN DR,"LOCUST GROVE, VA 22508"
3016380988,SOUTHERN MARYLAND VETERINARY,3016380988,3485 ROCKEFELLER CT,"WALDORF, MD 20602"
4438606000,STAY PET VETERINARY,4438606000,1209 OLD DORSEY RD,"HANOVER, MD 21076"
3017032387,WALDORF EMERGENCY CARE,3017032387,3485 ROCKEFELLER CT,"WALDORF, MD 20602"
4105267500,MAIN STREET VETERINARY HOSPITAL,4105267500,11617 REISTERSTOWN RD,"REISTERSTOWN, MD 21136"
5409723869,LOCUST-GROVE VETERINARY CLINIC,5409723869,4092 GERMANNA HWY,"LOCUST GROVE, VA 22508"
4107217387,CROFTON VETERINARY CENTER,4107217387,2151 DEFENSE HWY,"CROFTON, MD 21114"
4107210001,GAMBRILLS VETERINARY CENTER,4107210001,1078 STATE ROUTE 3 S,"GAMBRILLS, MD 21054"
2405610626,MOBILE VET,2405610626,63 NORTH PROSPECT AVE,"BALTIMORE, MD 21228"
5407437298,LURAY CLINIC OF VETERINARY MED,5407437298,1208 E MAIN ST,"LURAY, VA 22835"
4107775309,PARADISE ANIMAL HOSPITAL,4107775309,6350 FREDERICK ROAD,"CATONSVILLE, MD 21228"
4107196920,PARADISE ANIMAL HOSPITAL,4107196920,6350 FREDERICK RD,"CATONSVILLE, MD 21228"
4107444224,PARADISE ANIMAL HOSPITAL,4107444224,6350 FREDERICK RD STE 3,"CATONSVILLE, MD 21228"
3012280826,WALDORF ANIMAL CLINIC,3012280826,PO BOX 291,"WALDORF, MD 20604"
3016786635,DANIEL A MURPHY DVM,3016786635,212 MARYLAND AVE,"HANCOCK, MD 21750"
4103560050,METROPOLITAN CAT HOSPITAL,4103560050,10806 REISTERSTOWN RD # 1C,"OWINGS MILLS, MD 21117"
4105513100,VCA TELEGRAPH ROAD ANIMAL HOSPITAL,4105513100,7863 TELEGRAPH RD,"SEVERN, MD 21144"
3016452550,ST~CHARLES ANIMAL HOSPITAL,3016452550,11685 DOOLITTLE DR,"WALDORF, MD 20602"
5403717729,LOVING TOUCH ANIMAL HOSPITAL,5403717729,628 CAMBRIDGE ST,"ST FREDERICKBURG, VA 22405"
4103630535,NORTHWEST ANIMAL HOSPITAL,4103630535,10526 REISTERSTOWN RD,"OWINGS MILLS, MD 21117"
5407437387,BLUE MOUNTAIN ANIMAL CLINIC,5407437387,307 COLLINS AVE,"LURAY, VA 22835"
3016277387,UPPER MARLBORO VETERINARY HOSPITAL,3016277387,15222 MARLBORO PIKE,"UPPER MARLBORO, MD 20772"
4438672601,HARBORSIDE MOBILE VET CLINIC,4438672601,4 FAIRBRIDGE CT,"OWINGSVILLE, MD 21117"
4104513700,WAUGH CHAPEL ANIMAL HOSPITAL,4104513700,2638 BRANDERMILL BLVD,"GAMBRILLS, MD 21054"
3012613659,WAUGH CHAPEL ANIMAL HOSPITAL,3012613659,2638 BRANDERMILL BLVD,"GAMBRILLS, MD 21054"
2402746659,VET MED MOBILE INC,2402746659,9000 DARLEY DR,"LA PLATA, MD 20646"
4108330660,REISTERTOWN VETERINARY CENTER,4108330660,13030 HANOVER PIKE,"REISTERSTOWN, MD 21136"
4104295096,GOODE RELIEF VET SERVICE,4104295096,13525 HANOVER PIKE,"REISTERTOWN, MD 21136"
3019343220,MID-COUNTY VETERINARY CLINIC,3019343220,6460 CRAIN HWY,"LA PLATA, MD 20646"
3013929966,ALL CATS AND DOGS VETERINARY CLINIC,3013929966,6543 CRAIN HWY,"LA PLATA, MD 20646"
4108776391,OWINGS MILLS VETERINARY CENTER,4108776391,9623 REISTERTOWN RD STE A,"OWINGS MILLS, MD 21117"
4103630393,OWINGS MILLS ANIMAL HOSPITAL,4103630393,9623 REISTERSTOWN RD # A,"OWINGS MILLS, MD 21117"
4434588481,DR.JOANNA WALKER DVM,4434588481,"GAMBRILLS, MD 21054",4434588481
3018580777,FAMILY VETERNARIAN CLINIC,3018580777,1413 DECENSE HWY,"GAMRAL, MD 21054"
4107214545,FAMILY VETERINARY CLINIC,4107214545,1413 DEFENSE HWY # 100,"GAMBRILLS, MD 21054"
4104468996,MILITARY VET,4104468996,801 CHAMPIONS CT,"REISTERSTPOWN, MD 21136"
4102421882,ARBUTUS VETERINARY HOSPITAL,4102421882,4901 LEEDS AVE # 1,"HALETHORPE, MD 21227"
4104843374,JULIAN SCHREIBMAN,4104843374,4204 BUCKINGHAM RD.,"BALTIMORE, MD 21207"
4103639500,VALLEY DOG AND CAT HOSPITAL,4103639500,9125 REISTERSTOWN RD,"OWINGS MILLS, MD 21117"
4103632040,VALLEY ANIMAL HOSPITAL,4103632040,9125 REISTERSTOWN RD,"OWINGS MILLS, MD 21117"
3019321881,ANIMAL CLINIC OF LA PLATA,3019321881,PO BOX 1732,"LA PLATA, MD 20646"
4104866900,OLD COURT ANIMAL HOSPITAL,4104866900,1709 REISTERSTOWN RD # A,"PIKESVILLE, MD 21208"
4105809119,PIKESVILLE ANIMAL HOSPITAL,4105809119,1496 REISTERSTOWN RD STE 113,"BALTIMORE, MD 21208"
5407435890,PAGE VALLEY VETERINARY CLINIC,5407435890,1420 W MAIN ST,"LURAY, VA 22835"
4104844041,STEVENSON VILLAGE VETERINARY HOSPITAL,4104844041,46 E SUDBROOK LN,"BALTIMORE, MD 21208"
7173285171,MERCERSBURG VETERINARY CLINIC,7173285171,293 LANDIS DR,"MERCERSBURG, PA 17236"
6606467878,YOUNG VETERINARIAN CLINIC,6606467878,3145 NORTH HWY 65,"CHILLICOTHE, MD 64601"
4107985222,FOUR LEGS ANIMAL HOSPITAL,4107985222,1329 W CENTRAL AVE,"DAVIDSONVILLE, MD 21035"
5408993644,JUST CATS VETERINARY CLINIC,5408993644,416 BRIDGEWATER ST,"FREDERICKSBURG, VA 22401"
4109690100,"NOAH'S ARK VETERINARY AND BOARDING",4109690100,8074 VETERANS HWY,"MILLERSVILLE, MD 21108"
4102392100,LUCKY STARS COUNRTY KENNELS,4102392100,2818 HAMPSTEAD MEXICO RD,"HAMPSTEAD, MD 21074"
5403738181,PRINCESS ANNE ANIMAL HOSPITAL,5403738181,2105 PRINCESS ANNE ST,"FREDERICKSBRG, VA 22401"
5403710554,ANIMAL EMERGENCY CLINIC,5403710554,1210 SNOWDEN ST,"FREDERICKSBURG, VA 22401"
4436076496,SPAY SPA & NEUTER NOOK,4436076496,1251 W CENTRAL AVE UNIT H,"DAVIDSONVILLE, MD 21035"
3019809178,ANGEL HOME PET CARE,3019809178,15980 CROOM AIRPORT RD,"UPPR MARLBORO, MD 20772"
3016273829,ANGEL HOME PET CARE,3016273829,15980 CROOM AIRPORT ROAD,"UPPER MARLDORO, MD 20772"
4107419082,ANIMAL CLINIC OF WAYSONS CORNER,4107419082,5443 SOUTHERN MARYLAND BLD,"LOTHIAN, MD 20711"
4105079373,WINDSONG VETERINARY,4105079373,1019 WAYSON WAY,"DAVIDSONVILLE, MD 21035-2202"
4106952862,NMOTION HOME VETERINARY CARE,4106952862,7362 BALTIMORE ANNAPOLIS RD,"GLEN BURNIE, MD 21061"
7174657220,TO MUCH OF A GOOD THING,7174657220,5 WEST KING STREET,"LITTLESTOWN, PA 17340"
5408547171,RAPPAHANNOCK EQUINE CLINIC,5408547171,7050 GOVERNOR ALMOND RD,"LOCUST GROVE, VA 22508"
5407185176,MOBILE VET,5407185176,"BRIGHTWOOD, VA 22715",5407185176
4107294342,ANIMAL BIRTH CONROL,4107294342,8424 VETERANS HWY,"MILLERSVILLE, MD 21108"
4102393713,NORTH CARROLL VETERINARY SERVICE,4102393713,1929 ALBERT RILL RD,"HAMPSTEAD, MD 21074"
4109565733,DAVIDSONVILLE VETERINARY CLINIC,4109565733,3725 TANGLEWOOD LN,"DAVIDSONVILLE, MD 21035"
4109878300,MILLERSVILLE ANIMAL HOSPITAL,4109878300,401 HEADQUARTERS DR STE 206,"MILLERSVILLE, MD 21108"
4107667387,ALPHA VETERINARY CENTER,4107667387,7387 BALTIMORE ANNAPOLIS BLVD STE D,"GLEN BURNIE, MD 21061"
5407856205,BANFIELD - FREDERICKBURG,5407856205,1421 CARL D SILVER PKWY,"FREDERICKSBRG, VA 22401"
4102392323,COOPER WILLIAMS DVM,4102392323,720 N HOUCKSVILLE RD,"HAMPSTEAD, MD 21074"
5403740462,WHITE OAK ANIMAL HOSPITAL,5403740462,10 WALSH LN,"FREDERICKSBRG, VA 22405"
4102228900,ANNE ARUNDEL COUNTY ANIMAL CONTROL,4102228900,411 MAXWELL FRYE RD,"MILLWESVILLE, MD 21108"
5405483417,HOPE ANIMAL HOSPITAL,5405483417,5719 PLANK RD,"FREDERICKSBRG, VA 22407"
4107683396,ANIMAL HOSPITAL AT SOUTHGATE,4107683396,338 HOSPITAL DR,"GLEN BURNIE, MD 21061"
4105301247,TIDBITTS VETERINARY CLINIC,4105301247,4606 INNOPOIS RD,"GLEN BURNIE, MD 21060"
4107411473,WOLF CREEK EQUINE,4107411473,936 FIORENZA DR,"LOTHIAN, MD 20711"
4107586747,WOLF CREEK EQUINE,4107586747,936 FIORENZA DR,"LOTHIAN, MD 20711"
3044967746,AUGUSTA ANIMAL HOSPITAL,3044967746,PO BOX 88,"AUGUSTA, WV 26704"
4107661500,GLEN BURNIE ANIMAL HOSPITAL,4107661500,408 CRAIN HWY N,"GLEN BURNIE, MD 21061"
4435076649,HAMPSTEAD VETERINARY CENTER,4435076649,695 HANOVER PIKE,"HAMPSTEAD, MD 21074"
5403736512,FREDERICKSBURG ANIMAL HOSPITAL,5403736512,1525 OLDE WILLIAM ST,"FREDERICKSBRG, VA 22401"
4107217610,MOBILE VET,4107217610,1071 DEER RUN LANE,"CROWNSVILLE, MD 21032"
4105444423,BAYSIDE-ANIMAL MEDICAL CTR,4105444423,844 RITCHIE HWY # 102,"SEVERNA PARK, MD 21146"
4107601746,CROYDON PET HOSPITAL,4107601746,7746 RITCHIE HWY,"GLEN BURNIE, MD 21061"
7173341179,CONFEDERATE WOODS VET HOSPITAL,7173341179,10 CONFEDERATE DR,"GETTYSBURG, PA 17325"
4103743317,MD RESCUE VETERNINARY SERVICES,4103743317,PO BOX 647,"HAMPSTEAD, MD 21074"
4109356594,MOBILE VETERINARIAN,4109356594,4323 MT ZION RD,"UPPERCO, MD 21155"
5403835816,MARGOLIS EQUINE VETERINARY SERVICE (No Fax #),5403835816,732 HAMBURG RD,"LURAY, VA 22835"
4109233040,BAY COUNTRY VETERINARY HOSPITAL,4109233040,1197 GENERALS HWY,"CROWNSVILLE, MD 21032"
4435523385,MICHAEL CRANFIELD,4435523385,1876 MANSION HOUSE DR,"BALTIMORE, MD 21217"
3015792945,SOUTHERN MARYLAND EQUINE VETS,3015792945,16800 CANDY HILL RD,"UPPER MARLBORO, MD 20772"
3014204329,SOUTHERN MARYLAND EQUINE VET,3014204329,16800 CANDY HILL RD,"UPPER MARLBORO, MD 20772"
4437899176,COUNTRY ROADS MOBILE VETERINARY SERVICES,4437899176,PO BOX 490,"HAMPSTEAD, MD 21074"
4102360491,DR.MARSIA PEPIN HOUSECALLS,4102360491,"HAMPSTEAD, MD 21074",4102360491
4436907719,MOBILE VET,4436907719,3321 BUTLER RD,"REISTERSTOWN, MD 21136"
7173342177,GETTYSBURG ANIMAL HOSPITAL INC,7173342177,996 OLD HARRISBURG RD,"GETTYSBURG, PA 17325"
3525142413,MOBILE VET,3525142413,"BALTIMORE, MD 21217",3525142413
4106360044,PET WELLNESS CLINIC,4106360044,5017 RITCHIE HWY,"BALTIMORE, MD 21225"
4107890060,ANNE ARUNDEL VETERINARY HOSP,4107890060,4800 RITCHIE HWY,"BALTIMORE, MD 21225"
5403715090,FERRY FARM ANIMAL CLINIC,5403715090,386 KINGS HWY,"FREDERICKSBRG, VA 22405"
5403736100,CONFEDERATE RIDGE-ANIMAL HOSP,5403736100,2301 1/2 JEFFERSON DAVIS HWY,"FREDERICKSBURG, VA 22401"
7173692231,DR. CROUSE VETERINARY,7173692231,13115 DICKEYS RD,"MERCERSBURG, PA 17236"
7173283061,MOBILE VET,7173283061,13115 DICKEYS RD,"MERCERSBURG, PA 17236"
4107610589,BANFIELD - GLEN BURNIE SOUTHDALE,4107610589,10A MOUNTAIN RD,"GLEN BURNI, MD 21060"
4103553131,EVERHART VETERINARY HOSPITAL,4103553131,4005 RITCHIE HWY,"BALTIMORE, MD 21225"
4438694104,SWAN HARBOR ANIMAL HOSPITAL,4438694104,200 WEST MCCOMAS STREET,"BALTIMORE, MD 21230"
4103949581,THE VILLAGE VET - BALTIMORE ANIMAL HOSPITAL,4103949581,1620 SULGRAVE AVE,"BALTIMORE, MD 21209"
4108631100,BANFIELD - GLEN BURNIE,4108631100,597C E ORDNANCE RD,"GLEN BURNIE, MD 21060"
4105829447,PETSMART,4105829447,597 C-E ORDNANCE RD,"GLEN BURNIE, MD 21060"
4103678111,THE VILLAGE VET,4103678111,1620 SULGRAVE AVE,"BALTIMORE, MD 21209"
4436557897,MOBILE VETERINARIAN,4436557897,"BALTIMORE, MD 21211",4436557897
4104041600,CAMDEN-INNER HARBOR VETERINARY SRVCS,4104041600,648 W. CONWAY ST,"BALTIMORE, MD 21230"
9194280735,JOHNS HOPKINS SCHOOL OF MEDICINE,9194280735,1219 UNION AVE,"BALTIMORE, MD 21211"
5405077461,VIRGINIA KINCHELOE SPAY/NEUTER CLINIC,5405077461,452 TV DR,"FREDERICKSBRG, VA 22408"
4107683620,HUFFARD ANIMAL HOSPITAL,4107683620,8073 RITCHIE HWY,"PASADENA, MD 21122"
4108259100,FALLS ROAD ANIMAL HOSPITAL,4108259100,6314 FALLS RD,"BALTIMORE, MD 21209"
4104009355,MARYLAND SPCA WELLNESS CLINIC,4104009355,4007 FALLS RD,"BALTIMORE, MD 21211"
4102358826,MD SPCA,4102358826,4007 FALLS RD,"BALTIMORE, MD 21211"
4107527122,CITYPETS VETERINARY CARE,4107527122,1212 S CHARLES ST,"BALTIMORE, MD 21230"
4105478385,LIGHT STREET ANIMAL HOSPITAL,4105478385,1601 LIGHT ST,"BALTIMORE, MD 21230"
4432757253,LOVING PET CARE HOSPITAL,4432757253,6057 FALLS RD,"BALTIMORE, MD 21209"
4103844573,LOVING PET MOBILE CARE,4103844573,6057 FALLS RD,"BALTIMORE, MD 21209"
4106470500,SEVERN RIVER ANIMAL HOSPITAL,4106470500,590 BENFIELD RD,"SEVERNA PARK, MD 21146"
4109877387,BENFIELD VILLAGE VETERINARY,4109877387,590 BENFIELD RD,"SEVERNA PARK, MD 21146"
4109621605,METROCENTER ANIMAL CLINIC,4109621605,858 PARK AVE,"BALTIMORE, MD 21201"
4103746522,MANCHESTER VETERINARY SVC,4103746522,3269 MAIN ST,"MANCHESTER, MD 21102"
4102433333,HAMPDEN VETERINARY CLINIC,4102433333,3300 KESWICK RD,"BALTIMORE, MD 21221"
5407862282,VCA CHANCELLOR ANIMAL HOSPITAL,5407862282,11101 GORDON RD,"FREDERICKSBRG, VA 22407"
4106880083,CLINIC CCBC WELLNESS,4106880083,7201 LOSTVILLE BLVD,"BALTIMORE, MD 21237"
4108774458,MOBILE VET,4108774458,PO BOX 129,"BALTIMORE, MD 21128"
4349853203,MADISON-GREENE HUMANE SOCIETY,4349853203,PO BOX 95,"RUCKERSVILLE, VA 22968"
4434384491,EVERGREEN VETERINARY CARE,4434384491,410 W COLD SPRING LN,"BALTIMORE, MD 21210"
4107714095,HOUSECALLS VET,4107714095,3100 BLACK ROCK RD,"REISTERSTOWN, MD 21136"
2159906945,MOBILE VET,2159906945,1301 SAINT PAUL ST,"BALTIMORE, MD 21202"
8314227387,ANIMAL HEALTH CENTER,8314227387,1261 S MAIN ST # B,"SALINAS, CA 93901"
5408911275,ST FRANCIS ANIMAL HOSPITAL,5408911275,4624 HARRISON RD,"FREDERICKSBRG, VA 22408"
7173372785,ANIMAL WELLNESS CLINIC,7173372785,3570 CHAMBERSBURG RD # 1A,"BIGLERVILLE, PA 17307"
7172642615,LINCOLN-WAY ANIMAL HOSPITAL,7172642615,1986 LINCOLN WAY E,"CHAMBERSBURG, PA 17202"
7062155011,MOBILE VET,7062155011,1519 E CLEMENT ST,"BALTIMORE, MD 21230"
4107778678,ALEXANDER ANIMAL HOSPITAL,4107778678,160 RITCHIE HWY,"SEVERNA PARK, MD 21146"
4102355374,"VINSON'S ANIMAL-HOSPITAL INC",4102355374,3015 GREENMOUNT AVE,"BALTIMORE, MD 21218"
7325478185,MOBILE VET,7325478185,7931 TRAILVIEW XING,"GLEN BURNIE, MD 21060"
4109255631,PERSONAL VETERINARIAN,4109255631,202 LAMBETH RD,"BALTIMORE, MD 21218"
4102126833,JETT EQUINE INC,4102126833,540 CORBIN PKWY,"ANNAPOLIS, MD 21401"
3039410120,KENDRA BAKER DVM,3039410120,"BALTIMORE, MD 21231",3039410120
6072794504,VET ON THE GO,6072794504,"BALTIMORE, MD 21231",6072794504
5408981500,FREDERICKSBURG SPCA,5408981500,10819 COURTHOUSE RD,"FREDERICKSBURG, VA"
4102960890,RUXTON ANIMAL HOSPITAL,4102960890,8014 BELLONA AVE,"TOWSON, MD 21204"
7176376172,COUNTRYSIDE VET HOSPITAL,7176376172,119 IMPOUNDING DAM RD,"HANOVER, PA 17331"
7175950337,ST THOMAS VET CENTER,7175950337,6442 LINCOLN WAY WEST,"ST THOMAS, PA 17252"
7172644712,CHAMBERSBURG ANIMAL HOSPITAL,7172644712,1340 LINCOLN WAY E,"CHAMBERSBURG, PA 17202"
7177884212,CHAMBERSBURG ANIMAL HOSPITAL,7177884212,1340 LINCOLN WAY E,"CHAMBERBURG, PA 17202"
4102575798,DUNKIRK ANIMAL HOSPITAL,4102575798,11470 SOUTHERN MARYLAND BLVD,"DUNKIRK, MD 20754"
3018558126,DUNKIRK ANIMAL HOSPITAL,3018558126,11470 SOUTHERN MARYLAND BLVD,"DUNKIRK, MD 20754"
5408987387,HOOD DRIVE VETERINARY CLINIC,5408987387,4804 HOOD DR,"FREDERICKSBURG, VA 22408"
4109553273,JOHN HOPKINS SCHOOL OF MEDICINE,4109553273,720 RUTLAND AVE,"BALTIMORE, MD 21205"
3016068682,JOHNS HOPKINS HOSPITAL,3016068682,720 RUTLAND AVE,"BALTIMORE, MD 21205"
4108892230,AARDMORE VETERINARY HOSPITAL,4108892230,3130 LOCH RAVEN RD,"BALTIMORE, MD 21218"
4104351120,YORK ROAD ANIMAL HOSPITAL,4104351120,4703 YORK RD,"BALTIMORE, MD 21212"
5408917669,FREDERICKSBURG EQUINE SVC,5408917669,4937 LANSDOWNE RD,"FREDERICKSBURG, VA 22408"
4105601515,MOBILE VET,4105601515,12251 ROUNDWOOD RD UNIT 702,"LUTHERVILLE TIMONIUM, MD 21093"
4109567387,VCA SOUTH ARUNDEL ANIMAL HOSPITAL,4109567387,85 WEST CENTRAL AVE,"EDGEWATER, MD 21037"
4109562932,VCA SOUTH ARUNDEL VETERINARY HOSPITAL,4109562932,85 CENTRAL AVE W,"EDGEWATER, MD 21037"
4109341612,VCA SOUTH ARUNDEL ANIMAL HOSPITAL,4109341612,85 W CENTRAL AVE,"EDGEWATER, MD 21037"
4105229090,HARBOR VIEW VET HOSPITAL,4105229090,2304 BOSTON ST,"BALTIMORE, MD 21224"
5407107111,"LEE'S HILL PET HOSPITAL",5407107111,10693 SPOTSYLVANIA AVE,"FREDERICKSBURG, VA 22408"
5408914321,LEAVELLS ANIMAL HOSPITAL,5408914321,10355 COURTHOUSE RD,"SPOTSYLVANIA, VA 22553"
7172672747,TRI-COUNTY ANIMAL MEDICAL CTR,7172672747,675 MOWER RD,"CHAMBERSBURG, PA 17201"
4102244260,ANIMAL EYE CARE,4102244260,197 DEFENSE HIGHWAY,"ANNAPOLIS, MD 21401"
4108011000,"YOU'LL NEVER WALK ALONE",4108011000,2400 BOSTON ST SUITE 124,"BALTIMORE, MD 21224"
7172610520,BEST FRIENDS ANIMAL HOSPITAL,7172610520,1988 LINCOLN WAY WEST,"CHAMBERSBURG, PA 17202"
5403617050,TIDEWATER TRAILS ANIMAL CLINIC,5403617050,10839 TIDEWATER TRL,"FREDERICKSBURG, VA 22408"
4109993300,BELVEDERE VETERINARY CENTER,4109993300,5857 YORK RD,"BALTIMORE, MD 21212"
2404984270,RELIEF WORK,2404984270,1218 N VIEW RD,"BALTIMORE, MD 21218"
4102243800,GREATER ANNAPOLIS VETERINARY HOSPITAL,4102243800,1901 GENERALS HWY,"ANNAPOLIS, MD 21401"
4102667170,BANFIELD - ANNAPOLIS,4102667170,2601 HOUSLEY RD,"ANNAPOLIS, MD 21401"
7173597877,LITTLESTOWN VET HOSPITAL,7173597877,51010 BALTIMORE PIKE,"LITTLESTOWN, PA 17340"
4106478366,SEVERNA PARK VETERINARY HOSPITAL,4106478366,4 EVERGREEN RD # 1,"SEVERNA PARK, MD 21146"
7176324425,VCA CONEWAGO ANIMAL HOSPITAL,7176324425,3002 HANOVER PIKE,"HANOVER, PA 17331"
4102967387,LUTHERVILLE ANIMAL HOSPITAL,4102967387,506 W SEMINARY AVE,"LUTHERVILLE, MD 21093"
4103777900,CHAT CAT HOSPITAL AT TOWSON,4103777900,6701 YORK RD,"BALTIMORE, MD 21212"
7176371220,ANIMAL HOSPITAL OF W MANHEIM,7176371220,2234 BALTIMORE PIKE,"HANOVER, PA 17331"
7175734569,NEEDMORE VETERINARY CLINIC,7175734569,8189 GREAT COVE RD,"NEEDMORE, PA 17238"
7176244550,MOBILE VET FOR YOUR PET,7176244550,1320 STORMS STORE RD,"NEW OXFORD, PA 17350"
4109564500,GREATER SOUTH RIVER ANIMAL HOSPITAL,4109564500,125 MAYO RD,"EDGEWATER, MD 21037"
4107775887,HEALING PAWS,4107775887,688 RITCHIE HWY,"SEVERNA PARK, MD 21146"
4438738431,CHARM CITY VET HOSPITAL,4438738431,3600 ODONNELL ST STE 160,"BALTIMORE, MD 21224"
4102552300,PASADENA ANIMAL HOSPITAL,4102552300,3007 MOUNTAIN RD,"PASADENA, MD 21122"
5406616256,HHD MOBILE VET CLINIC,5406616256,11263 MOFFETT LANE,"UNIONVILLE, VA 22567"
4109796400,MOBILE VET,4109796400,88 ROAD END LN,"SEVERNA PARK, MD 21146"
4102246624,ANNAPOLIS VET & WELLNESS,4102246624,167 JENNIFER RD STE Q,"ANNAPOLIS, MD 21401"
4102242265,EASTERN VETERINARY BLOOD BANK,4102242265,"844 RITCHIE HIGHWAY, SUITE 204","SEVERNA PARK, MD 21146"
4103083771,BANFIELD - TIMONIUM,4103083771,57 W AYLESBURY RD,"LUTHERVILLE TIMONIUM, MD 21093"
5409483293,BLUE MOUNTAIN EQUINE SVC,5409483293,60 COURTHOUSE MOUNTAIN RD,"MADISON, VA 22727"
4439708686,MATTHEW C TERZI,4439708686,1700 EAST COLD SPRING LANE,"BALTIMORE, MD 21251"
2022867735,JOHNS HOPKINS HOSPITAL,2022867735,720 RUTLAND AVE,"BALTIMORE, MD 21205"
4102528820,TIMONIUM ANIMAL HOSPITAL,4102528820,2411 YORK RD,"LUTHVLE TIMON, MD 21093"
4106755101,ERDMAN ANIMAL HOSPITAL,4106755101,3233 ERDMAN AVE,"BALTIMORE, MD 21213"
5512214770,MOBILE VET,5512214770,2700 CHURCHCREEK LANE,"EDGEWATER, MD 21037"
5406722950,TUCKER VETERINARY INC,5406722950,PO BOX 545,"ORANGE, VA 22960"
7176882392,PRIVATE PRACTICE,7176882392,2228 OXFORD RD,"NEW OXFORD, PA 17350"
4106619200,ANIMAL MEDICAL HOSPITAL,4106619200,7688 BELAIR RD,"BALTIMORE, MD 21236"
7175868928,"JACQUELINE O'DONNELL",7175868928,2065 YOUNGS RD,"HANOVER, PA 17331"
5407753777,POTOMAC RIDGE ANIMAL HOSPITAL,5407753777,13414 RIDGE RD,"KING GEORGE, VA 22485"
7173097817,DAN LAUCKS,7173097817,6299 HOFF RD,"SPRING GROVE, PA 17362"
4103578078,PRETTYBOY VETERINARY HOSPITAL,4103578078,20212 MIDDLETOWN RD,"FREELAND, MD 21053"
4105359700,BAY EQUINE SVC,4105359700,2195 HUNTING CREEK RD,"HUNTINGTOWN, MD 20639"
7172292557,SUE ELKINS,7172292557,4796 WOODLAND PATH,"GLENVILLE, PA 17329"
4108921212,FULLERTON ANIMAL HOSPITAL,4108921212,8018 BELAR RD,"NOTTINGHAM, MD 21236"
4106656996,FULLERTON ANIMAL HOSPITAL,4106656996,8018 BELAIR RD,"NOTINGHAM, MD 21236"
4106308110,FULLERTON ANIMAL HOSPITAL,4106308110,8018 BELAIR RD STE B,"BALTIMORE, MD 21236"
4104148250,MID ATLANTIC ANIMAL SPECIALTY,4104148250,4135 OLD TOWN RD SUITE B,"HUNTINGTOWN, MD 20639"
7175328599,MOUNT ROCK ANIMAL HOSPITAL,7175328599,7473 MOLLY PITCHER HWY,"SHIPPENSBURG, PA 17257"
3306086117,LIC # 6238 EXP 6/30/11,3306086117,7519 STONECUTTER CT APT C,"ROSEDALE, MD 21237"
2404447741,MOBILE VET,2404447741,PO BOX 38,"HOOD, VA 22733"
4106684806,NORTHWIND ANIMAL HOSPITAL,4106684806,10019 HARFORD RD,"PARKVILLE, MD 21234"
4109181155,PAW PRINTS PET HOSPITAL,4109181155,8767 PHILADELPHIA RD STE J,"ROSEDALE, MD 21237"
4105156651,VETERINARY REFERRAL HOSPITAL,4105156651,7201 ROSSVILLE BLVD,"BALTIMORE, MD 21237"
4438401639,DR.CAROL M. SCHWARTZ,4438401639,7201 ROSSVILLE BLVD,"BALTIMORE, MD 21237"
5407759439,KING GEORGE VETERINARY CLINIC,5407759439,12378 KINGS HWY,"KING GEORGE, VA 22485"
7172250720,LITTLE SCHOOL ANIMAL-HOSPITAL,7172250720,6398 YORK RD,"SPRING GROVE, PA 17362"
4103036176,MOBILE VET,4103036176,2852 LODGE FARM RD,"BALTIMORE, MD 21219"
4105923131,VALLEY VETERINARY SVC,4105923131,3340 PAPER MILL RD,"PHOENIX, MD 21131"
4106288387,COMPANION ANIMAL CARE CTR,4106288387,3340 PAPER MILL RD,"PHOENIX, MD 21131"
4436779034,DR.EDWIN H KRIEL DVM,4436779034,"MONKTON, MD 21111",4436779034
4102560742,ABBEY ANIMAL HOSPITAL,4102560742,8858 BELAIR RD,"BALTIMORE, MD 21236"
4106871111,ESSEX-DOG & CAT HOSPITAL,4106871111,1609 EASTERN BLVD,"ESSEX, MD 21221"
4432957873,CALVERT WELL PET CLINIC,4432957873,2240 SOLOMONS ISLAND RD,"HUNTINGTOWN, MD 20639"
4102567297,SCHULMEYER ANIMAL HOSPITAL,4102567297,4138 E JOPPA RD # H,"BALTIMORE, MD 21236"
4102564888,ANIMAL HOSPITAL OF PERRY HALL,4102564888,9022 BELAIR RD,"BALTIMORE, MD 21236"
4102073398,METRO ANIMAL CLINIC,4102073398,4111 KINCAID RD,"BALDWIN, MD 21013"
3018847213,COMPANION CARE,3018847213,28105 THREE NOTCH RD,"MECHANICSVILLE, MD 20659"
4104723545,MANOR EQUINE HOSPITAL,4104723545,15801 OLD YORK RD,"MONKTON, MD 21111"
5408962882,NORTH FORK VETERINARY HOSPITAL,5408962882,13550 KAY DR,"TIMBERVILLE, VA 22853"
4106866310,PULASKI VETERINARY CLINIC,4106866310,9707 PULASKI HWY,"BALTIMORE, MD 21220"
7175301060,CENTRAL VALLEY VET HOSPITAL,7175301060,414 W KING ST,"SHIPPENSBURG, PA 17257"
4102855442,COMPANION CARE MOBILE VET,4102855442,MIDDLE RIVER,"BALTIMORE, MD"
4435075481,MOBILE VET,4435075481,PO BOX 54,"FREELAND, MD 21053"
4106825799,BANFIELD - WHITE MARSH,4106825799,9921 PULASKI HWY,"BALTIMORE, MD 21220"
6194211698,OTAY PET VETS,6194211698,2015 BIRCH RD STE 107,"CHULA VISTA, CA 91915"
3048975500,HUNT MOBILE VETERINARY SVC,3048975500,RR 1 BOX 429,"MATHIAS, WV 26812"
4105352590,PRINCE FREDERICK ANIMAL HOSP,4105352590,60 STAFFORD RD,"PRINCE FREDERICK, MD 20678"
4104566707,HARFORD VETERINARY SERVICE,4104566707,6 BENS CT,"PARKTON, MD 21120"
7175325413,SHIPPENSBURG ANIMAL HOSPITAL,7175325413,93 WALNUT BOTTOM RD FRNT,"SHIPPENSBURG, PA 17257"
7172599276,MAROCHE EQUINE CLINIC,7172599276,SCHOOLHOUSE RD,"THOMASVILLE, PA 17364"
7174599100,COMPASSION ANIMAL HOSPITAL LLC,7174599100,1665 PA-194,"EAST BERLIN, PA 17316"
7174599148,COMPASSION ANIMAL HOSPITAL,7174599148,1665 ROUTE 194 N,"EAST BERLIN, PA 17316"
4108877297,BALTIMORE COUNTY ANIMAL SERVICES,4108877297,13800 MANOR DR,"BALDWIN, MD 21013"
4105356235,BARSTOW VETERINARY HOSPITAL,4105356235,RR 231,"PRINCE FREDERICK, MD 20678"
5405782199,LIC# 0301007274 STATE OF VA.,5405782199,12647 MOUNTAIN VALLEY RD,"BROADWAY, VA 22815"
8044485864,DR.KAREN HENDERSON DVM,8044485864,"WOODFORD, VA 22580",8044485864
7172599734,STONY RUN VETERINARY CTR,7172599734,162 N SCHOOL HOUSE RD,"THOMASVILLE, PA 17364"
4106309171,WARM & FUZZY VETERINARY CENTER,4106309171,11600 CROSSROADS CIR SUITE H,"MIDDLE RIVER, MD 21220"
4105939929,LONG GREEN ANIMAL DERMATOLOGY,4105939929,13515 LONG GREEN PIKE,"BALDWIN, MD 21013"
5402989323,BLUE RIDGE ANIMAL CLINIC,5402989323,2495 N EAST SIDE HWY,"ELKTON, VA 22827"
4102480442,HONEYGO ANIMAL HOSPITAL,4102480442,11550 PHILADELPHIA RD,"WHITE MARSH, MD 21162"
4105927569,FORK VETERINARY HOSPITAL,4105927569,PO BOX 118,"FORK, MD 21051"
7174778938,MOUNTAIN VIEW VETERINARY SERVICES,7174778938,20 PARK PLACE,"SHIPPENSBURG, PA 17257"
4103296996,SHAWSVILLE VETERINARY HOSPITAL,4103296996,4534 NORRISVILLE RD,"WHITE HALL, MD 21161"
4106922800,SHAWSVILLE VETERINARY HOSPITAL,4106922800,4534 NORRISVILLE RD,"WHITE HALL, MD"
4103358400,WHITE MARSH ANIMAL HOSPITAL,4103358400,11450 PULASKI HWY # 3,"WHITE MARSH, MD 21162"
4103533485,CAROL SPICKNALL MOBILE VET,4103533485,4855 HONEY COVE LN,"PRINCE FREDERICK, MD 20678"
5408965155,BROADWAY VETERINARY HOSPITAL,5408965155,117 S TIMERWAY,"BROADWAY, VA 22815"
7172356846,SHREWSBURY VETERINARY~CLINIC,7172356846,85 E FORREST AVE,"SHREWSBURY, PA 17361"
7174236536,BURNT MILL VETERINARY CTR LLC,7174236536,15154 BURNT MILL RD,"SHIPPENSBURG, PA 17257"
5408944572,LAKE ANNA VETERINARY HOSPITAL,5408944572,11012 KENTUCKY SPRINGS RD,"MINERAL, VA 23117"
4105922900,COUNTRYSIDE MOBILE VETERINARY,4105922900,7449 BRADSHAW RD,"KINGSVILLE, MD 21087"
4105922550,CELEBRIE VETERINARY HOSPITAL,4105922550,PO BOX 240,"KINGSVILLE, MD 21087"
4105578841,MADONNA VETERINARY HOSPITAL,4105578841,4105 NORRISVILLE ROAD SUITE E,"WHITE HALL, MD 21161"
4106927720,MADONNA ANIMAL CLINIC,4106927720,4105 NORRISVILLE RD,"WHITE HALL, MD 21161"
4106437565,CONVENIENT CARE MOBILE VET SERVICE,4106437565,509 BUCKINGHAM DR,"STEVENSVILLE, MD 21666"
8056604050,MOBILE VET,8056604050,10133 COBBLESTONE CREEK DR,"BOYNTON BEACH, FL 33472"
3047389117,WILEY FORD ANIMAL CLINIC,3047389117,RR 1 BOX 1E,"WILEY FORD, WV 26767"
3047906033,MOBILE VET,3047906033,2551 RUSSELDALE RD,"PURGITSVILLE, WV' 26852"
4349857955,COLIN J HAGAN DVM,4349857955,PO BOX 54,"RUCKERSVILLE, VA 22968"
4342423564,MOBILE VET,4342423564,20 PINE BLUFF,"RUCKERSVILLE, VA 22968"
8042240011,TWIN RIVERS VETERINARY SERVICE,8042240011,356 FERRY LANDING,"OAK GROVE, VA 22443"
3017241551,CROSSROADS ANIMAL HOSPITAL,3017241551,12500 NAVES CROSS RD NE,"CUMBERLAND, MD 21502"
4108773838,PLEASANTVILLE ANIMAL HOSPITAL,4108773838,2128 FALLSTON RD,"FALLSTON, MD 21047"
4106926171,JARRETTSVILLE VETERINARY CENTER,4106926171,3961 NORRISVILLE RD,"JARRETTSVILLE, MD 21084"
3045386017,MOUNTAINEER VETERINARIANS,3045386017,PO BOX 566,"MOOREFIELD, WV 26836"
7174283902,SEVEN VALLEYS VET HOSPITAL,7174283902,4094 GROTHEY RD,"SEVEN VALLEYS, PA 17360"
4349857924,RUCKERSVILLE ANIMAL HOSPITAL,4349857924,8301 SEMINOLE TRL,"RUCKERSVILLE, VA 22968"
5408327703,GORDONSVILLE VETERINARY HOSP,5408327703,102 E GORDON AVE,"GORDONSVILLE, VA 22942"
4109379463,HARFORD MOBILE VET SERVICES,4109379463,"FALLSTON, MD 21047",4109379463
7172357887,VCA OLD TRAIL ANIMAL HOSPITAL,7172357887,84 THEATRE RD,"GLEN ROCK, PA 17327"
7178804240,MOBILE VET,7178804240,8805 HIDDEN VALLEY RD,"SEVEN VALLEY, PA 17360"
5408325360,KESWICK EQUINE CLINIC,5408325360,201 TAYLOR ST,"GORDONSVILLE, VA 22942"
3076901918,EQUINE SPORTS MED SURGERY,3076901918,PO BOX 39,"CLEMENTS, MD 20624"
4108771727,FALLSTON VETERINARY CLINIC,4108771727,2615 BEL AIR RD,"FALLSTON, MD 21047"
7176099863,MID STATE PET HEALTH,7176099863,243 SHADY RD,"NEWBURG, PA 17240"
2409794761,NORTH BRANCH ANIMAL HOSP,2409794761,13701 MCMULLEN HWY SW,"CUMBERLAND, MD 21502"
7179932155,STEWARTSTOWN VET SERVICES,7179932155,2 TROUT LN,"STEWARTSTOWN, PA 17363"
5402981008,GREEN MEADOWS VET. SERVICE,5402981008,13800 SPOTSWOOD TRL,"ELKTON, VA 22827"
8598066368,HESS EQUINE VETERINARY SERVICES,8598066368,21279 S BARRENS RD,"STEWARTSTOWN, PA 17363"
7179935728,HESS EQUINE VETERINARY SERVICES,7179935728,21279 BARRENS RD S,"STEWARTSTOWN, PA 17363"
4439106095,UNLIMITED DEVOTION AT HOME VETERINARY SERVICES,4439106095,"JOPPA, MD 21085",4439106095
4437173726,CREEKSIDE EQUINE VETERINARY SVS,4437173726,1591 JARRETTSVILLE RD,"JARRETTSVILLE, MD 21084"
4106437888,BAY AREA VETERINARY HOSPITAL,4106437888,1520 POSTAL RD,"CHESTER, MD 21619"
3045307224,SOUTH BRANCH ANIMAL HOSPITAL,3045307224,5201 US HIGHWAY 220 S,"MOOREFIELD, WV 26836"
4106762525,ANIMAL CARE CENTER & PET RESORT,4106762525,800 PULASKI HWY,"JOPPA, MD 21085"
3017225881,WESTERN-MARYLAND ANIMAL HOSP,3017225881,11024 OLD MOUNT SAVAGE RD NW,"CUMBERLAND, MD 21502"
8044485151,LADYSMITH-VETERINARY HOSPITAL,8044485151,17298 JEFFERSON DAVIS HWY,"RUTHER GLEN, VA 22546"
3017773252,POTOMAC ANIMAL HOSPITAL,3017773252,13000 WINCHESTER RD SW,"CUMBERLAND, MD 21502"
7177929278,ANIMAL HOSPITAL OF WEST YORK,7177929278,3985 W MARKET ST,"YORK, PA 17404"
4349900491,PREDDY CREEK ANIMAL CLINIC,4349900491,5918 SEMINOLE TRIAL,"BARBOURSVILLE, VA 22923"
3017296084,LAVALE VETERINARY HOSPITAL,3017296084,913 NATIONAL HWY FRNT,"CUMBERLAND, MD 21502"
4106433101,CHESAPEAKE-VETERINARY HOSPITAL,4106433101,102 COUNTRY DAY RD,"CHESTER, MD 21619"
4104207297,ANIMAL EMERGENCY,4104207297,807 BEL AIR RD,"BEL AIR, MD 21014"
4106397084,KENT COUNTY VETERINARY SVC,4106397084,20909 HUMPHREYS POINT RD,"ROCK HALL, MD 21661"
3017864659,HI-ROCK ANIMAL HOSPITAL,3017864659,23842 MCMULLEN HWY SW,"RAWLINGS, MD 21557"
3047887868,FRED R ADAMS DVM,3047887868,2522 JAKE STAGGERS RD,"KEYSER, WV 26726"
4106389832,BANFIELD - BEL AIR,4106389832,602 BOULTON ST,"BEL AIR, MD 21014"
4106767800,EDGEWOOD~VETERINARY HOSPITAL,4106767800,2007 PULASKI HWY,"EDGEWOOD, MD 21040"
4105304871,JUDITH SIMPSON DVM,4105304871,1920 HANSON RD,"EDGEWOOD, MD 21040"
4108386960,ROCK SPRING VETERINARY CLINIC,4108386960,1905 ROCKSPRING RD,"FOREST HILL, MD 21050"
4108366960,ROCKS SPRING ANIMAL HOSPITAL,4108366960,1905 ROCK SPRING ROAD,"FOREST HILL, MD"
4105692001,BANFIELD - ABINGDON,4105692001,412 CONSTANT FRIENDSHIP BLVD,"ABINGDON, MD 21009"
4105698947,PETSMART BANFIELD,4105698947,412 CONSTANT FRIENDSHIP BLV,"ABINGDON, MD 21009"
8046335958,CAROLINE/BOWLING GREEN ANIMAL,8046335958,17435 RICHMOND TPKE,"MILFORD, VA 22514"
4108384900,BEL AIR-VETERINARY HOSPITAL,4108384900,1501 S TOLLGATE RD,"BEL AIR, MD 21015"
4349759932,MOBILE VET,4349759932,2094 LONI CERA WAY,"CHARLOTTSVILLE, VA 22911"
5409671404,CENTRAL VA VETERINARY CLINIC,5409671404,21084 LOUISA RD,"LOUISA, VA 23093"
5409672974,LOUISA VETERINARY SERVICE,5409672974,PO BOX 492,"LOUISA, VA 23093"
7177922531,INGOLD VETERINARY HOSPITAL,7177922531,2200 W MARKET ST,"YORK, PA 17404"
4104206555,ANIMAL MEDICAL CENTER OF BEL AIR,4104206555,142 N BOND ST,"BEL AIR, MD 21014"
3047886602,MOUNTAINVIEW VETERINARY SERVICE,3047886602,90 SOUTHERN DR,"KEYSER, WV 26726"
7174675757,CUMBERLAND VALLEY EQUINE SERVICE,7174675757,5060 HARMONY GROVE RD,"DOVER, PA 17315"
7177641400,SHILOH VETERINARY HOSPITAL WEST,7177641400,2401 EMIG MILL RD,"DOVER, PA 17315"
5409673132,ANIMAL MEDICAL CTR OF LOUISA,5409673132,4494 DAVIS HWY,"LOUISA, VA 23093"
7178010114,SHILOH VETERINARY HOSPITAL - WEST,7178010114,2401 EMING MILL RD,"DOVER, PA 17315"
7174322513,TIMBER VIEW VET HOSPITAL,7174322513,106 WEST CABIN HOLLOW RD,"DILLSBURG, PA 17019"
4436179836,HOMEWARD BOUND MOBILE VETERINARY SERVICES,4436179836,PO BOX 754,"BEL AIR, MD 21014"
8327468836,KYLEE WALTER,8327468836,1973 ESTHER CT,"FOREST HILL, MD 21050"
4105697387,FESTIVAL~VETERINARY CLINIC,4105697387,5 BEL AIR SOUTH PKWY # 1433,"BEL AIR, MD 21015"
4104200535,CAT SENSE FELINE HOSPITAL INC,4104200535,332 S MAIN ST,"BEL AIR, MD 21014"
4105697777,ANIMAL CLINIC-HARFORD CITY,4105697777,2214 OLD EMMORTON RD,"BEL AIR, MD 21015"
4105690795,AMERICAN HOLISTIC VETERINARY,4105690795,2218 OLD EMMORTON RD,"BEL AIR, MD 21015"
7177414618,LEADER HEIGHTS ANIMAL HOSPITAL,7177414618,199 LEADERS HEIGHTS RD,"YORK, PA 17402"
4435128338,CHADWELL ANIMAL HOSPITAL,4435128338,3004 EMMORTON RD,"ABINGDON, MD 21009"
7176387100,DIAMOND CREEK EQUINE,7176387100,151 WARRINGTON ST,"WELLSVILLE, PA 17365"
7172929669,DOVER AREA ANIMAL HOSPITAL,7172929669,5030 CARLISLE RD,"DOVER, PA 17315"
7177411320,ANI-CARE ANIMAL HOSPITAL,7177411320,2740 S QUEEN ST,"DALLASTOEN, PA 17313"
8669301959,ANI CARE ANIMAL HOSPITAL,8669301959,2740 S QUEEN ST,"DALLASTOWN, PA 17313"
7036228130,MOBILE VET,7036228130,4710 WENGERS MILL RD,"CLIFTON, VA 22834"
4104208000,HARFORD EMERGENCY VET SVC,4104208000,526 UNDERWOOD LN,"BEL AIR, MD 21014"
8044930838,PAULINE KNOWLES DVM LLC-MOBILE VET,8044930838,9605 KINGS HWY,"MONTROSS, VA 22520"
4105695885,AMERICAN EQUINE VETERINARY SVC,4105695885,3114 HOLLY BERRY CT,"ABINGDON, MD 21009"
3014752222,BRETON EQUINE VETERINARY SERVICES,3014752222,22150 MONTEREY PL,"LEONARDTOWN, MD 20650"
8146525108,VETERINARY MEDICAL CTR,8146525108,609 HOSPITAL DR,"EVERETT, PA 15537"
4108387797,HICKORY VETERINARY HOSPITAL,4108387797,534 E JARRETTSVILLE RD,"FOREST HILL, MD 21050"
4048674081,HEALING HANDS MOBILE VET SERVICE,4048674081,3016 RIDERS TRAIL,"DECATUR, GA 30034"
4349519225,OLD DOMINION EQUINE,4349519225,6539 GORDONSVILLE RD,"KESWICK, VA 22947"
4106394080,ROCK HALL VETERINARY HOSPITAL,4106394080,6270 ROCK HALL RD,"ROCK HALL, MARYLAND 21661"
4108276005,GRASONVILLE~VETERINARY CLINIC,4108276005,305 SADDLER RD,"GRASONVILLE, MD 21638"
7177766311,FARRELL VETERINARY CLINIC,7177766311,108 CARLISLE RD,"NEWVILLE, PA 17241"
4433605069,MOBILE VET,4433605069,2609 SMALLWOOD DR,"ABINGSON, MD 21009"
3017045796,US ARMY VET,3017045796,809 KENSINGTON FARM CT,"FOREST HILL, MD 21050"
7174322453,TRI-COUNTY ANIMAL HOSPITAL,7174322453,417 RANGE END RD,"DILLSBURG, PA 17019"
4108382255,GREENBRIER VETERINARY CLINIC,4108382255,223-A BRIERHILL DR,"BEL AIR, MD 21015"
3014757808,BRETON VETERINARY HOSPITAL,3014757808,PO BOX 636,"LEONARDTOWN, MD 20650"
4108276464,SPAY NOW GRASONVILLE,4108276464,125 PULLMAN CROSSING RD.,"GRASONVILLE, MD 21638"
4173127164,MOBILE VET,4173127164,9892 WILL CREEK RD,"LINVILLE, VA 22834"
4108365335,FOUNTAIN GREEN VETERINARY CTR,4108365335,1907 N FOUNTAIN GREEN RD,"BEL AIR, MD 21015"
7174873517,YORK MOBILE PET VET,7174873517,837 SOUTH DIKE,"YORK, PA 17403"
7177675355,ANIMAL EMERGENCY CLINIC,7177675355,1640 S QUEENS ST,"YORK, PA 17403"
7172584575,BOILING SPRINGS ANIMAL HOSPITAL,7172584575,550 PARK DR,"BOILING SPRINGS, PA 17007"
7178541544,VCA CHARLES E. LONDON ANIMAL HOSPITAL,7178541544,2129 S QUEEN ST,"YORK, PA 17403"
7178120454,VCA CHARLES E LONDON ANIMAL HOSPITAL,7178120454,2129 S QUEEN ST,"YORK, PA 17403"
3016892782,HILLSIDE ANIMAL HOSPITAL,3016892782,PO BOX 31,"ECKHART MINES, MD 21528"
3014717808,MOBILE VET,3014717808,22646 CEDAR LANE CT,"LEONARDTOWN, MD 20650"
8044481905,ANIMAL CLINIC OF CAROLINE,8044481905,21539 JEFFERSON DAVIS HWY,"RUTHER GLEN, VA 22546"
4106105627,MOBILE VET,4106105627,705 WILLOW RD,"LUSBY, MD 20657"
7178455669,COMMUNITY ANIMAL HOSPITAL,7178455669,400 S PINE ST,"YORK, PA 17403"
7174327844,CARROLL CROSSING ANIMAL,7174327844,168 OLD YORK RD,"DILLSBURG, PA 17019"
7173590252,MASON-DIXON EQUINE ASSOCIATES,7173590252,17 S QUEEN ST # 6,"LITTLESTOWN, PA 17340"
5404346331,HARRISONBURG-ANIMAL HOSPITAL,5404346331,1611 N LIBERTY ST,"HARRISONBURG, VA 22802"
7172469081,LIC# BV008536L ST. OF PA.,7172469081,PO BOX 170,"FELTON, PA 17322"
4349641288,AIRPORT ANIMAL CLINIC,4349641288,3510 SEMINOLE TRL,"CHARLOTTESVILLE, VA 22911"
5404371980,ANICIRA VETERINARY CENTER,5404371980,1992 MEDICAL AVE,"HARRISONBURG, VA 22801"
7174223270,HIGHLAND VETERINARY SERVICES,7174223270,PO BOX 302,"BOILING SPRINGS, PA 17007"
4349739699,EARLYSVILLE ANIMAL HOSPITAL,4349739699,505 SAINT FRANCIS AVE,"EARLYSVILLE, VA 22936"
4349733519,VETERINARY EMERGENCY TREATMENT,4349733519,1540 AIRPORT RD,"CHARLOTTESVILLE, VA 22911"
4349756006,FOREST LAKES VETERINARY CLINIC,4349756006,3440 SEMINOLE TRL,"CHARLOTTESVILLE, VA 22911"
7178436060,HILL STREET VET-HOSPITAL,7178436060,555 HILL ST,"YORK, PA 17403"
7175014800,CAPE HORN VETERINARY ASSOCIATES,7175014800,613 LOMBARD RD,"RED LION, PA 17356"
6107619002,DVEC,6107619002,"FAWN GROVE, PA 17321",6107619002
5408523291,GERMANY RIVER VETERINARY CLINIC,5408523291,23730 GERMAN RIVER RD,"GRIDERS, VA 22820"
8146238175,OLDE BEDFORD VETERINARY CLINIC,8146238175,112 S BEDFORD ST,"BEDFORD, PA 15522"
4349750085,BANFIELD - CHARLOTTESVILLE,4349750085,101 COMMUNITY ST,"CHARLOTTESVILLE, VA 22911"
7172463092,HESTON VETERINARY MEDICAL CTR,7172463092,780 LOMBARD RD,"RED LION, PA 17356"
7178486213,MOBILE VET,7178486213,2260 N SUSQUEHANNA TRL,"YORK, PA 17404"
5409082367,MASSANUTTEN ANIMAL CLINIC,5409082367,2702 SPOTSWOOD TRL,"ROCKINGHAM, VA 22801"
5404342364,MASSANUTTEN ANIMAL CLINIC,5404342364,2702 SPOTSWOOD TRIAL,"HARRISONBURG, VA 22801"
7174627141,DR. SARAH MOSER VMD,7174627141,11 CREAMERY RD,"BOILING SPRIINGS, PA 17007"
5206032526,SOPHIA JOSEPHINE LEONE VMD,5206032526,"CARLISLE, PA 17013",5206032526
5404340900,HARRISONBURG VETERINARY EMERGENCY CLINIC,5404340900,1950-B DEYERLE AVE,"HARRISONBURG, VA 22801"
4054127876,CHARLES STILLION DVM,4054127876,43612 WILDIRIS ST,"CALIFORNIA, MD 20619"
4107346262,CRESWELL VETERINARY CLINIC,4107346262,2605 CRESWELL RD,"BEL AIRE, MD 21015"
7172430087,ALLEN ROAD VETERINARY CLINIC,7172430087,1909 RITNER HWY,"CARLISLE, PA 17013"
7172400700,HOLLY PIKE ANIMAL HOSPTIAL,7172400700,1243 HOLLY PIKE,"CARLISLE, PA 17013"
5404338387,VALLEY VETERINARY HOSPITAL,5404338387,498 UNIVERSITY BLVD STE A,"HARRISONBURG, VA 22801"
3013738633,VCA THREE NOTCH VETERINARY HOSPITAL,3013738633,44215 AIRPORT VIEW DR,"HOLLYWOOD, MD 20636"
7172497771,CUMBERLAND VALLEY EQUINE SVC,7172497771,"845 N US HWY RT 15, SUITE B","PILLSBURY, PA 17019"
6109704173,AFFORDABLE SPAY NEUTER CLINIC,6109704173,1486 S HANOVER ST#2,"POTTSTOWN, PA 19465"
7172463611,PATTON VETERINARY HOSPITAL,7172463611,425 E BROADWAY,"RED LION, PA 17356"
4107455275,ALL PETS VETERINARY HOSPITAL,4107455275,915 S TALBOT ST,"ST MICHAELS, MD 21663"
3042574291,MILL CREEK ANIMAL HOSPITAL,3042574291,HC 33 BOX 680,"PETERSBURG, WV 26847"
4349737947,BLUE RIDGE EQUINE CLINIC,4349737947,4510 MOCKERNUT LN,"EARLYSVILLE, VA 22936"
8146231888,BRACKEN RIDGE VETERINARY MED DOCTOR,8146231888,3518 BUSINESS 220,"BEDFORD, PA 15522"
5409085174,ADRIANA VOORS DVM,5409085174,"HARRISBURG, VA 22801",5409085174
7174327031,DILLSBURG VETERINARY CTR,7174327031,8 TRISTAN DR # 1,"DILLSBURG, PA 17019"
7178401025,EAST YORK VETERINARY CTR,7178401025,1997 INDUSTRIAL HWY,"YORK, PA 17402"
7178853253,YORK VETERINARY HOUSECALLS,7178853253,"YORK, PA 17402",7178853253
7177646109,YORK COUNTY SPCA,7177646109,3159 N SUSQUEHANNA TRL,"YORK, PA 17406"
4103990344,CAMBRIA VETERINARY CENTER,4103990344,2756 WHITEFORD RD,"WHITEFORD, MD 21160"
5404343903,HEARTLAND VETERINARY CLINIC,5404343903,979 S HIGH ST,"HARRISONBURG, VA 22801"
4104906092,"QUEEN ANNE'S VETERINARY CLINIC",4104906092,201 CLAY DR,"QUEENSTOWN, MD 21658"
7172497272,HILLMOUNT ANIMAL HOSPITAL,7172497272,31 WESTMINSTER DR,"CARLISLE, PA 17013"
4108276776,QUEENSTOWN VETERINARY HOSPITAL,4108276776,105 4H PARK RD,"QUEENSTOWN, MD 21658"
5404421014,STONE SPRING VETERINARY SERVICE,5404421014,10673 GRAPEVINE LN,"DAYTON, VA 22821"
4104525801,WHITEFORD ANIMAL CLINIC,4104525801,2424 WHITEFORD RD #4,"WHITEFORD, MD 21160"
4108380085,CHURCHVILLE VETERINARY CLINIC,4108380085,2828 CHURCHVILLE RD,"CHURCHVILLE, MD 21028"
4105382855,CHURCHVILLE VETERINARY CLINIC,4105382855,2828 CHURCHVILLE ROAD,"CHURCHVILLE, MD 21028"
7177554935,YORKSHIRE ANIMAL HOSPITAL,7177554935,3434 E MARKET ST,"YORK, PA 17402"
7178621115,MUDDY CREEK VETERINARY SVC,7178621115,413 RIDGE RD,"FAWN GROVE, PA 17321"
7179912760,YCSPCA CLINIC,7179912760,194 PARK DR,"DOVER, PA 17315"
7172438706,KINDREDSPIRIT VETERINARY HOSPITAL,7172438706,1556 W TRINDLE RD,"CARLISLE, PA 17015"
4434802099,MOBILE VET,4434802099,"CHESTERTOWN, MD 21620",4434802099
7177670180,SHILOH VETERINARY HOSPITAL EAST,7177670180,110 MORGAN LN,"YORK, PA 17406"
4108385842,ANIMAL CLINIC-WHITEFORD,4108385842,2605 WHITEFORD RD,"WHITEFORD, MD 21160"
7172493313,NORTHSIDE VETERINARY CLINIC,7172493313,31 E ST,"CARLISLE, PA 17013"
4103264300,SOLOMONS VETERINARY CLINIC,4103264300,13872 SOLOMONS ISLAND ROAD,"SOLOMONS, MD 20688"
7172454168,CARLISLE BARACKS VET SVC,7172454168,627 A RIGHT AVE,"CARLISLE, PA 17013"
4349643310,CHARLOTTESVILLE ALBEMARLE SPCA,4349643310,3355 BERKMAR DR,"CHARLOTTESVILLE, VA 22901"
4349735959,CHARLOTTESVILLE-ALBEMARLE SPCA,4349735959,3355 BERKMAR DR,"CHARLOTTESVILLE, VA 22901"
4103949117,SOLOMONS VETERINARY MEDICAL CENTER,4103949117,PO BOX 887,"SOLOMONS, MD 20688"
5404330430,ASHBY HERD HEALTH SVC INC,5404330430,2420 GRACE CHAPEL RD,"HARRISONBURG, VA 22801"
5404339174,ASHBY ANIMAL CLINIC-INC,5404339174,1685 GARBERS CHURCH RD,"HARRISONBURG, VA 22801"
4349752287,CHARLOTTESVILLE CAT CARE CLINIC,4349752287,1901 SEMINOLE TRL,"CHARLOTTESVLE, VA 22901"
5408321751,CROSSROADS ANIMAL HOSPITAL,5408321751,65 JEFFERSON CT,"GORDONSVILLE, VA 22942"
5402884683,CROSSROADS ANIMAL HOSPITAL,5402884683,65 JEFFERSON COURT,"GORDONSVILLE, VA 22942"
4344667890,INTEGRATED VETERINARY SPECIALIST,4344667890,716 WOLF TRAP RD,"CHARLOTTESVILLE, VA 22911"
3014755777,VET A PET,3014755777,43200 BELVIDERE FARM RD,"LEONARDTOWN, MD 20650"
7176976747,COUNTRYSIDE ANIMAL CLINIC,7176976747,137 S LEWISBERRY RD,"MECHANICSBURG, PA 17055"
5202991146,VENTANA ANIMAL HOSPITAL,5202991146,6866 E SUNRISE DR # 150,"TUCSON, AZ 85750"
4349735331,CHARLOTTESVILLE-ANIMAL HOSP,4349735331,865 RIO EAST COURT,"CHARLOTTESVILLE, VA 22901"
4349734341,CHARLOTTESVILLE VETERINARY HOSPITAL,4349734341,865 RIO EAST CT,"CHARLOTTESVLE, VA 22901"
7172493809,COUNTRY-AIRE KENNELS,7172493809,240 SHADY LN,"CARLISLE, PA 17013"
4108361660,EQUINE PRACTICE & CLINIC,4108361660,3964 PROSPECT RD,"STREET, MD 21154"
5408793833,DAYTON ANIMAL CLINIC,5408793833,1738 SILVER LAKE RD,"DAYTON, VA 22821"
5408792581,DAYTON VETERINARY SERVICE,5408792581,1736 SILVER LAKE RD,"DAYTON, VA 22821"
7177932312,HALLAM ANIMAL HOSPITAL,7177932312,4322 LINCOLN HWY,"YORK, PA 17406"
7172432717,CARLISLE SMALL ANIMAL CLINIC,7172432717,25 SHADY LN,"CARLISLE, PA 17013"
7172493500,CARLISLE EQUINE CLINIC,7172493500,25 SHADY LN,"CARLISLE, PA 17013"
4107082608,THE VISITING VETERINARIAN,4107082608,12501 COOPER LANE,"WORTON, MD 21678"
3019179274,"WAG N'WASH",3019179274,22598 MACARTHUR BLVD,"CALIFORNIA, MD 20619"
4349736146,ALBEMARLE VETERINARY HEALTH CARE CENTER,4349736146,445 WESTFIELD RD,"CHARLOTTESVILLE, VA 22901"
7172667268,ANIMAL CLINIC OF MANCHESTER,7172667268,34 N MAIN ST,"MANCHESTER, PA 17345"
4342021616,GREENBRIER EMERGENCY ANIMAL HOSPITAL,4342021616,370 GREENBRIER DR SUTE A-2,"CHARLOTTESVILLE, VA 22901"
4342022987,VIRGINIA VETERINARY SPEACIALISTSTES,4342022987,370 GREENBRIER DR #B,"CHARLOTTEVILLE, VA 22901"
4349793960,COUNTRY-SIDE VET SER,4349793960,PO BOX 198,"KESWICK, VA 22947"
7605540031,APG VETERINARY CLINIC,7605540031,728 SOUTH PHILLADELPHIA BLVD,"ABEEDEEN, MD 21001"
4102728656,FRIENDLY PAWS VET CLINIC,4102728656,957 SUITE I BEARDS HILL RD,"ABERDEEN, MD 21001"
7176208103,GETTYSBURG PIKE ANIMAL CLINIC,7176208103,41 GETTYSBURG PIKE,"MECHANICSBURG, PA 17055"
4349536034,JAMES RIVER EQUINE SERVICES,4349536034,1719 YORKTOWN DR,"CHARLOTTESVILLE, VA 22901"
8453621240,RAMAPO ANIMAL CLINIC,8453621240,1581 ROUTE 202 STE 126,"POMONA, NY 10970"
7176974481,WINDING HILL VETERINARY CLINIC,7176974481,1424 S MARKET ST,"MECHANICSBURG, PA 17055"
7178395899,WINDING HILL VETERINARY CLINIC,7178395899,1424 SOUTH MARKET ST,"MECHANICSBURG, PA 17055"
7177665221,WEBER VETERINARY CLINIC,7177665221,615 WILLIAMS GROVE RD,"MECHANICSBURG, PA 17055"
3018625797,HOME CALL VETERINARY SVC,3018625797,BRADLEY FARM LN,"LEXINGTON PARK, MD 20653"
3019949919,ALL KINDS VETERINARY HOSPITAL,3019949919,20865 CALLAWAY VILLAGE WAY UNIT 4,"CALLAWAY, MD 20620"
4349719800,AUTUMN TRAILS VET CENTER,4349719800,2407 HYDRAULIC RD,"CHARLOTTESVILLE, VA 22901"
5403256640,SUSAN MILLER DVM,5403256640,155 HOWARD RICK LANE,"JACKSON, VA 22842"
4102720655,ABERDEEN VETERINARY CLINIC,4102720655,728 S PHILADELPHIA BLVD,"ABERDEEN, MD 21001"
4107782188,HIGH STREET VETERINARY PRACTICE,4107782188,841 HIGH ST,"CHESTERTOWN, MD 21620"
3018622441,"VCA ST MARY'S ANIMAL HOSPITAL",3018622441,22261 THREE NOTCH RD,"LEXINGTON PARK, MD 20653"
4349774600,GEORGETOWN VETERINARY HOSPITAL,4349774600,200 GEORGETOWN WAY,"CHARLOTTESVLE, VA 22901"
7174483976,MOBILE VET,7174483976,409 W SIMPSON ST.,"MECHANICSBURG, PA 17055"
4108277788,MID-ATLANTIC CAT HOSPITAL,4108277788,201 GRANGE HALL RD,"QUEENSTOWN, MD 21658"
4349731500,PANTOPS VETERINARIAN HOSPITAL,4349731500,315 WINDING RIVER LANE STE 101,"CHARLOTTESVILLE, VA 22911"
4342958757,ANIMAL MEDICAL CENTER OF CHARLOTTESVILLE,4342958757,388 PANTOPS CTR,"CHARLOTTESVLE, VA 22911"
4107580738,TOWN-& COUNTRY ANIMAL HOSPITAL,4107580738,PO BOX 176,"CENTREVILLE, MD 21617"
4107581535,MOBILE VET,4107581535,PO BOX 36,"CENTERVILLE, MD 21617"
4432625467,SHORE LARGE ANIMAL VETERINARY SERVICES LLC,4432625467,PO BOX 223,"CENTERVILLE, MD 21617"
3018639222,VCA PARK VETERINARY CLINIC,3018639222,21367 GREAT MILLS RD,"LEXINGTON PARK, MD 20653"
4108775022,HOUSE CALL VETERINARIAN,4108775022,3939 PADDRICK RD,"DARLINGTON, MD 21034"
4435128100,PET CALLS MOBILE VET,4435128100,3939 PADDRICK ROAD,"DARLINGTON, MD 21034"
4102784604,APG VETERINARY TREATMENT FACILITY,4102784604,2479 OAKINGTON ST,"ABERDEEN PROVING GROUND, MD 21005"
3018660303,WELL PET CLINIC,3018660303,21800 N SHANGRI LA DR # 16,"LEXINGTON PARK, MD 20653"
4349713500,OLD DOMINION ANIMAL HOSPITAL OF CHARLOTTESVILLE,4349713500,811 PRESTON AVE,"CHARLOTTESVILLE, VA 22903"
7179388944,VALLEY GREEN VETERINARY HOSPITAL,7179388944,1565 POTTS HILL RD,"ETTERS, PA 17319"
7179381015,NEWBERRY ANIMAL HEALTH CARE CENTER,7179381015,112 NEWBERRY PKWY,"ETTERS, PA 17319"
5402464055,STONE SPRING VETERINARY CLINIC,5402464055,10673 GRAPEVINE LN,"DAYTON, VA 22821"
7176976856,MECHANICSBURG VETERINARY CLNC,7176976856,5244 E TRINDLE RD,"MECHANICSBURG, PA 17050"
4342958387,ANIMAL HOSPITAL OF IVY SQUARE,4342958387,2125 IVY RD STE 2,"CHARLOTTESVLE, VA 22903"
7174629480,HEALING PAWS VETERINARY CARE,7174629480,950 WALNUT BOTTOM RD #15,"CARLISLE, PA 17015"
9738510391,CHESAPEAKE LARGE ANIMAL SERVICE,9738510391,205 PRINCESS ANNE DR,"CHESTERTOWN, MD 21620"
5408282724,COPPER RIDGE ANIMAL HOSPITAL,5408282724,840 DINKEL AVE,"MT CRAWFORD, VA 22841"
4107637900,CAT HOSPITAL EASTERN SHORE,4107637900,12551 OCEAN GTWY,"CORDOVA, MD 21625"
4349245058,S. FELDMAN DVM,4349245058,415 LANE RD,"CHARLOTTESVILLE, VA 22908"
4107782455,CHESTERTOWN ANIMAL HOSPITAL,4107782455,10530 AUGUSTINE HERMAN HWY,"CHESTERTOWN, MD 21620"
4109399500,SWAN CREEK VERTERINARY CLINIC,4109399500,2015-A PULASKY HWY,"HAVRE DE GRACE, MD 21078"
4109429036,SWAN CREEK VETERINARY CLINIC,4109429036,2015 PULASKI HWY STE A,"HAVRE DE GRACE, MD 21078"
4108228505,VETERINARY-MEDICAL CTR,4108228505,28966 INFORMATION LN,"EASTON, MD 21601"
4125964561,RELIEF VET,4125964561,9 CARRIAGE RD,"NEW CUMBERLAND, PA"
7177962334,ROSSMOYNE ANIMAL ER & TRAUMA CENTER,7177962334,4930 RITTER ROAD SUITE 101,"MECHANICSBURG, PA 17055"
7177667981,VCA WILLOW MILL VETERINARY HOSPITAL,7177667981,11 WILLOW MILL PARK RD,"MECHANICSBURG, PA 17050"
7177665980,SILVER SPRINGS ANIMAL CLINIC,7177665980,5 SAMPLE BRIDGE RD,"MECHANICSBURG, PA 17050"
4107781200,EASTERN SHORE ANIMAL HOSPITAL,4107781200,6327 CHURCH HILL RD,"CHESTERTOWN, MD 21620"
7177958288,BANFIELD-MECHANICSBURG,7177958288,5900 CARLISLE PIKE,"MECHANICSBURG, PA 17050"
7177665535,GOOD HOPE ANIMAL HOSPITAL,7177665535,6108 CARLISLE PIKE STE 120,"MECHANICSBURG, PA 17050"
4108222282,EASTON VETERINARY CLINIC & REHAB,4108222282,8942 CENTREVILLE RD,"EASTON, MD 21601"
4108224475,COMMUNITY ANIMAL HOSPITAL,4108224475,9679 OCEAN GTWY,"EASTON, MD 21601"
4052696139,SASSAFRAS RIVER VETERINARY SERVICES,4052696139,2 KENNEDYVILLE,"STILL POND, MD 21667"
8045372450,ANIMAL & EXOTIC VETERINARY SERVICES,8045372450,PO BOX 395,"MONTPELIER, VA 23192"
4108204286,PET HEALTH CLINIC,4108204286,419 E DOVER ST,"EASTON, MD 21601"
4108222922,ANIMAL CLINIC OF TALBOT,4108222922,417 GOLDSBOROUGH ST,"EASTON, MD 21601"
4349793644,MONTICELLO ANIMAL HOSPITAL,4349793644,1193 5TH ST SW,"CHARLOTTESVILLE, VA 22902"
5403963005,STONEWALL VETERINARY SERVICES,5403963005,2597 AIRPORT RD,"BRIDGEWATER, VA 22812"
7177303755,AVIAN & FELINE HOSPITAL,7177303755,3300 HARTZDALE DR # 108,"CAMP HILL, PA 17011"
8048835511,MONTPELIER VETERINARY HOSPITAL,8048835511,16752 MOUNTAIN RD,"MONTPELIER, VA 23192"
7177740685,VCA WEST SHORE ANIMAL HOSPITAL,7177740685,719 LIMEKILN RD,"NEW CUMBERLAND, PA 17070"
4108209229,MIDSHORE VETERINARY SVC,4108209229,602 DUTCHMANS LN,"EASTON, MD 21601"
4343282685,WILLOW RIVER VETERINARY SERVICES,4343282685,32 MILL CREEK DR SUITE 100,"CHARLOTTESVILLE, VA 22902"
7177378669,CAMP HILL ANIMAL HOSPITAL,7177378669,3804 MARKET ST,"CAMP HILL, PA 17011"
4104636451,EAST COAST VETS,4104636451,29315 DOVER RD,"EASTON, MD 21613"
7178722825,HARBORWOODS INTEGRATIVE VETERINARY CARE,7178722825,109 OAK RD,"CONESTOGA, PA 17516"
7178760117,HABORWOODS INTERGRATED VETERINARY CARE,7178760117,109 OAK RD,"CONESTOGA, PA 17516"
7179759711,LOWER ALLEN VETERINARY CLINIC,7179759711,943 KRANZEL DR,"CAMP HILL, PA 17011"
4108292999,CHESAPEAKE VETERINARY HOUSECALLS,4108292999,29201 PIN OAK WAY,"EASTON, MD 21601"
4342825181,SAGE VETERINARY SERVICES,4342825181,963 KELSEY DR,"CHARLOTTESVILLE, VA 22903"
8048835822,ROBERT H FRANCK DVM,8048835822,16033 HATCH THOMPSON RD,"MONTPELIER, VA 23192"
5402348003,MAPLE LANE VETERINARY CLINIC,5402348003,54 FADLEY RD,"WEYERS CAVE, VA 24486"
8146341772,MASON DIXON VETERINARY CLINIC,8146341772,7052 MASON DIXON HWY # 2,"MEYERSDALE, PA 15552"
8146348514,WAYNE L MILLER-DVM,8146348514,212 SALISBURY ST,"MEYERSDALE, PA 15552"
5408178035,KRISTIN FILSETH,5408178035,66-0 GILLUMS RIDGE RD,"CHARLOTTESVILLE, VA 22923"
8147932313,DAIRYSIDE VETERINARY SERVICE,8147932313,65 PENNSYLVANIA 866,"CURRYVILLE, PA 16631"
7177329711,LAMBS GAP ANIMAL HOSPITAL,7177329711,1806 LAMBS GAP RD,"MECHANICSBURG, PA 17050"
8046901589,MOBILE VET,8046901589,14591 MILL CREEK DR,"MONTPELIER, VA 23192"
7176295425,NANCY WINNING DVM,7176295425,"HOLTWOOD, PA 17532",7176295425
2407188387,FOX MILL VET,2407188387,123 MAIN ST,"UPPERBETHESDA, MD 20814"
4348234300,OLD DOMINION ANIMAL HOSPITAL OF CROZET,4348234300,1263 PARKVIEW DR,"CROZET, VA 22932"
7175758548,MOBILE VET,7175758548,837 LETORT RD,"WASHINGTON BORO, PA 17582"
7177893121,TRI-COUNTY VETERINARY SVC,7177893121,1041 MONTOUR RD,"LOYSVILLE, PA 17047"
7176892339,CAMPION ANIMAL CLINIC,7176892339,601 S 16TH ST,"COLUMBIA, PA 17512"
8147934397,COVE VETERINARY SVC,8147934397,PO BOX 96,"CURRYVILLE, PA 16631"
7177893913,ANIMAL CLINIC,7177893913,3365 SHERMANS VALLEY RD.,"LOYSVILLE, PA 17047"
7175823730,HOME VET SERVICE,7175823730,158 GLATFELTER LANE,"ELLIOTTSBERG, PA 17024"
8043370016,F6 RANCH,8043370016,87 POPLAR HILL DR,"BUMPASS, VA 23024"
7176842285,COLUMBIA ANIMAL HOSPITAL,7176842285,4081 COLUMBIA AVE,"COLUMBIA, PA 17512"
7175593800,VALLEY ROAD ANIMAL HOSPITAL,7175593800,4470 VALLEY RD,"ENOLA, PA 17025"
4344656633,MOBILE VET,4344656633,"GROZET, VA 22932",4344656633
4348238883,ANIMAL WELLNESS CENTER,4348238883,1100 CROZET AVE,"CROZET, VA 22932"
7176512969,MOBILE VET,7176512969,"HARRISBURG, PA 17106",7176512969
8044432878,TAPPAHANNOCK VETERINARY HOSP,8044432878,PO BOX 39,"TAPPAHANNOCK, VA 22560"
5404805600,BAR W EQUINE,5404805600,1477 BRIDGE ROAD,"BRIDGE WATER, VA 22812"
7175482255,WAKEFIELD ANIMAL HOSPITAL,7175482255,166 PILOTTOWN RD,"PEACH BOTTOM, PA 17563"
3018953109,CASSELMAN VETERINARY SVC,3018953109,PO BOX 60,"GRANTSVILLE, MD 21536"
8145422385,ALLEGHENY VETERINARY HOSPITAL,8145422385,110 N JEFFERSON ST,"MT UNION, PA 17066"
7173677156,ELIZABETHTOWN AREA ANIMAL HOSP,7173677156,1096 W BAINBRIDGE ST,"ELIZABETHTOWN, PA 17022"
8043333433,WARSAW ANIMAL CLINIC,8043333433,4398 RICHMOND RD,"WARSAW, VA 22572"
4106426396,ALL PAWS,4106426396,1098 PRINCIPIO FURNACE RD,"PERRYVILLE, MD 21903"
4106429255,POST ROAD VETERINARY CLINIC,4106429255,1098 PRINCIPIO FURNACE RD,"PERRYVILLE, MD 21903"
7178728920,RIVER HILLS VETERINARIAN HISPITAL,7178728920,326 STONE HILL RD,"CONESTOGA, PA 17516"
8142245133,AT HOME VETERINARIAN CARE,8142245133,288 EVERGREEN LN,"ROARING SPRING, PA 16673"
7179573991,ANIMAL HOSPITAL OF RYE,7179573991,2875 VALLEY RD,"MARYSVILLE, PA 17053"
5402266755,LARRY WITTER DVM,5402266755,"WARSAW, VA 22572",5402266755
4349964445,CLINIC VET,4349964445,709 OAK HILL LANE,"PALMYRA, VA 22963"
7179445863,LONDONDERRY ANIMAL HOSPITAL,7179445863,2164 E HARRISBURG PIKE,"MIDDLETOWN, PA 17057"
7177321121,EAST PENNSBORO ANIMAL CLINIC,7177321121,103 E SHADY LN,"ENOLA, PA 17025"
8147939226,MOBILE VET,8147939226,468 HARLEY LANE,"MARTINSBURG, PA 16662"
7179173249,DEBORAH LANDIS DVM,7179173249,670 SWATARA CREEK RD,"MIDDLETOWN, PA 17057"
4435533510,MOBILE VET,4435533510,532 FIRETOWER RD,"COLORA, MD 21917"
7175644470,DERRY ANIMAL HOSPITAL,7175644470,3761 DERRY ST,"HARRISBURG, PA 17111"
8557388227,AFFORDABLE PET VACCINES INC,8557388227,3350 MACARTHUR RD,"WHITEHALL, PA 18052"
8043176021,LARRY WINTERS DVM,8043176021,401 COLLEGE AVE,"ASHLAND, VA 23005"
8047983281,WOODSIDE EQUINE CLINIC,8047983281,PO BOX 989,"ASHLAND, VA 23005"
8047988169,ASHLAND VETERINARY HOSPITAL,8047988169,PO BOX 205,"ASHLAND, VA 23005"
4106585709,BASIN RUN ANIMAL HOSPITAL,4106585709,572 FIRETOWER RD,"COLORA, MD 21917"
7176843870,ST FRANCIS ANIMAL HOSPITAL,7176843870,3935 CONCORDIA RD,"COLUMBIA, PA 17512"
4102210444,CHOPTANK ANIMAL HOSPITAL,4102210444,430 DORCHESTER AVE,"CAMBRIDGE, MD 21613"
4108202058,TUCKAHOE ANIMAL CLINIC,4108202058,PO BOX 37,"HILLSBORO, MD 21641"
7173617665,COMPANION ANIMAL HOSPITAL,7173617665,2034 W MAIN ST,"MOUNT JOY, PA 17552"
5409435731,KITTY WIELANDT DVM,5409435731,2 CRYSTAL LANE,"WAYNESBORO, VA 22980"
7176539396,DONEGAL ANIMAL HOSPITAL,7176539396,366 S MARKET AVE,"MT JOY, PA 17552"
8047527729,JESSICA BEATH CLINIC AT FARRINGTON FIREHOUSE,8047527729,12300 FARRINGTON RD,"ASHLAND, VA 23005"
4106584269,PET WELLNESS CENTER LC,4106584269,41 HOPEWELL CT,"PORT DEPOSIT, MD 21904"
8142674411,WHITE OAK VETERINARY CLINIC,8142674411,7631 GLADES PIKE,"BERLIN, PA 15530"
7176520713,CAPITOL AREA ANIMAL MEDICAL,7176520713,6 N PROGRESS AVE,"HARRISBURG, PA 17109"
8045375434,CHENAULT VETERINARY SVC,8045375434,351 HILL CARTER PKWY,"ASHLAND, VA 23005"
7174929700,PET VET EXPRESS,7174929700,100 COLUMBIA AVE,"MT JOY, PA 17552"
7178711700,PAWS MOBILE VETERINARY CARE,7178711700,P.O. BOX 292,"MILLERSVILLE, PA 17551"
5402491233,MOBILE VET,5402491233,1399 ROMAN RD,"MOUTN SIDNEY, VA 24467"
7173670158,AWAD ANIMAL HOSPITAL,7173670158,388 HERSHEY RD,"ELIZABETHTOWN, PA 17022"
7175259522,HARRISBURG AREA ANIMAL HOSPITAL,7175259522,4010 LONDONBERRY RD,"HARRISBURG, PA 17109"
4106584356,CECIL VETERINARY CLINIC,4106584356,43 GUTMAN LN,"PORT DEPOSIT, MD 21904"
7172857946,HEMPFIELD ANIMAL HOSPITAL,7172857946,3498 MARIETTA AVE,"LANCASTER, PA 17601"
7177988500,SHORES VETERINARY ER CENTER,7177988500,835 SIR THOMAS COURT,"HARRISBURG, PA 17109"
2252526017,MELISSA CRAWFORD WHITE DVM,2252526017,247 PINE BRIDGE LN,"LANCASTER, PA 17603"
7172201661,ANIMAL BIRTH CONTROL OF HARRISBURG,7172201661,206 FIDDLERS ELBOW RD,"MIDDLETOWN, PA 17057"
6104761412,LITTLE BRITAIN VETERINARY SERVICES,6104761412,281 SLEEPY HOLLOW,"NOTTINGHAM, PA 19362"
4102281447,BAYSIDE ANIMAL HOSPITAL,4102281447,2933 OCEAN GTWY,"CAMBRIDGE, MD 21613"
7175643320,HUMANE SOCIETY OF HARRISBURG AREA,7175643320,7790 GRAYSON RD,"HARRISBURG, PA 17111"
2233227894,SUSQUEHANNA VALLEY VETERINARY CLINIC,2233227894,2235 KOHN RD,"HARRISBURG, PA 17110"
8047691530,AYLETT ANIMAL HOSPITAL INC,8047691530,8065 RICHMOND TAPPAHAMMOCK HWY,"AYLETT, VA 23009"
8124382207,MOORE VETERINARY CLINIC,8124382207,119 1/2 N WALNUT ST,"RISING SUN, IN 47040"
7173935084,MANOR ANIMAL HOSPITAL,7173935084,2100 STONE MILL RD,"LANCASTER, PA 17603"
7174905705,PAT PANTRY OF LANCASTER COUNTY,7174905705,26 MILLERSVILLE RD,"LANCASTER, PA 17603"
7179838878,PET PANTRY OF LANCASTER COUNTY,7179838878,26 MILLERSVILLE RD,"LANCASTER, PA 17603"
7175663703,HERSHIRE ANIMAL HOSPITAL,7175663703,406 MIDDLETOWN RD,"HUMMELSTOWN, PA 17036"
8142242090,COMPANION ANIMAL HOSPITAL,8142242090,1065 E MAIN ST,"ROARING SPRING, PA 16673"
4106342666,CAROLINE VETERINARY CLINIC,4106342666,9 N. CENTRAL AVE,"RIDGELY, MD 21660"
7173947713,WEST LANCASTER ANIMAL HOSPITAL,7173947713,2110 COLUMBIA AVE,"LANCASTER, PA 17603"
4734177942,MOBILE VET,4734177942,411 WALNUT ST,"GREEN COVE SPRINGS, FL 32043"
4109285700,CENTERVILLE EQUINE-KENT VETERINARY CTR,4109285700,31239 CHESTERVILLE BRIDGE RD,"MILLINGTON, MD 21651"
5402487203,MIDDLE RIVER COMPANION ANIMAL,5402487203,252 ROLLA MILL RD,"VERONA, VA 24482"
7175290526,ALWAYS HELPFUL,7175290526,305 NOTTINGHAM RD,"NOTTINGHAM, PA 19362"
7174553955,HEALING PAWS ANIMAL HOSPITAL,7174553955,3125 NOLT RD,"LANCASTER, PA 17601"
7173618700,HENDERSON VET CLINIC,7173618700,55 PROSPECT RD,"ELIZABETHTOWN, PA 17022"
7175407140,COLONIAL PARK ANIMAL CLINIC,7175407140,4905 JONESTOWN RD,"HARRISBURG, PA 17109"
7178440097,FURDUNKIN MOBILE VET,7178440097,1090 N CHARLOTTE STREET,"LANCASTER, PA 17603"
7179518180,REBECCA L CHARLES DVM,7179518180,"SALUNGA, PA 17538",7179518180
8142891996,OLD LINCOLN VETERINARY SERVICE,8142891996,1351 OLD LINCOLN HWY,"STOYSTOWN, PA 15563"
8043605545,MOBILE VET,8043605545,12409 CHADSWORTH PLACE,"GLEN ALLEN, VA 23059"
5402481051,SHENANDOAH VALLEY VET EMERGECY,5402481051,VERONA SHOPPING CTR,"VERONA, VA 24482"
7172297800,MOBILE VET,7172297800,1017 STEEPLE CHASE DR,"LANCASTER, PA 17601"
7174644755,WILLOW STREET ANIMAL HOSPITAL,7174644755,2611 WILLOW STREET PIKE N,"WILLOW STREET, PA 17584"
3043582360,FAITHFUL FRIENDS ANIMAL CLINIC,3043582360,PO BOX 1199,"FRANKLIN, WV 26807"
4342140361,FORK UNION ANIMAL CLINIC,4342140361,6690 JAMES MADISON HWY,"FORK UNION, VA 23055"
4348428387,FORK UNION ANIMAL CLINIC (No phn or fax auth),4348428387,6690 JAMES MADISON HWY,"FORK UNION, VA 23055"
7179213308,RELIEF VETERIMARY SERVICES OF CENTRAL PA,7179213308,1120 RIVERVIEW RD,"DAUPHIN, PA 17018"
5402486310,ANIMAL CLINIC OF VERONA,5402486310,373 LEE HWY,"VERONA, VA 24482"
7175720029,LANCASTER VETERINARY ASSOCIATES,7175720029,136 WEST MAIN ST,"SALUNGA, PA 17538"
7173470838,LANCASTER VETERINARY SPECIALTIES,7173470838,1861 CHARTER LANE STE 113,"LANCASTER, PA 17601"
7173938245,HAPPY TAILS ANIMAL HOSPITAL,7173938245,823 ROHRERSTOWN RD,"LANCASTER, PA 17601"
7175668294,L W SAMPLES VETERINARIAN,7175668294,117 CIRCLE DR,"HUMMELSTOWN, PA 17036"
8047845419,VIRGINIA EQUINE CLINIC,8047845419,1994 SALLOW WELL RD,"MANAKIN SABOT, VA 23103"
7178981721,LANDISVILLE ANIMAL HOSPITAL,7178981721,3035 HARRISBURG PIKE,"LANDISVILLE, PA 17538"
3013349166,COUNTRYSIDE ANIMAL HOSPITAL,3013349166,50 WEBER RD,"OAKLAND, MD 21550"
3013348393,PINEVIEW VETERINARY HOSPITAL,3013348393,85 PINEVIEW DR,"OAKLAND, MD 21550"
7175761815,MCCORKEL VETERINARY SERVICES,7175761815,"HUMMELSTOWN, PA 17036",7175761815
8636471986,HIGHLAND SQUARE VETERINARY,8636471986,2164 E STATE ROAD 540A # 5,"LAKELAND, FL 33813"
7174643424,WILLOW RUN VETERINARY CLINIC,7174643424,320 BEAVER VALLEY PIKE,"WILLOW STREET, PA 17584"
7175455803,LOCKWILLOW AVENUE ANIMAL CLNC,7175455803,27 N LOCKWILLOW AVE,"HARRISBURG, PA 17112"
7178927337,HARRISBURG PIKE ANIMAL HOSP,7178927337,2449 HARRISBURG PIKE,"LANCASTER, PA 17601"
7175318460,PENNSTATE COLLEGE OF MEDICINE - COMPARATIVE MEDICINE DEPARTMENT,7175318460,700 HMC CRESCENT RD,"HERSHEY, PA 17033"
8045565566,GOOCHLAND ANIMAL CLINIC,8045565566,2000 MAIDENS RD,"MAIDENS, VA 23102"
4102876670,ELK NECK VETERINARY CLINIC,4102876670,1657 TURKEY POINT RD,"NORTH EAST, MD 21901"
5409984210,MOBILE VET,5409984210,"NORTH GARDEN, VA 22959",5409984210
8144431323,SOMERSET VETERINARY HOSPITAL,8144431323,1322 BERLIN PLANK RD,"SOMERSET, PA 15501"
4106589911,ALL CREATURES VETERINARY SVC,4106589911,136 SYLMAR RD,"RISING SUN, MD 21911"
7177863670,QUARYVILLE HERD HEALTH ASSOCIATES,7177863670,2004 BEAVER VALLEY PIKE,"STRASBURG, PA 17579"
8043644444,POUNCEY TRACT VET HOSPITAL,8043644444,5450 POUNCEY TRACT ROAD,"GLENN ALLEN, VA 23059"
5084146204,USVA,5084146204,58 VALLEY RD,"HUMMELSTAWN, PA 17036"
8047693200,KING WILLIAM VETERINARY CLINIC,8047693200,1242 SHARON RD,"KING WILLIAM, VA 23086"
8044217422,SHADY GROVE ANIMAL CLINIC,8044217422,11399 NUCKOLS RD,"GLEN ALLEN, VA 23059"
3013877729,HART FOR ANIMAL,3013877729,1265 BUBBLE RD,"ACCIDENT RD, MD 21520"
8142518270,FAITHFUL FRIEN VET CARE,8142518270,9194 WILLIAM PENN HWY,"HUNTINGTON, PA 16652"
8045502458,ASHCAKE ANIMAL CLINIC,8045502458,9553 KINGS CHARTER DR,"ASHLAND, VA 23005"
7179212100,DAUPHIN ANIMAL HOSPITAL,7179212100,851 PETERS MOUNTAIN RD,"DAUPHIN, PA 17018"
4109434050,SNIP TUCK,4109434050,140 MAIN ST,"SECRETARY, MD 21664"
4106089652,MOBILE VETERINARIAN,4106089652,"SECRETARY, MD 21664",4106089652
7178345534,COVE MOUNTAIN ANIMAL HOSPITAL,7178345534,623 SCHOOLHOUSE RD,"DUNCANNON, PA 17020"
7177860734,JOHN WEAVER DVM,7177860734,160 STUART RUN RD,"QUARRYVILLE, PA 17566"
7179456661,METRO PET VET - DOWNTOWN,7179456661,443 N MULBERRY ST,"LANCASTER, PA 17603"
5409425163,WOODWORTH ANIMAL HOSPITAL,5409425163,2221 LYNDHURST RD,"WAYNESBORO, VA 22980"
7176657626,EDELSON EQUINE ASSOC,7176657626,2001 SONORA LN,"MANHEIM, PA 17545"
5409433081,ANIMAL HOSPITAL OF WAYNESBORO,5409433081,2637 W MAIN ST,"WAYNESBORO, VA 22980"
7175292789,DR. MARK R HODGSON DVM,7175292789,6156 STREET RD,"KIRKWOOD, PA 17536"
7177757554,ANIMAL HOSPITAL OF DAUPHIN COUNTY,7177757554,241 S HERSHEY RD,"HARRISBURG, PA 17112"
7176525923,"NOAH'S PLACE ANIMAL HOSPITAL",7176525923,6325 CHELTON AVE,"HARRISBURG, PA 17112"
4342866345,PIEDMONT VETERINARY SERVICE LLC,4342866345,PO BOX 5,"KEENE, VA 22946"
7175342244,HERSHEY VETERINARY HOSPITAL,7175342244,1016 COCOA AVE,"HERSHEY, PA 17033"
8047840040,MANAKIN-SABOT VETERINARY CLINIC,8047840040,29 BRIGGS DR,"MANAKIN SABOT, VA 23103"
7175663221,ANIMAL HOSPITAL,7175663221,10 N HANOVER ST,"HERSHEY, PA 17033"
8042563331,INFINITY EQUINE,8042563331,1903 MANAKIN RD UNIT C,"MANAKIN-SABOT, VA 23103"
7175696424,MANHEIM PIKE VETERINARY HOSPITAL,7175696424,1669 MANHEIM PIKE,"LANCASTER, PA 17601"
8045562795,THREE OAKS EQUINE,8045562795,2905 RIVER RD W,"GOOCHLAND, VA 23063"
9709634577,NATURAL VET,9709634577,1101 VILLAGE RD #ULC3,"CARBONDALE, CO 81623"
8047848722,VETERINARY REFERRAL & CRITICAL,8047848722,1596 HOCKETT RD,"MANAKIN SABOT, VA 23103"
8043600100,SHORT PUMP ANIMAL HOSPITAL,8043600100,4730 POUNCEY TRACT RD,"GLEN ALLEN, VA 23059"
7174812977,BANFIELD - LANCASTER,7174812977,1700 FRUITVILLE PIKE # K,"LANCASTER, PA 17601"
7174358035,RED ROSE PET CARE CENTER,7174358035,996 E ORANGE ST,"LANCASTER, PA 17602"
6109326576,HIGHGROVE ANIMAL HOSPITAL,6109326576,492 W CHRISTINE RD,"NOTTINGHAM, PA 19362"
8043065819,PET ACUPUNCTURE & WELLNESS SERVICE,8043065819,7558 QUAIL RUN LN,"MECHANICSVLLE, VA 23116"
5409429777,COMMONWEALTH VETERINARY CLINIC,5409429777,2356 JEFFERSON HWY,"WAYNESBORO, VA 22980"
7173433815,THE VETTING ZOO,7173433815,327 SCHOOLHOUSE RD,"PALMYRA, PA 17078"
8042660533,BANFIELD - RICHMOND N,8042660533,9870 BROOK RD,"GLEN ALLEN, VA 23059"
8042701327,VIRGINIA EQUINE CLINIC,8042701327,1540 MANAKIN RD,"MANAKIN SABOT, VA 23103"
7176877756,KELLY VETERINARY SERVICES,7176877756,16 GLENWOOD DR,"STRASBURG, PA 17579"
4109438387,CABIN CREEK ANIMAL HOSPITAL,4109438387,8 CAMBRIDGE AVE,"EAST NEW MARKET, MD 21631"
8047840595,LITTLE HAWK EQUINE,8047840595,1625 CARDWELL RD,"CROZIER, VA 23039"
7173939074,VCA BRIDGEPORT ANIMAL HOSPITAL,7173939074,1251 RANCK MILL RD,"LANCASTER, PA 17602"
8043640224,BANFIELD - SHORT PUMP,8043640224,11825 W BROAD ST,"RICHMOND, VA 23233"
5409437577,CEDARCREST ANIMAL CLINIC,5409437577,121 LADD RD,"FISHERSVILLE, VA 22939"
5409439080,TENDERCARE VETERINARY CARE,5409439080,1750 JEFFERSON HWY,"FISHERSVILLE, VA 22939"
8045543174,GLEN ALLEN ANIMAL HOSP,8045543174,10222 STAPLES MILL RD,"GLEN ALLEN, VA 23060"
8043089971,GLEN ALLEN ANIMAL HOSPITAL,8043089971,10222 STAPLES MILL RD,"GLEN ALLEN, VA 23060"
8146410190,HUNTINGDON VETERINARY SVC,8146410190,100 SPRUCE ST,"HUNTINGDON, PA 16652"
8146434403,ANIMAL CLINIC ON SPRUCE ST,8146434403,100 SPRUCE ST,"HUNTINGDON, PA 16652"
8146432103,HUNTINGDON ANIMAL HOSPITAL,8146432103,601 7TH ST,"HUNTINGDON, PA 16652"
7173977885,LANCASTER VETERINARY ASSOCIATES,7173977885,16 CEDAR ACRES DR,"LANCASTER, PA 17602"
7173932444,LINCOLN HIGHWAY VET CLINIC,7173932444,1833 LINCOLN HWY E,"LANCASTER, PA 17602"
4438776556,NORTH EAST ANIMAL HOSPITAL,4438776556,1771 W PULASKI HWY,"ELKTON, MD 21921"
8047464936,HANOVER ANIMAL HOSPITAL,8047464936,8251 CROWN COLONY PKWY,"MECHANICSVLLE, VA 23116"
5409432273,ANIMAL HEALTH CARE CENTER,5409432273,1935 ROSSER AVE,"WAYNESBORO, VA 22980"
8022335423,BROWN EQUINE HOSPITAL,8022335423,876 STOYSTOWN RD,"SOMERSET, PA 15501"
8144433560,BROWN EQUINE HOSPITAL,8144433560,876 STOYSTOWN RD SUITE 2,"SOMERSET, PA 15501"
5409490161,"MARION'S GOOSE CREEK ANIMAL CLC",5409490161,1610 GOOSE CREEK RD,"FISHERSVILLE, VA 22939"
8144458971,LAUREL-HIGHLANDS ANIMAL HEALTH,8144458971,867 STOYSTOWN RD,"SOMERSET, PA 15501"
5187648467,TAMARA DOBBIE DVM,5187648467,1013 HOPEWELL RD,"OXFORD, PA 19363"
8042707274,SPRINGFIELD VETERINARY CENTER,8042707274,4416 SPRINGFIELD RD,"GLEN ALLEN, VA 23060"
8043600111,WEST END VETERINARY CLINIC,8043600111,3412 PUMP RD,"HENRICO, VA 23233"
7176521270,ANIMAL HOSPITAL-DAUPHIN COUNTY,7176521270,241 S HERSHEY RD,"HARRISBURG, PA 17112"
7175336745,ANIMAL HEALTH CARE CENTER,7175336745,948 E CHOCOLATE AVE,"HERSHEY, PA 17033"
8148323661,PENN ENGLAND EMBRYO TRANSFER,8148323661,RR 1 BOX 151A,"WILLIAMSBURG, PA 16693"
8043647030,WELLESLEY ANIMAL HOSPITAL,8043647030,3430 LAUDERDALE DR,"RICHMOND, VA 23233"
5409429453,WILDLIFE CENTER OF VIRGINIA,5409429453,1800 S. DEPHINE AVE,"WAYNESBORO, VA 22980"
7175608755,REPRODUCTIVE ASSOCIATES,7175608755,2731 PENDLETON DR,"LITITZ, PA 17543"
8045596502,RUTLAND ANIMAL HOSPITAL,8045596502,9375 ATLEE RD # 4109,"MECHANICSVILLE, VA 23116"
8047303266,MOBILE VET,8047303266,9377 SARAH SHELTON LANE,"MECHANICSVILLE, VA 23116"
5408851915,STAUNTON VET CLINIC,5408851915,401 COMMERCE RD SUITE 421,"STAUNTON, VA 24401"
7176655465,MANHEIM-ANIMAL HOSPITAL,7176655465,30 S MAIN ST,"MANHEIM, PA 17545"
7175695381,NEFFSVILLE VETERINARY CLINIC,7175695381,2555 LITITZ PIKE,"LANCASTER, PA 17601"
7172882926,STRASBURG VETERINARY HEALTH,7172882926,241 N DECATUR ST,"STRASBURG, PA 17579"
7178269762,HUMANE VETINARY HOSPITAL TY,7178269762,2195 LINCOLN HWY EAST,"LANCASTER, PA 17602"
7173936551,HUMANE LEAGUE OF LANCASTER COUNTY,7173936551,2195 LINCOLN HWY E,"LANCASTER, PA 17602"
8046723576,VCA PETS FIRST ANIMAL HOSPITAL,8046723576,9201 STAPLES MILL RD,"RICHMOND, VA 23228"
5713795812,OHANAH VETERINARY CARE,5713795812,10386 BRISTOW CENTER DR,"BRISTOW, VA 20136"
7037468693,CAMPBELL ANIMAL HOSPITAL,7037468693,3170 CAMPBELL DR,"FAIRFAX, VA 22031"
2407500445,MOBILE VET,2407500445,434 PROSPECT BLVD,"FREDERICK, MD 21701"
3016626622,FREDERICK VETERINARY INT MED,3016626622,434 PROSPECT BLVD,"FREDERICK, MD 21701"
6782679799,KAYLE PLUMMER DVM,6782679799,"MANASSAS, VA 20110",6782679799
7033611363,BLOOMS CROSSING YAPPIE CUTTERY,7033611363,9471 MANASSAS DR,"MANASSAS PARK, VA 20111"
7033357766,BLOOMS CROSSING ANIMAL HOSPITAL,7033357766,9471 MANASSAS DR,"MANASSAS PARK, VA 20111"
7036876880,PENDER VETERINARY CENTRE-MANASSAS,7036876880,9471 MANASSAS DR,"MANASSAS PARK, VA 20111"
5712080199,ANICIRA VETERINARY CARE,5712080199,9975 PENNSYLVANIA AVE,"MANASSAS, VA 20110"
3017423306,NEW HAMPSHIRE AVENUE ANIMAL,3017423306,"GAITHERSBURG, MD 20879",3017423306
3013717700,VALLEY VETERINARY HOSPITAL,3013717700,4315 OLD NATIONAL PIKE,"MIDDLETOWN, MD 21769"
3016951050,PROSPECT VETERINARY CLINIC,3016951050,411 S JEFFERSON ST,"FREDERICK, MD 21701"
3012990880,CANAL CLINIC,3012990880,9125 RIVER RD,"POTOMAC, MD 20854"
3016741303,MOBILE VET,3016741303,8909 IVERLEIGH CT,"POTOMAC, MD 20854"
3016622273,CARE VETERINARY CENTER,3016622273,1080 W PATRICK ST STE 31,"FREDERICK, MD 21703"
2404574387,CVCA - CARDIAC CARE FOR PETS,2404574387,1080 WEST PATRICK,"FREDERICK, MD 21703"
7035011340,FRED GARRISON,7035011340,"CLIFTON, VA 20124",7035011340
2404038387,WOODLEY GARDENS VET CARE,2404038387,1123 NELSON ST,"ROCKVILLE, MD 20850"
7032883361,"BANFIELD - TYSON'S CORNER",7032883361,8204 LEESBURG PIKE,"VIENNA, VA 22182"
7038020490,ANIMAL CLINIC OF CLIFTON,7038020490,PO BOX 140,"CLIFTON, VA 20124"
7033851054,VCA UNIVERSITY VETERINARY CLINIC,7033851054,10681 BRADDOCK RD,"FAIRFAX, VA 22032"
3014734478,WEST-FREDERICK VETERINARY HOSP,3014734478,6902 BOWERS RD,"FREDERICK, MD 21702"
3048869212,BLUE MOUNTAIN HOME PET CARE,3048869212,"SHEPHERDSTOWN, WV 25443",3048869212
3048866300,EQUINE SOLUTIONS LLC,3048866300,"SHEPHERDSTOWN, WV 25443",3048866300
2406838387,MONTGOMERY VILLAGE VETERINARY,2406838387,9144 ROTHBURY DR,"GAITHERSBURG, MD 20886"
3017753724,MARTIN F. KRIETE DVM,3017753724,112 IVY HILL DR,"MIDDLETOWN, MD 21769"
2408185971,SOUTH MOUNTAIN EQUINE,2408185971,PO BOX 1081,"MIDDLETOWN, MD 21769"
3016319010,SUPER PETZ,3016319010,1275 W PATRICK ST,"FREDERICK, MD 21702"
3016209600,ALL CREATURES AC,3016209600,1275 W PATRICK ST,"FREDERICK, MD 21702"
7032804588,MAINSTAY VETERINARY PRACTICE,7032804588,3083 NUTLEY ST,"FARIFAX, VA 22031"
7032735110,LITTLE RIVER VETERINARY CLINIC,7032735110,4000 BURKE STATION RD,"FAIRFAX, VA 22032"
7033306767,SIGNAL HILL ANIMAL CLINIC,7033306767,9554 LIBERIA AVE,"MANASSAS, VA 20110"
6465058202,MOBILE VETERINARY SURGERY,6465058202,701 ROXBORO RD,"ROXVILLE, MD 20850"
7036150173,MOBILE VET--PLEASE EMAIL ONLY!!,7036150173,TYSONS CORNER,"TYSONS CORNER, VA"
9705561030,PRIVATE VETERNARIAN,9705561030,10606 SWEEPSTAKES RD,"DAMASCUS, MD 20872"
3012580333,PET DOMINION,3012580333,15820 REDLAND RD,"ROCKVILLE, MD 20855"
3019002970,PET DOMINION,3019002970,15820 REDLAND RD,"ROCKVILLE, MD 20855"
6315530539,COUNTRY EQUINE,6315530539,630 ROBINSON LANE,"WARRENTON, VA 20186"
7033474866,MOBILE VET CLINIC,7033474866,"BARSTOW, VA 20136",7033474866
3016636531,MC CLELLAN VETERINARY CLINIC,3016636531,142 W PATRICK ST # A,"FREDERICK, MD 21701"
3016635591,GLADE VALLEY ANIMAL HOSPITAL,3016635591,2420 MONOCACY BLVD,"FREDERICK, MD 21701"
3012535510,DAMASCUS EQUINE ASSOCIATES,3012535510,27601 BARNES RD,"DAMASCUS, MD 20872"
7035737464,DUNN LORING ANIMAL HOSPITAL,7035737464,2304 GALLOWS RD,"DUNN LORING, VA 22027"
3019775586,GOSHEN ANIMAL CLINIC,3019775586,8357 SNOUFFER SCHOOL RD,"GAITHERSBURG, MD 20879"
7034255015,MOBILE VETERINARY SVC,7034255015,3883 PICKETT RD,"FAIRFAX, VA 22031"
7034255020,MONTROSE ANIMAL HEALTH CTR,7034255020,3883 PICKETT RD,"FAIRFAX, VA 22031"
7039782567,BANFIELD - FAIRFAX,7039782567,9516 MAIN ST,"FAIRFAX, VA 22031"
3012532072,DAMASCUS VETERINARY HOSPITAL,3012532072,24939 RIDGE RD,"DAMASCUS, MD 20872"
5407223200,PLAZA PET CLINIC,5407223200,1855 SENSENY RD # 7,"WINCHESTER, VA 22602"
7033688284,SOUTHSIDE ANIMAL HOSPITAL,7033688284,10464 DUMFRIES RD,"MANASSAS, VA 20110"
3016372248,BLUEPEARL-ROCKVILLE MD,3016372248,1 TAFT CT,"ROCKVILLE, MD 20850"
4107072341,KARENA JOUNG,4107072341,1 TAFT COURT,"ROCKVILLE, MD 20850"
3042290662,EQUINE VETERINARY CARE,3042290662,9923 WINCHESTER AVE,"BUNKER HILL, WV 25413"
5403477788,ANIMAL CARE CTR OF WARRENTON,5403477788,657 FALMOUTH ST,"WARRENTON, VA 20186"
2404096166,VETERINARY PREVENTIVE MEDICINE RESEARCH AND CONSULTATION,2404096166,1509 BEVERLY CT,"FREDERICK, MD 21701"
7035326121,FALLS CHURCH ANIMAL HOSPITAL,7035326121,1249 W BROAD ST,"FALLS CHURCH, VA 22046"
5404095272,"VALLEY VETERINARY ONCOLOGY, PC",5404095272,210 COSTELLO DR,"WINCHESTER, VA 22602"
5404500177,VETERINARY SURGICAL CENTERS,5404500177,210 COSTELLO DR,"WINCHESTER, VA 22602"
5403254242,EDWARDS,5403254242,489 ZODIAC LANE,"BUNKER HILLS, WV 25413"
2409977166,MOBILE VET,2409977166,7307 NEVIS RD,"BETHESDA, MD 20817"
3018653232,NEW MARKET ANIMAL HOSPITAL,3018653232,10609 OLD NATIONAL PIKE,"NEW MARKET, MD 21774"
5406622301,SILVER SPRING VETERINARY HOSP,5406622301,241 GARBER LN,"WINCHESTER, VA 22602"
5406861135,HOUSE PAWS ANIMAL HOSPITAL WINCHESTER,5406861135,370 BATTLE AVE,"WINCHESTER, VA 22601"
5407222665,BERRYVILLE AVENUE VETERINARIAN CLINIC,5407222665,370 BATTLE AVENUE,"WINCHESTER, VA 22601"
5406627811,VALLEY EMERGENCY VETERINARY,5406627811,164 GARBER LN,"WINCHESTER, VA 22602"
4349446225,MOBILE VET,4349446225,472 MONTROSE RD,"MONTROSE, VA 24574"
2406266200,BESCH VET,2406266200,6730 SPRING HILL DR,"FREDERICK, MD 21702"
3018816447,MONTGOMERY ANIMAL HOSPITAL,3018816447,5401 RANDOLPH RD STE A,"ROCKVILLE, MD 20852"
7039788900,KINGS-PARK VETERINARY HOSPITAL,7039788900,5241 ROLLING RD,"SPRINGFIELD, VA 22151"
3042297387,INWOOD ANIMAL CENTER,3042297387,7611 WINCHESTER AVE,"INWOOD, WV 25428"
5057644858,USAG DAEGU CAMP WALKER VTF,5057644858,BLGDING #S-341,"USAG DAEGU, KO"
7039788655,VILLAGE VETERINARY CLINIC,7039788655,9544 BURKE RD,"BURKE, VA 22015"
7036641397,VILLAGE VETERINARY CLINIC OF BURKE,7036641397,9544 BURKE RD,"BURKE, VA 22015"
5406620225,BANFIELD - WINCHESTER,5406620225,2310 LEGGE BLVD,"WINCHESTER, VA 22801"
3016626029,BANFIELD -FREDERICK NORTH,3016626029,2450 OSPREY WAY,"FREDERICK, MD 21701"
7038669838,"YOUR CAT'S DOCTOR INC",7038669838,PO BOX 10407,"BURKE, VA 22009"
5406670260,WINCHESTER ANIMAL HOSPITAL,5406670260,901 N LOUDOUN ST,"WINCHESTER, VA 22601"
3014327120,BOONSBORO VETERINARY HOSPITAL,3014327120,6734 OLD NATIONAL PIKE,"BOONSBORO, MD 21713"
4104999004,MOBILE VET,4104999004,5514 BESLEY CT,"ROCKWELL, MD 20851"
5406621662,HACKWOOD EQUINE,5406621662,PO BOX 3303,"WINCHESTER, VA 22604"
8014711896,MOBILE VET,8014711896,7208 INDIAN SUMMER LN,"FREDERICK, MD 21702"
3018816212,KENHAVEN ANIMAL HOSPITAL,3018816212,12311 WILKINS AVE,"ROCKVILLE, MD 20852"
5403644777,COMMONWEALTH EQUINE,5403644777,PO BOX 428,"ORLEAN, VA 20186"
7032418480,FELINE VETERINARY CLINIC,7032418480,7189 LEE HWY,"FALLS CHURCH, VA 22046"
3013713333,PALMER ANIMAL HOSPITAL,3013713333,9405 BALTIMORE NATIONAL PIKE,"MYERSVILLE, MD 21773"
3015144917,BMI,3015144917,124 BYTE DR,"FREDRICK, MD 21702"
5404508090,MEADOW BRANCH ANIMAL HOSPITAL,5404508090,1700 S LOUDOUN ST,"WINCHESTER, VA 22601"
2404065496,"DR BOYD'S PET RESORT & VETERINARY CLINIC",2404065496,11503 ROCKVILLE PIKE STE B,"ROCKVILLE, MD 20852"
2405292734,MILITARY VET,2405292734,1210 HUNT LN,"SAN ANTONIO, TX 78251"
3016638353,YELLOW SPRINGS VETERINARY CLINIC,3016638353,25 THOMAS JOHNSON DR,"FREDERICK, MD 21702"
3017705225,METROPOLITAN EMERGENCY ANIMAL CLINIC,3017705225,12106 NEBEL ST,"ROCKVILLE, MD 20852"
3012306595,NEBEL STREET ANIMAL HOSPITAL,3012306595,12100 NEBEL ST,"ROCKVILLE, MD 20852"
7032038467,MOBILE VET,7032038467,8716 PICCADILLY PLACE,"SPRINGFIELD, VA 22151"
7037949933,AT HOME VETERINARY CARE,7037949933,12491 BRISTOW RD,"NOKESVILLE, VA 20181"
5406672772,COLONY ANIMAL HOSPITAL,5406672772,2256 PAPERMILL RD,"WINCHESTER, VA 22601"
3043501734,VETS & PETS PET HOSPITAL,3043501734,554A CHARLES TOWN RD,"MARTINSBURG, WV 25405"
7035699600,BURKE ANIMAL CLINIC,7035699600,6307 LEE CHAPEL RD,"BURKE, VA 22015"
7035743860,BURKE ANIMAL CLINIC,7035743860,6307 LEE CHAPEL RD,"BURKE, VA 22015"
3019771881,"BEST FRIEND'S VETERINARY HOSP",3019771881,5100 MUNCASTER MILL RD,"ROCKVILLE, MD 20855"
3015641923,DEL RAY ANIMAL HOSPITAL,3015641923,9301 OLD GEORGETOWN RD,"BETHESDA, MD 20814"
4108287676,VINSON ANIMAL HOSPITAL,4108287676,1030 YORK RD,"BALTIMORE, MD 21204"
7248156326,MINDY WOLFE DVM,7248156326,808 BESTGATE RD,"ANNAPOLIS, MD"
4102240039,CVCA CARDIAC CARE FOR PETS,4102240039,808 BESTGATE ROAD,"ANNAPOLIS, MD 21401"
4106904837,VETERINARY NEUROLOGY & IMAGING OF THE CHESAPEAKE,4106904837,808 BESTGATE RD,"ANNAPOLIS, MD 21401"
4102240121,CHESAPEAKE VETERENARY SURGICAL SPECIALISTS,4102240121,808 BESTGATE RD,"ANNAPOLIS, MD 21401"
4102240331,ANNE ARUNDEL VETERINARY CLINIC,4102240331,808 BESTGATE RD,"ANNAPOLIS, MD 21401"
5408985388,FOUR PAWS ANIMAL HOSPITAL AND WELLNESS CENTER,5408985388,10088 JEFFERSON DAVIS HWY,"FREDRICKSBURG, VA 22407"
4102526910,ANIMAL MEDICAL CLINIC,4102526910,1811 YORK RD # D,"TIMONIUM, MD 21093"
3104939779,EQUINE VETERINARY AND PODIATRY SERVICES,3104939779,1446 BALTIMORE ST,"HANOVER, PA 17331"
7176337387,ALOHA ANIMAL HOSPITAL,7176337387,1446 BALTIMORE ST,"HANOVER, PA 17331"
4108258880,TOWSON VETERINARY HOSPITAL,4108258880,716 YORK RD,"TOWSON, MD 21204"
4436951259,MOBILE VET,4436951259,1015 WINDSFORD RD,"POWSON, MD 21204"
4106667878,PADONIA VETERINARY HOSPITAL,4106667878,9827 YORK RD,"COCKEYSVILLE, MD 21030"
4107714800,MARYLAND EQUINE CTR,4107714800,15132 WHEELER LN,"SPARKS GLENCOE, MD 21152"
5408912866,BANFIELD - MASSAPONAX,5408912866,9751 JEFFERSON DAVIS HWY,"FREDERICKSBRG, VA 22407"
7246023038,MOBILE VET,7246023038,2528 MT CARMEL RD,"PARKTON, MD 21220"
4103372084,MOBILE VET,4103372084,1111 LONGBROOK RD,"LUTHERVILLE, MD 21093"
4105718480,BAY COUNTRY VETERINARY HOSPITAL,4105718480,626 ADMIRAL DR # K,"ANNAPOLIS, MD 21401"
7176337297,PAWS ANIMAL HOSPITAL,7176337297,1055 BALTIMORE ST #1,"HANOVER, PA 17331"
4105270800,HUNT VALLEY ANIMAL HOSPITAL,4105270800,11206 YORK RD,"COCKEYSVILLE, MD 21030"
4433186500,URGENT VET CARE,4433186500,11121 YORK RD,"COCKEYSVILLE, MD 21030"
4105071224,ANNE ARUNDEL COUNTY ANIMAL CONTROL,4105071224,712 DIVING CREEK RD,"ARNOLD, MD 21012"
9739274948,FLANDERS VETERINARY CLINIC,9739274948,270 US HIGHWAY 206 STE 301,"FLANDERS, NJ 07836"
4105441130,ARNOLD PET STATION INC,4105441130,1212 RITCHIE HWY,"ARNOLD, MD 21012"
5407756800,EAGLE NEST ANIMAL HOSPITAL,5407756800,7955 KINGS HWY,"KING GEORGE, VA 22485"
4105588316,MOBILE VET,4105588316,251 BAYVIEW BLVD,"BALTIMORE, MD 21224"
4104265300,ANIMAL CARE CLINIC INC,4104265300,5009 HARFORD RD,"BALTIMORE, MD 21214"
4107937670,EVERHART WELLPET CENTER,4107937670,8482 FORT SMALLWOOD RD,"PASADENA, MD 21122"
4103607297,CALVERT VETERINARY CENTER,4103607297,4100 MOUNTAIN RD STE C,"PASADENA, MD 21122"
4103172028,LAKE SHORE PET HOSPITAL,4103172028,4193 MOUNTAIN RD,"PASADENA, MD"
4108285338,BANFIELD - TOWSON,4108285338,1238 PUTTY HILL AVE,"BALTIMORE, MD 21286"
7173348876,ADAMS COUNTY SPCA,7173348876,11 GOLDENVILLE RD,"GETTYSBURG, PA 17325"
5405389414,ANIMAL CLINIC,5405389414,8028 CLEVLAND DR,"KING GEORGE VA, VA 22485"
4108288387,VET ON WHEELS,4108288387,818 E. JOPPA ROAD,"TOWSON, MD 21286"
4102965411,HILLENDALE ANIMAL HOSPITAL,4102965411,6839 LOCH RAVEN BLVD,"TOWSON, MD 21286"
6106625245,JOHNS HOPKINS UNIVERSITY,6106625245,"BALTIMORE, MD 21224",6106625245
4106338808,EASTERN ANIMAL HOSPITAL,4106338808,6404 EASTERN AVE,"BALTIMORE, MD 21224"
7174853033,BETTER DAYS,7174853033,182 BUCHANAN TRL,"MCCONNELLSBURG, PA 17233"
5405826370,SPOTSYLVANIA ANIMAL HOSPITAL,5405826370,9133 COURTHOUSE RD,"SPOTSYLVANIA, VA 22553"
7179873033,SPAY & NEUTER CLINIC,7179873033,182 BUCHANAN TRAIL,"MCCONNELLSBURG, PA 17233"
7176326711,HANOVER VETERINARY HOSPITAL,7176326711,323 BROADWAY,"HANOVER, PA 17331"
7174853552,MCCONNELSBURG VETERINARY CLINIC,7174853552,163 RESERVOIR RD,"MC CONNELLSBURG, PA 17233"
5407403500,NEW MARKET VETERINARY CLINIC,5407403500,3673 OLD VALLEY PIKE,"NEW MARKET, VA 22844"
7172619738,KEYSTONE MOBILE VETERINARY SVC,7172619738,PO BOX 382,"SCOTLAND, PA 17254"
5408465330,VETERINARY HOME CARE,5408465330,PO BOX,"DAHLGREN, VA 22448"
4107577645,ARNOLD VETERINARY HOSPITAL,4107577645,1414 RITCHIE HWY,"ARNOLD, MD 21012"
3048978288,LOST RIVER ANIMAL HOSPITAL,3048978288,4158 W VIRGINIA 259,"BAKER, WV 26801"
4104263236,HAMILTON ANIMAL HOSPITAL,4104263236,6036 HARFORD RD,"BALTIMORE, MD 21214"
7176324757,CLEARVIEW ANIMAL HOSPITAL,7176324757,1035 HIGH ST,"HANOVER, PA 17331"
4102576172,CALVERT ANIMAL HOSPITAL,4102576172,1923 SKINNERS TURN R,"OWINGS, MD 20736"
5409486876,MADISON COMPANION HOSPITAL,5409486876,2658 S SEMINOLE TRL,"MADISON, VA 22727"
7177398192,SPRING GROVE ANIMAL HOSPITAL,7177398192,31 W HANOVER ST STE 3,"SPRING GROVE, PA 17362"
4102528387,ANIMAL EMERGENCY CTR,4102528387,1209 CROMWELL BRIDGE RD,"TOWSON, MD 21286"
4108280911,ATLANTIC VETERINARY INTERNAL MEDICINE IN ONCOLOGY,4108280911,1209 CROMWELL BRIDGE RD.,"TOWSON, MD 21286"
4108281001,ANIMAL DENTAL CENTER,4108281001,1209 CROMWELL BRIDGE RD,"TOWSON, MD 21286"
4103393461,CVCA-CARDIAC CARE FOR PETS,4103393461,1209 CROMWELL BRIDGE RD,"TOWSON, MD 21286"
3018555166,CHESAPEAKE ANIMAL CLINIC,3018555166,9825 OLD SOLOMONS ISLAND RD,"OWINGS, MD 20736"
7176333603,BROWN ANIMAL HOSPITAL,7176333603,1110 EICHELBERGER ST,"HANOVER, PA 17331"
4102572959,CHESAPEAKE ANIMAL CLINIC,4102572959,9825 OLD SOLOMONS ISLAND RD,"OWINGS, MD 20736"
7172649525,CREATURES GREAT & SMALL,7172649525,3000 PHILADELPHIA AVE,"CHAMBERSBURG, PA 17201"
4102540456,LITTLE ANGELS PET CLINIC,4102540456,6800 HARTFORD RD,"BALTIMORE, MD 21234"
4438267231,EQUINE VET SERVICES,4438267231,PO BOX 1154,"SPARKS, MD 21152"
4104377514,HAPPY TRAILS VETERINARY HOSPITAL,4104377514,4499 MOUNTAIN ROAD,"PASADENA, MD 21122"
4102634112,ANNAPOLIS ANIMAL HOSPITAL,4102634112,712 MELROSE ST,"ANNAPOLIS, MD 21401"
4108255040,BELTWAY ANIMAL HOSPITAL,4108255040,8702 LOCH RAVEN BLVD,"BALTIMORE, MD 21286"
4104835162,VCA ACADEMY ANIMAL HOSPITAL,4104835162,5915 BELAIR RD,"BALTIMORE, MD 21206"
7176247333,CIRCLE Y VET SERVICES,7176247333,4698 YORK RD,"NEW OXFORD, PA 17350"
7175218024,TREEHORSE VETERINARY SERVICES INC,7175218024,190 PLANTATION RD,"BIGLERVILLE, PA 17307"
4102828878,EASTPOINT-VETERINARY HOSPITAL,4102828878,702 MERRITT BLVD,"DUNDALK, MD 21222"
4104857373,BELAIR ROAD DOG & CAT HOSPITAL,4104857373,6207 BELAIR RD,"BALTIMORE, MD 21206"
4108666100,ROSEDALE ANIMAL HOSPITAL,4108666100,7611 PHILADELPHIA RD,"BALTIMORE, MD 21237"
3048225900,HAMPSHIRE ANIMAL HOSPITAL,3048225900,150 S MARSHAM ST,"ROMNEY, WV 26757"
7173528584,TREEHORSE VETERINARY,7173528584,090 PLANTATION RD,"BIGLERVILLE, PA 17307"
4108670770,MUDDY CREEK ANIMAL HOSPITAL,4108670770,5558 MUDDY CREEK RD,"WEST RIVER, MD 20778"
3018120315,ARUNDEL EQUINE VET CLINIC,3018120315,PO BOX 100,"DEALE, MD 20751"
4107579322,ROSE BRETT CORP,4107579322,844 BLUE HERON CT,"ARNOLD, MD 21012"
9176553369,LIC 6990 MD,9176553369,7577 IVES LN,"DUNDALK, MD"
4102686994,BAY RIDGE ANIMAL HOSPITAL,4102686994,2246 BAY RIDGE AVE,"ANNAPOLIS, MD 21403"
4102682287,BAY RIDGE ANIMAL HOSPITAL,4102682287,2248 BAY RIDGE AVE,"ANNAPOLIS, MD 21403"
4107571169,BAY-HILLS ANIMAL HOSPITAL,4107571169,1292 BAY DALE DR,"ARNOLD, MD 21012"
4102684388,SPCA OF ANNE ARUNDEL COUNTY,4102684388,1815 BAY RIDGE AVE,"ANNAPOLIS, MD 21403"
4102856302,VET SMART#369,4102856302,1559 MERRITT BLVD,"DUNDALK, MD 21222"
3018843231,TIDEWATER VETERINARY HOSPITAL,3018843231,30079 THREE NOTCH RD,"CHARLOTT HALL, MD 20622"
3018842850,LUCKY ONES LOW COST SPAY,3018842850,PO BOX 754,"CHARLOTTE HALL, MD 20622"
4102822250,DUNDALK ANIMAL HOSPITAL,4102822250,7810 WISE AVE,"BALTIMORE, MD 21222"
4104587769,RESERVOIR TRAILS VETERINARY SERVICES,4104587769,2658 BECKLEYSVILLE RD,"MANCHESTER, MD 21102"
4107573566,HOFFMAN ANIMAL HOSPITAL,4107573566,15 OLD MILL BOTTOM RD N,"ANNAPOLIS, MD 21409"
4106681040,PARKVILLE ANIMAL HOSPITAL,4106681040,8600 HARFORD RD # C,"PARKVILLE, MD 21234"
7176246112,NEW OXFORD VETERINARY CLINIC,7176246112,444 LINCOLN WAY E,"NEW OXFORD, PA"
7178872215,MOBILE VET,7178872215,3203 ROCKDALE RD,"FREELAND, MD 21053"
4105576040,HOLISTIC VETERINARY CARE MOBILE VET,4105576040,PO BOX 245,"PHOENIX, MD 21131"
5403008388,SPOTSWOOD VETERINARY SERVICES,5403008388,7111 SNOW HILL DRIVE,"SPOTSYLVANIA, VA 22551"
4103430200,MOUNT CARMEL ANIMAL HOSPITAL,4103430200,16904 YORK RD,"MONKTON, MD 21111"
5617061306,VET CLINIC,5617061306,16904 YORK RD,"MONKTON, MD 21111"
4108825600,PERRING ANIMAL HOSPITAL,4108825600,2208 E JOPPA RD,"PARKVILLE, MD 21234"
4106661390,JACKSONVILLE VETERINARY HOSP,4106661390,PO BOX 8,"PHOENIX, MD 21131"
4106655255,CARNEY ANIMAL HOSPITAL,4106655255,9011 HARFORD RD,"PARKVILLE, MD 21234"
7172354312,GREEN GLEN EQUINE HOSPITAL,7172354312,6675 GLENVILLE RD,"GLEN ROCK, PA 17327"
4102576171,CALVERT ANIMAL HOSPITAL,4102576171,PO BOX 70,"SUNDERLAND, MD 20689"
5406721600,ORANGE VETERINARY CLINIC,5406721600,PO BOX 468,"ORANGE, VA 22960"